<?xml version="1.0" encoding="UTF-8"?>
<gpx version="1.1" creator="Vertical Moment" xmlns="http://www.topografix.com/GPX/1/1">
<metadata><name>Adlitzgraeben | Falkenstein</name><desc>GPS data for Vertical Moment master v4. Coordinates derived from OSM (OpenStreetMap, (c) OSM contributors, ODbL 1.0), theCrag, climb.sk, outdooractive, Nominatim and legacy master coords.</desc></metadata>
<wpt lat="47.6584" lon="15.7935"><name>BLIZZARD</name><desc>Adlitzgraeben | Falkenstein</desc></wpt>
<wpt lat="47.6584" lon="15.7935"><name>100 JAHRE EINSAMKEIT</name><desc>Adlitzgraeben | Falkenstein</desc></wpt>
<wpt lat="47.6584" lon="15.7935"><name>ABORTERKER</name><desc>Adlitzgraeben | Falkenstein</desc></wpt>
<wpt lat="47.6584" lon="15.7935"><name>AFFENTANZ</name><desc>Adlitzgraeben | Falkenstein</desc></wpt>
<wpt lat="47.6584" lon="15.7935"><name>ANARCHIE</name><desc>Adlitzgraeben | Falkenstein</desc></wpt>
<wpt lat="47.6584" lon="15.7935"><name>ANGEL DUST</name><desc>Adlitzgraeben | Falkenstein</desc></wpt>
<wpt lat="47.6584" lon="15.7935"><name>AUCH SPASS MUSS SEIN</name><desc>Adlitzgraeben | Falkenstein</desc></wpt>
<wpt lat="47.6584" lon="15.7935"><name>AUSZUCKTE GFRASTER</name><desc>Adlitzgraeben | Falkenstein</desc></wpt>
<wpt lat="47.6584" lon="15.7935"><name>AUTAG IN FRANKEN</name><desc>Adlitzgraeben | Falkenstein</desc></wpt>
<wpt lat="47.6584" lon="15.7935"><name>AVIOPHOBIE</name><desc>Adlitzgraeben | Falkenstein</desc></wpt>
<wpt lat="47.6584" lon="15.7935"><name>AZAK THOTH</name><desc>Adlitzgraeben | Falkenstein</desc></wpt>
<wpt lat="47.6584" lon="15.7935"><name>BAUCHSCHUSS</name><desc>Adlitzgraeben | Falkenstein</desc></wpt>
<wpt lat="47.6584" lon="15.7935"><name>BAUCHWEH</name><desc>Adlitzgraeben | Falkenstein</desc></wpt>
<wpt lat="47.6584" lon="15.7935"><name>BIERBAUCH</name><desc>Adlitzgraeben | Falkenstein</desc></wpt>
<wpt lat="47.6584" lon="15.7935"><name>BIS ZUM BITTEREN ENDE</name><desc>Adlitzgraeben | Falkenstein</desc></wpt>
<wpt lat="47.6584" lon="15.7935"><name>BLAUBAUCH</name><desc>Adlitzgraeben | Falkenstein</desc></wpt>
<wpt lat="47.6584" lon="15.7935"><name>BLOC ROCIN BEATS</name><desc>Adlitzgraeben | Falkenstein</desc></wpt>
<wpt lat="47.6584" lon="15.7935"><name>BODY ENCOUNTER</name><desc>Adlitzgraeben | Falkenstein</desc></wpt>
<wpt lat="47.6584" lon="15.7935"><name>BST EULEN</name><desc>Adlitzgraeben | Falkenstein</desc></wpt>
<wpt lat="47.6584" lon="15.7935"><name>CHEAP SUNGLASSES</name><desc>Adlitzgraeben | Falkenstein</desc></wpt>
<wpt lat="47.6584" lon="15.7935"><name>DAJA</name><desc>Adlitzgraeben | Falkenstein</desc></wpt>
<wpt lat="47.6584" lon="15.7935"><name>DEISBEIN MIT SAUERKRAUT</name><desc>Adlitzgraeben | Falkenstein</desc></wpt>
<wpt lat="47.6584" lon="15.7935"><name>DICH TANZE NICHT</name><desc>Adlitzgraeben | Falkenstein</desc></wpt>
<wpt lat="47.6584" lon="15.7935"><name>DIE ZWEI SEITEN</name><desc>Adlitzgraeben | Falkenstein</desc></wpt>
<wpt lat="47.6584" lon="15.7935"><name>ENLOS</name><desc>Adlitzgraeben | Falkenstein</desc></wpt>
<wpt lat="47.6584" lon="15.7935"><name>ERITIS SICUT DEUS 1</name><desc>Adlitzgraeben | Falkenstein</desc></wpt>
<wpt lat="47.6584" lon="15.7935"><name>EXISTENTIALMINIMUM</name><desc>Adlitzgraeben | Falkenstein</desc></wpt>
<wpt lat="47.6584" lon="15.7935"><name>FENRIR</name><desc>Adlitzgraeben | Falkenstein</desc></wpt>
<wpt lat="47.6584" lon="15.7935"><name>FRAUENZEICHEN</name><desc>Adlitzgraeben | Falkenstein</desc></wpt>
<wpt lat="47.6584" lon="15.7935"><name>FRISCH GESCHOTTERT</name><desc>Adlitzgraeben | Falkenstein</desc></wpt>
<wpt lat="47.6584" lon="15.7935"><name>GEITCHA</name><desc>Adlitzgraeben | Falkenstein</desc></wpt>
<wpt lat="47.6584" lon="15.7935"><name>GMAHDE WIESN</name><desc>Adlitzgraeben | Falkenstein</desc></wpt>
<wpt lat="47.6584" lon="15.7935"><name>GRENZBLOCKADE</name><desc>Adlitzgraeben | Falkenstein</desc></wpt>
<wpt lat="47.6584" lon="15.7935"><name>GRUMMELGRIESGRAM</name><desc>Adlitzgraeben | Falkenstein</desc></wpt>
<wpt lat="47.6584" lon="15.7935"><name>GUGGUGG</name><desc>Adlitzgraeben | Falkenstein</desc></wpt>
<wpt lat="47.6584" lon="15.7935"><name>HARDROCKZOMBIE</name><desc>Adlitzgraeben | Falkenstein</desc></wpt>
<wpt lat="47.6584" lon="15.7935"><name>HARTER BAUCH</name><desc>Adlitzgraeben | Falkenstein</desc></wpt>
<wpt lat="47.6584" lon="15.7935"><name>HIMMELAUF ERDEN</name><desc>Adlitzgraeben | Falkenstein</desc></wpt>
<wpt lat="47.6584" lon="15.7935"><name>HOLLARÄÄÄDUUÖÖ</name><desc>Adlitzgraeben | Falkenstein</desc></wpt>
<wpt lat="47.6584" lon="15.7935"><name>HYDUTOR</name><desc>Adlitzgraeben | Falkenstein</desc></wpt>
<wpt lat="47.6584" lon="15.7935"><name>JAGDHEIM</name><desc>Adlitzgraeben | Falkenstein</desc></wpt>
<wpt lat="47.6584" lon="15.7935"><name>JOSEF TRIPPEL WEG</name><desc>Adlitzgraeben | Falkenstein</desc></wpt>
<wpt lat="47.6584" lon="15.7935"><name>KAIN UND ABEL</name><desc>Adlitzgraeben | Falkenstein</desc></wpt>
<wpt lat="47.6584" lon="15.7935"><name>KASUKI</name><desc>Adlitzgraeben | Falkenstein</desc></wpt>
<wpt lat="47.6584" lon="15.7935"><name>KEIT</name><desc>Adlitzgraeben | Falkenstein</desc></wpt>
<wpt lat="47.6584" lon="15.7935"><name>KENOSIS</name><desc>Adlitzgraeben | Falkenstein</desc></wpt>
<wpt lat="47.6584" lon="15.7935"><name>KONG</name><desc>Adlitzgraeben | Falkenstein</desc></wpt>
<wpt lat="47.6584" lon="15.7935"><name>KREUZZUG INS GLOCK</name><desc>Adlitzgraeben | Falkenstein</desc></wpt>
<wpt lat="47.6584" lon="15.7935"><name>KRUPS</name><desc>Adlitzgraeben | Falkenstein</desc></wpt>
<wpt lat="47.6584" lon="15.7935"><name>LABILBAUCH</name><desc>Adlitzgraeben | Falkenstein</desc></wpt>
<wpt lat="47.6584" lon="15.7935"><name>LANGE GARDIEN 111</name><desc>Adlitzgraeben | Falkenstein</desc></wpt>
<wpt lat="47.6584" lon="15.7935"><name>LARIFARI 111</name><desc>Adlitzgraeben | Falkenstein</desc></wpt>
<wpt lat="47.6584" lon="15.7935"><name>LOT OF WORX</name><desc>Adlitzgraeben | Falkenstein</desc></wpt>
<wpt lat="47.6584" lon="15.7935"><name>MICRO TOYS FOR JUMPY BOYS</name><desc>Adlitzgraeben | Falkenstein</desc></wpt>
<wpt lat="47.6584" lon="15.7935"><name>MISSGUNST</name><desc>Adlitzgraeben | Falkenstein</desc></wpt>
<wpt lat="47.6584" lon="15.7935"><name>MONDSCHEIN</name><desc>Adlitzgraeben | Falkenstein</desc></wpt>
<wpt lat="47.6584" lon="15.7935"><name>NAMENLOS</name><desc>Adlitzgraeben | Falkenstein</desc></wpt>
<wpt lat="47.6584" lon="15.7935"><name>NECRO SANCT</name><desc>Adlitzgraeben | Falkenstein</desc></wpt>
<wpt lat="47.6584" lon="15.7935"><name>NEW GERI GENERATION</name><desc>Adlitzgraeben | Falkenstein</desc></wpt>
<wpt lat="47.6584" lon="15.7935"><name>PASCHDI PASCHDI</name><desc>Adlitzgraeben | Falkenstein</desc></wpt>
<wpt lat="47.6584" lon="15.7935"><name>PER ASPERA AD ASTU</name><desc>Adlitzgraeben | Falkenstein</desc></wpt>
<wpt lat="47.6584" lon="15.7935"><name>REI TAGE RUNDER MOND</name><desc>Adlitzgraeben | Falkenstein</desc></wpt>
<wpt lat="47.6584" lon="15.7935"><name>ROSTIGER BH</name><desc>Adlitzgraeben | Falkenstein</desc></wpt>
<wpt lat="47.6584" lon="15.7935"><name>SAUBAUCH</name><desc>Adlitzgraeben | Falkenstein</desc></wpt>
<wpt lat="47.6584" lon="15.7935"><name>SCHLEICH DICH</name><desc>Adlitzgraeben | Falkenstein</desc></wpt>
<wpt lat="47.6584" lon="15.7935"><name>SCHUPPE ADE</name><desc>Adlitzgraeben | Falkenstein</desc></wpt>
<wpt lat="47.6584" lon="15.7935"><name>SCHWESTERLEIN KOMM TANZ @ERITIS SICUT DEUS 111</name><desc>Adlitzgraeben | Falkenstein</desc></wpt>
<wpt lat="47.6584" lon="15.7935"><name>SELBST IST DAS KIND</name><desc>Adlitzgraeben | Falkenstein</desc></wpt>
<wpt lat="47.6584" lon="15.7935"><name>SICH HETEROTROPH</name><desc>Adlitzgraeben | Falkenstein</desc></wpt>
<wpt lat="47.6584" lon="15.7935"><name>SICUT DEUS</name><desc>Adlitzgraeben | Falkenstein</desc></wpt>
<wpt lat="47.6584" lon="15.7935"><name>STYX CROSS OVER</name><desc>Adlitzgraeben | Falkenstein</desc></wpt>
<wpt lat="47.6584" lon="15.7935"><name>SUHGURIM</name><desc>Adlitzgraeben | Falkenstein</desc></wpt>
<wpt lat="47.6584" lon="15.7935"><name>TANZI TANZI</name><desc>Adlitzgraeben | Falkenstein</desc></wpt>
<wpt lat="47.6584" lon="15.7935"><name>THE BUZZ</name><desc>Adlitzgraeben | Falkenstein</desc></wpt>
<wpt lat="47.6584" lon="15.7935"><name>THRONE OF ABAZ</name><desc>Adlitzgraeben | Falkenstein</desc></wpt>
<wpt lat="47.6584" lon="15.7935"><name>TRAUM EWIGER FINSTERNIS</name><desc>Adlitzgraeben | Falkenstein</desc></wpt>
<wpt lat="47.6584" lon="15.7935"><name>TSCHAK BUMM</name><desc>Adlitzgraeben | Falkenstein</desc></wpt>
<wpt lat="47.6584" lon="15.7935"><name>UILENSPIEGEL</name><desc>Adlitzgraeben | Falkenstein</desc></wpt>
<wpt lat="47.6584" lon="15.7935"><name>VANITAS</name><desc>Adlitzgraeben | Falkenstein</desc></wpt>
<wpt lat="47.6584" lon="15.7935"><name>VAR MATJASOVSKY</name><desc>Adlitzgraeben | Falkenstein</desc></wpt>
<wpt lat="47.6584" lon="15.7935"><name>VERHEAD</name><desc>Adlitzgraeben | Falkenstein</desc></wpt>
<wpt lat="47.6584" lon="15.7935"><name>VERLÄNGERUNG</name><desc>Adlitzgraeben | Falkenstein</desc></wpt>
<wpt lat="47.6584" lon="15.7935"><name>VERLÅNGERUNG</name><desc>Adlitzgraeben | Falkenstein</desc></wpt>
<wpt lat="47.6584" lon="15.7935"><name>VIELHARMONIKER</name><desc>Adlitzgraeben | Falkenstein</desc></wpt>
<wpt lat="47.6584" lon="15.7935"><name>VOUER BAUCH</name><desc>Adlitzgraeben | Falkenstein</desc></wpt>
<wpt lat="47.6584" lon="15.7935"><name>WA HILTI HOID UNA</name><desc>Adlitzgraeben | Falkenstein</desc></wpt>
<wpt lat="47.6584" lon="15.7935"><name>WOSTENSTURM</name><desc>Adlitzgraeben | Falkenstein</desc></wpt>
<wpt lat="47.6584" lon="15.7935"><name>ZENTRUM DER LUST</name><desc>Adlitzgraeben | Falkenstein</desc></wpt>
<wpt lat="47.6584" lon="15.7935"><name>ZICK ZICK ZYUSS</name><desc>Adlitzgraeben | Falkenstein</desc></wpt>
<wpt lat="47.6584" lon="15.7935"><name>ZIWUI ZIWUI</name><desc>Adlitzgraeben | Falkenstein</desc></wpt>
<wpt lat="47.6584" lon="15.7935"><name>ZULU</name><desc>Adlitzgraeben | Falkenstein</desc></wpt>
<wpt lat="47.6584" lon="15.7935"><name>ZWEI SEITEN VARIANTE</name><desc>Adlitzgraeben | Falkenstein</desc></wpt>
<wpt lat="47.6584" lon="15.7935"><name>darüber ein Riesenüber- @ERFOLG IST TRAINIERBAR OSPIELPLATZ DER HELDEN</name><desc>Adlitzgraeben | Falkenstein</desc></wpt>
<wpt lat="47.6584" lon="15.7935"><name>sz FURY</name><desc>Adlitzgraeben | Falkenstein</desc></wpt>
<wpt lat="47.6584" lon="15.7935"><name>ÜPANISH INQUISITION</name><desc>Adlitzgraeben | Falkenstein</desc></wpt>
</gpx>
