<?xml version="1.0" encoding="UTF-8"?>
<gpx version="1.1" creator="Vertical Moment" xmlns="http://www.topografix.com/GPX/1/1">
<metadata><name>Berchtesgaden | Dießbachthörl</name><desc>GPS data for Vertical Moment master v4. Coordinates derived from OSM (OpenStreetMap, (c) OSM contributors, ODbL 1.0), theCrag, climb.sk, outdooractive, Nominatim and legacy master coords.</desc></metadata>
<wpt lat="47.5127249" lon="12.8849252"><name>Hundstod Südwest Grat</name><desc>Berchtesgaden | Dießbachthörl</desc></wpt>
</gpx>
