<?xml version="1.0" encoding="UTF-8"?>
<gpx version="1.1" creator="Vertical Moment" xmlns="http://www.topografix.com/GPX/1/1">
<metadata><name>Berchtesgaden | —</name><desc>GPS data for Vertical Moment master v4. Coordinates derived from OSM (OpenStreetMap, (c) OSM contributors, ODbL 1.0), theCrag, climb.sk, outdooractive, Nominatim and legacy master coords.</desc></metadata>
<wpt lat="47.6888917" lon="13.0777636"><name>Kleiner Barmstein Südgrat</name><desc>Berchtesgaden | —</desc></wpt>
<wpt lat="47.5236584" lon="12.7895733"><name>Hochkranz Ostgrat</name><desc>Berchtesgaden | —</desc></wpt>
<wpt lat="47.6935146" lon="12.986619"><name>Südrampe Hochthron</name><desc>Berchtesgaden | —</desc></wpt>
<wpt lat="47.6935146" lon="12.986619"><name>Berchtesgadener Hochthron</name><desc>Berchtesgaden | —</desc></wpt>
<wpt lat="47.5543889" lon="12.9220342"><name>Blaueisumrahmung</name><desc>Berchtesgaden | —</desc></wpt>
</gpx>
