<?xml version="1.0" encoding="UTF-8"?>
<gpx version="1.1" creator="Vertical Moment" xmlns="http://www.topografix.com/GPX/1/1">
<metadata><name>Bucklige Welt | Grimmwand</name><desc>GPS data for Vertical Moment master v4. Coordinates derived from OSM (OpenStreetMap, (c) OSM contributors, ODbL 1.0), theCrag, climb.sk, outdooractive, Nominatim and legacy master coords.</desc></metadata>
<wpt lat="47.65307" lon="16.133806"><name>Boten des Todes</name><desc>Bucklige Welt | Grimmwand</desc></wpt>
<wpt lat="47.65307" lon="16.133806"><name>Das kluge Gretl</name><desc>Bucklige Welt | Grimmwand</desc></wpt>
<wpt lat="47.65307" lon="16.133806"><name>Der Hase und der Igel</name><desc>Bucklige Welt | Grimmwand</desc></wpt>
<wpt lat="47.65307" lon="16.133806"><name>Der alte Sultan</name><desc>Bucklige Welt | Grimmwand</desc></wpt>
<wpt lat="47.65307" lon="16.133806"><name>Der singende Knochen</name><desc>Bucklige Welt | Grimmwand</desc></wpt>
<wpt lat="47.65307" lon="16.133806"><name>Die 12 Brüder</name><desc>Bucklige Welt | Grimmwand</desc></wpt>
<wpt lat="47.65307" lon="16.133806"><name>Die 7 Raben</name><desc>Bucklige Welt | Grimmwand</desc></wpt>
<wpt lat="47.65307" lon="16.133806"><name>Die Alte im Wald</name><desc>Bucklige Welt | Grimmwand</desc></wpt>
<wpt lat="47.65307" lon="16.133806"><name>Die weisse Schlange</name><desc>Bucklige Welt | Grimmwand</desc></wpt>
<wpt lat="47.65307" lon="16.133806"><name>Dreschflegel</name><desc>Bucklige Welt | Grimmwand</desc></wpt>
<wpt lat="47.65307" lon="16.133806"><name>Eisenhans</name><desc>Bucklige Welt | Grimmwand</desc></wpt>
<wpt lat="47.65307" lon="16.133806"><name>Eisenofen</name><desc>Bucklige Welt | Grimmwand</desc></wpt>
<wpt lat="47.65307" lon="16.133806"><name>Eiserner Heinrich</name><desc>Bucklige Welt | Grimmwand</desc></wpt>
<wpt lat="47.65307" lon="16.133806"><name>Gevatter Tod</name><desc>Bucklige Welt | Grimmwand</desc></wpt>
<wpt lat="47.65307" lon="16.133806"><name>Goldesel</name><desc>Bucklige Welt | Grimmwand</desc></wpt>
<wpt lat="47.65307" lon="16.133806"><name>Goldesel Direkt</name><desc>Bucklige Welt | Grimmwand</desc></wpt>
<wpt lat="47.65307" lon="16.133806"><name>Hans im Glück</name><desc>Bucklige Welt | Grimmwand</desc></wpt>
<wpt lat="47.65307" lon="16.133806"><name>Knüppel aus dem Sack</name><desc>Bucklige Welt | Grimmwand</desc></wpt>
<wpt lat="47.65307" lon="16.133806"><name>Krautesel</name><desc>Bucklige Welt | Grimmwand</desc></wpt>
<wpt lat="47.65307" lon="16.133806"><name>Kristallkugel</name><desc>Bucklige Welt | Grimmwand</desc></wpt>
<wpt lat="47.65307" lon="16.133806"><name>Lumpengesindel</name><desc>Bucklige Welt | Grimmwand</desc></wpt>
<wpt lat="47.65307" lon="16.133806"><name>Piazeinstieg</name><desc>Bucklige Welt | Grimmwand</desc></wpt>
<wpt lat="47.65307" lon="16.133806"><name>Prinzessin Mäusehaut</name><desc>Bucklige Welt | Grimmwand</desc></wpt>
<wpt lat="47.65307" lon="16.133806"><name>Treuer Johannes</name><desc>Bucklige Welt | Grimmwand</desc></wpt>
<wpt lat="47.65307" lon="16.133806"><name>Wichtelmänner</name><desc>Bucklige Welt | Grimmwand</desc></wpt>
</gpx>
