<?xml version="1.0" encoding="UTF-8"?>
<gpx version="1.1" creator="Vertical Moment" xmlns="http://www.topografix.com/GPX/1/1">
<metadata><name>Bucklige Welt | Scheiblingkirchner Wandl</name><desc>GPS data for Vertical Moment master v4. Coordinates derived from OSM (OpenStreetMap, (c) OSM contributors, ODbL 1.0), theCrag, climb.sk, outdooractive, Nominatim and legacy master coords.</desc></metadata>
<wpt lat="47.660037" lon="16.138196"><name>6meup</name><desc>Bucklige Welt | Scheiblingkirchner Wandl</desc></wpt>
<wpt lat="47.660037" lon="16.138196"><name>Alles Porno</name><desc>Bucklige Welt | Scheiblingkirchner Wandl</desc></wpt>
<wpt lat="47.660037" lon="16.138196"><name>Dagfin</name><desc>Bucklige Welt | Scheiblingkirchner Wandl</desc></wpt>
<wpt lat="47.660037" lon="16.138196"><name>Herbstleyd</name><desc>Bucklige Welt | Scheiblingkirchner Wandl</desc></wpt>
<wpt lat="47.660037" lon="16.138196"><name>Im Trend der Zeit</name><desc>Bucklige Welt | Scheiblingkirchner Wandl</desc></wpt>
<wpt lat="47.660037" lon="16.138196"><name>Isili</name><desc>Bucklige Welt | Scheiblingkirchner Wandl</desc></wpt>
<wpt lat="47.660037" lon="16.138196"><name>Judas Iscariot</name><desc>Bucklige Welt | Scheiblingkirchner Wandl</desc></wpt>
<wpt lat="47.660037" lon="16.138196"><name>Letzte Ausfahrt Dagfin</name><desc>Bucklige Welt | Scheiblingkirchner Wandl</desc></wpt>
<wpt lat="47.660037" lon="16.138196"><name>Mayhem</name><desc>Bucklige Welt | Scheiblingkirchner Wandl</desc></wpt>
<wpt lat="47.660037" lon="16.138196"><name>Merlins Crack</name><desc>Bucklige Welt | Scheiblingkirchner Wandl</desc></wpt>
<wpt lat="47.660037" lon="16.138196"><name>Midian</name><desc>Bucklige Welt | Scheiblingkirchner Wandl</desc></wpt>
<wpt lat="47.660037" lon="16.138196"><name>Midian Direkt</name><desc>Bucklige Welt | Scheiblingkirchner Wandl</desc></wpt>
<wpt lat="47.660037" lon="16.138196"><name>Moonfog</name><desc>Bucklige Welt | Scheiblingkirchner Wandl</desc></wpt>
<wpt lat="47.660037" lon="16.138196"><name>Panzerdivision</name><desc>Bucklige Welt | Scheiblingkirchner Wandl</desc></wpt>
<wpt lat="47.660037" lon="16.138196"><name>Paraplui</name><desc>Bucklige Welt | Scheiblingkirchner Wandl</desc></wpt>
<wpt lat="47.660037" lon="16.138196"><name>Pfeift</name><desc>Bucklige Welt | Scheiblingkirchner Wandl</desc></wpt>
<wpt lat="47.660037" lon="16.138196"><name>Quintessence</name><desc>Bucklige Welt | Scheiblingkirchner Wandl</desc></wpt>
<wpt lat="47.660037" lon="16.138196"><name>Thors Wohnsitz</name><desc>Bucklige Welt | Scheiblingkirchner Wandl</desc></wpt>
<wpt lat="47.660037" lon="16.138196"><name>Tod durch Pentagramm</name><desc>Bucklige Welt | Scheiblingkirchner Wandl</desc></wpt>
<wpt lat="47.660037" lon="16.138196"><name>Wabenkante</name><desc>Bucklige Welt | Scheiblingkirchner Wandl</desc></wpt>
<wpt lat="47.660037" lon="16.138196"><name>Wadi Rum</name><desc>Bucklige Welt | Scheiblingkirchner Wandl</desc></wpt>
</gpx>
