<?xml version="1.0" encoding="UTF-8"?>
<gpx version="1.1" creator="Vertical Moment" xmlns="http://www.topografix.com/GPX/1/1">
<metadata><name>Bucklige Welt | Black Metal</name><desc>GPS data for Vertical Moment master v4. Coordinates derived from OSM (OpenStreetMap, (c) OSM contributors, ODbL 1.0), theCrag, climb.sk, outdooractive, Nominatim and legacy master coords.</desc></metadata>
<wpt lat="47.65241" lon="16.139402"><name>4einhalb</name><desc>Bucklige Welt | Black Metal</desc></wpt>
<wpt lat="47.65241" lon="16.139402"><name>Babymaus</name><desc>Bucklige Welt | Black Metal</desc></wpt>
<wpt lat="47.65241" lon="16.139402"><name>Black Metal</name><desc>Bucklige Welt | Black Metal</desc></wpt>
<wpt lat="47.65241" lon="16.139402"><name>Blut und Nieten</name><desc>Bucklige Welt | Black Metal</desc></wpt>
<wpt lat="47.65241" lon="16.139402"><name>Bronx River Parkway</name><desc>Bucklige Welt | Black Metal</desc></wpt>
<wpt lat="47.65241" lon="16.139402"><name>Cosmic Shop</name><desc>Bucklige Welt | Black Metal</desc></wpt>
<wpt lat="47.65241" lon="16.139402"><name>Coyote Ugly</name><desc>Bucklige Welt | Black Metal</desc></wpt>
<wpt lat="47.65241" lon="16.139402"><name>Crush Mode</name><desc>Bucklige Welt | Black Metal</desc></wpt>
<wpt lat="47.65241" lon="16.139402"><name>Crushmode</name><desc>Bucklige Welt | Black Metal</desc></wpt>
<wpt lat="47.65241" lon="16.139402"><name>Death of the Undertaker</name><desc>Bucklige Welt | Black Metal</desc></wpt>
<wpt lat="47.65241" lon="16.139402"><name>Doppelschneck</name><desc>Bucklige Welt | Black Metal</desc></wpt>
<wpt lat="47.65241" lon="16.139402"><name>Dust</name><desc>Bucklige Welt | Black Metal</desc></wpt>
<wpt lat="47.65241" lon="16.139402"><name>Gejagter Jäger</name><desc>Bucklige Welt | Black Metal</desc></wpt>
<wpt lat="47.65241" lon="16.139402"><name>Gipfelstürmer</name><desc>Bucklige Welt | Black Metal</desc></wpt>
<wpt lat="47.65241" lon="16.139402"><name>Hasibär</name><desc>Bucklige Welt | Black Metal</desc></wpt>
<wpt lat="47.65241" lon="16.139402"><name>Holy Bastard</name><desc>Bucklige Welt | Black Metal</desc></wpt>
<wpt lat="47.65241" lon="16.139402"><name>Kum Oida Press</name><desc>Bucklige Welt | Black Metal</desc></wpt>
<wpt lat="47.65241" lon="16.139402"><name>Lustwandel</name><desc>Bucklige Welt | Black Metal</desc></wpt>
<wpt lat="47.65241" lon="16.139402"><name>Mei Tante is a Kante</name><desc>Bucklige Welt | Black Metal</desc></wpt>
<wpt lat="47.65241" lon="16.139402"><name>Metal Battle</name><desc>Bucklige Welt | Black Metal</desc></wpt>
<wpt lat="47.65241" lon="16.139402"><name>Möbius</name><desc>Bucklige Welt | Black Metal</desc></wpt>
<wpt lat="47.65241" lon="16.139402"><name>Nein</name><desc>Bucklige Welt | Black Metal</desc></wpt>
<wpt lat="47.65241" lon="16.139402"><name>No Fun</name><desc>Bucklige Welt | Black Metal</desc></wpt>
<wpt lat="47.65241" lon="16.139402"><name>Out of the Staub</name><desc>Bucklige Welt | Black Metal</desc></wpt>
<wpt lat="47.65241" lon="16.139402"><name>Schattenwelt</name><desc>Bucklige Welt | Black Metal</desc></wpt>
<wpt lat="47.65241" lon="16.139402"><name>Sharp Bulls Eye</name><desc>Bucklige Welt | Black Metal</desc></wpt>
<wpt lat="47.65241" lon="16.139402"><name>Soft Bulls Eye</name><desc>Bucklige Welt | Black Metal</desc></wpt>
<wpt lat="47.65241" lon="16.139402"><name>Sweet Meat</name><desc>Bucklige Welt | Black Metal</desc></wpt>
<wpt lat="47.65241" lon="16.139402"><name>The Green Machine</name><desc>Bucklige Welt | Black Metal</desc></wpt>
<wpt lat="47.65241" lon="16.139402"><name>Willi End</name><desc>Bucklige Welt | Black Metal</desc></wpt>
<wpt lat="47.65241" lon="16.139402"><name>Woozle Goozle</name><desc>Bucklige Welt | Black Metal</desc></wpt>
<wpt lat="47.65241" lon="16.139402"><name>Zorn</name><desc>Bucklige Welt | Black Metal</desc></wpt>
</gpx>
