<?xml version="1.0" encoding="UTF-8"?>
<gpx version="1.1" creator="Vertical Moment" xmlns="http://www.topografix.com/GPX/1/1">
<metadata><name>Bucklige Welt | Gretlwandl</name><desc>GPS data for Vertical Moment master v4. Coordinates derived from OSM (OpenStreetMap, (c) OSM contributors, ODbL 1.0), theCrag, climb.sk, outdooractive, Nominatim and legacy master coords.</desc></metadata>
<wpt lat="47.651395" lon="16.133521"><name>Altriss</name><desc>Bucklige Welt | Gretlwandl</desc></wpt>
<wpt lat="47.651395" lon="16.133521"><name>Bauchweh</name><desc>Bucklige Welt | Gretlwandl</desc></wpt>
<wpt lat="47.651395" lon="16.133521"><name>Dämon</name><desc>Bucklige Welt | Gretlwandl</desc></wpt>
<wpt lat="47.651395" lon="16.133521"><name>Frisch Saftig Steirisch</name><desc>Bucklige Welt | Gretlwandl</desc></wpt>
<wpt lat="47.651395" lon="16.133521"><name>Gretchencrack</name><desc>Bucklige Welt | Gretlwandl</desc></wpt>
<wpt lat="47.651395" lon="16.133521"><name>Herbsthorst</name><desc>Bucklige Welt | Gretlwandl</desc></wpt>
<wpt lat="47.651395" lon="16.133521"><name>Jungle Rot</name><desc>Bucklige Welt | Gretlwandl</desc></wpt>
<wpt lat="47.651395" lon="16.133521"><name>Opyros</name><desc>Bucklige Welt | Gretlwandl</desc></wpt>
<wpt lat="47.651395" lon="16.133521"><name>Orlok</name><desc>Bucklige Welt | Gretlwandl</desc></wpt>
<wpt lat="47.651395" lon="16.133521"><name>Rasluka</name><desc>Bucklige Welt | Gretlwandl</desc></wpt>
<wpt lat="47.651395" lon="16.133521"><name>Rote Schlaufe</name><desc>Bucklige Welt | Gretlwandl</desc></wpt>
<wpt lat="47.651395" lon="16.133521"><name>Runenzauber</name><desc>Bucklige Welt | Gretlwandl</desc></wpt>
<wpt lat="47.651395" lon="16.133521"><name>So wie Freunde sind</name><desc>Bucklige Welt | Gretlwandl</desc></wpt>
<wpt lat="47.651395" lon="16.133521"><name>Svart</name><desc>Bucklige Welt | Gretlwandl</desc></wpt>
<wpt lat="47.651395" lon="16.133521"><name>Triaskalk</name><desc>Bucklige Welt | Gretlwandl</desc></wpt>
</gpx>
