<?xml version="1.0" encoding="UTF-8"?>
<gpx version="1.1" creator="Vertical Moment" xmlns="http://www.topografix.com/GPX/1/1">
<metadata><name>Bucklige Welt | Scheiblingkirchner Wandl (boulders)</name><desc>GPS data for Vertical Moment master v4. Coordinates derived from OSM (OpenStreetMap, (c) OSM contributors, ODbL 1.0), theCrag, climb.sk, outdooractive, Nominatim and legacy master coords.</desc></metadata>
<wpt lat="47.660037" lon="16.138196"><name>Darwin</name><desc>Bucklige Welt | Scheiblingkirchner Wandl (boulders)</desc></wpt>
<wpt lat="47.660037" lon="16.138196"><name>Descent of Men</name><desc>Bucklige Welt | Scheiblingkirchner Wandl (boulders)</desc></wpt>
<wpt lat="47.660037" lon="16.138196"><name>Eye of the Hurricane</name><desc>Bucklige Welt | Scheiblingkirchner Wandl (boulders)</desc></wpt>
<wpt lat="47.660037" lon="16.138196"><name>Fette Qualle</name><desc>Bucklige Welt | Scheiblingkirchner Wandl (boulders)</desc></wpt>
<wpt lat="47.660037" lon="16.138196"><name>Handlertraverse</name><desc>Bucklige Welt | Scheiblingkirchner Wandl (boulders)</desc></wpt>
<wpt lat="47.660037" lon="16.138196"><name>Hui Luft und Ziag</name><desc>Bucklige Welt | Scheiblingkirchner Wandl (boulders)</desc></wpt>
<wpt lat="47.660037" lon="16.138196"><name>In Schutt und Asche</name><desc>Bucklige Welt | Scheiblingkirchner Wandl (boulders)</desc></wpt>
</gpx>
