<?xml version="1.0" encoding="UTF-8"?>
<gpx version="1.1" creator="Vertical Moment" xmlns="http://www.topografix.com/GPX/1/1">
<metadata><name>Fischauer Vorberge | Marmorsteinbruch</name><desc>GPS data for Vertical Moment master v4. Coordinates derived from OSM (OpenStreetMap, (c) OSM contributors, ODbL 1.0), theCrag, climb.sk, outdooractive, Nominatim and legacy master coords.</desc></metadata>
<wpt lat="47.825185" lon="16.123834"><name>GEDENKWEG</name><desc>Fischauer Vorberge | Marmorsteinbruch</desc></wpt>
<wpt lat="47.825185" lon="16.123834"><name>NAMENLOS</name><desc>Fischauer Vorberge | Marmorsteinbruch</desc></wpt>
<wpt lat="47.825185" lon="16.123834"><name>RUTSCHPARTIE</name><desc>Fischauer Vorberge | Marmorsteinbruch</desc></wpt>
<wpt lat="47.825185" lon="16.123834"><name>SCUT</name><desc>Fischauer Vorberge | Marmorsteinbruch</desc></wpt>
<wpt lat="47.825185" lon="16.123834"><name>SCUT JUNIOR</name><desc>Fischauer Vorberge | Marmorsteinbruch</desc></wpt>
<wpt lat="47.825185" lon="16.123834"><name>STRAFPLANET</name><desc>Fischauer Vorberge | Marmorsteinbruch</desc></wpt>
<wpt lat="47.825185" lon="16.123834"><name>TROU.NASE</name><desc>Fischauer Vorberge | Marmorsteinbruch</desc></wpt>
</gpx>
