<?xml version="1.0" encoding="UTF-8"?>
<gpx version="1.1" creator="Vertical Moment" xmlns="http://www.topografix.com/GPX/1/1">
<metadata><name>Fischauer Vorberge | Johannesbachklamm</name><desc>GPS data for Vertical Moment master v4. Coordinates derived from OSM (OpenStreetMap, (c) OSM contributors, ODbL 1.0), theCrag, climb.sk, outdooractive, Nominatim and legacy master coords.</desc></metadata>
<wpt lat="47.78067" lon="16.038526"><name>DlESSEffS DES EFEUS</name><desc>Fischauer Vorberge | Johannesbachklamm</desc></wpt>
<wpt lat="47.78067" lon="16.038526"><name>ERL.AUBT? VERBOTEN?</name><desc>Fischauer Vorberge | Johannesbachklamm</desc></wpt>
<wpt lat="47.78067" lon="16.038526"><name>GLAMOUR</name><desc>Fischauer Vorberge | Johannesbachklamm</desc></wpt>
<wpt lat="47.78067" lon="16.038526"><name>KAMINVARIANTE</name><desc>Fischauer Vorberge | Johannesbachklamm</desc></wpt>
<wpt lat="47.78067" lon="16.038526"><name>KANTE</name><desc>Fischauer Vorberge | Johannesbachklamm</desc></wpt>
<wpt lat="47.78067" lon="16.038526"><name>KLAMAUK</name><desc>Fischauer Vorberge | Johannesbachklamm</desc></wpt>
<wpt lat="47.78067" lon="16.038526"><name>KLAMMEUFFE</name><desc>Fischauer Vorberge | Johannesbachklamm</desc></wpt>
<wpt lat="47.78067" lon="16.038526"><name>KLAMMFREUND</name><desc>Fischauer Vorberge | Johannesbachklamm</desc></wpt>
<wpt lat="47.78067" lon="16.038526"><name>KLAMMINATOR</name><desc>Fischauer Vorberge | Johannesbachklamm</desc></wpt>
<wpt lat="47.78067" lon="16.038526"><name>KLAMMKANTENAUSSTIEG</name><desc>Fischauer Vorberge | Johannesbachklamm</desc></wpt>
<wpt lat="47.78067" lon="16.038526"><name>KLAMMWENDE</name><desc>Fischauer Vorberge | Johannesbachklamm</desc></wpt>
<wpt lat="47.78067" lon="16.038526"><name>KLAMMWÄCHTER</name><desc>Fischauer Vorberge | Johannesbachklamm</desc></wpt>
<wpt lat="47.78067" lon="16.038526"><name>KLAMOITE</name><desc>Fischauer Vorberge | Johannesbachklamm</desc></wpt>
<wpt lat="47.78067" lon="16.038526"><name>KLAMPFE</name><desc>Fischauer Vorberge | Johannesbachklamm</desc></wpt>
<wpt lat="47.78067" lon="16.038526"><name>KUMMPROJEKT</name><desc>Fischauer Vorberge | Johannesbachklamm</desc></wpt>
<wpt lat="47.78067" lon="16.038526"><name>RISS</name><desc>Fischauer Vorberge | Johannesbachklamm</desc></wpt>
<wpt lat="47.78067" lon="16.038526"><name>SPREIZ DIE KLAMM</name><desc>Fischauer Vorberge | Johannesbachklamm</desc></wpt>
<wpt lat="47.78067" lon="16.038526"><name>VERSCHNEIDUNG</name><desc>Fischauer Vorberge | Johannesbachklamm</desc></wpt>
</gpx>
