<?xml version="1.0" encoding="UTF-8"?>
<gpx version="1.1" creator="Vertical Moment" xmlns="http://www.topografix.com/GPX/1/1">
<metadata><name>Fischauer Vorberge | Engelsberg</name><desc>GPS data for Vertical Moment master v4. Coordinates derived from OSM (OpenStreetMap, (c) OSM contributors, ODbL 1.0), theCrag, climb.sk, outdooractive, Nominatim and legacy master coords.</desc></metadata>
<wpt lat="47.827687" lon="16.1226"><name>ALPINIST</name><desc>Fischauer Vorberge | Engelsberg</desc></wpt>
<wpt lat="47.827687" lon="16.1226"><name>BOHRNEIDER</name><desc>Fischauer Vorberge | Engelsberg</desc></wpt>
<wpt lat="47.827687" lon="16.1226"><name>DROMEDAR</name><desc>Fischauer Vorberge | Engelsberg</desc></wpt>
<wpt lat="47.827687" lon="16.1226"><name>ENGELBERG HUMPERDINCK</name><desc>Fischauer Vorberge | Engelsberg</desc></wpt>
<wpt lat="47.827687" lon="16.1226"><name>FREUNDE BABA</name><desc>Fischauer Vorberge | Engelsberg</desc></wpt>
<wpt lat="47.827687" lon="16.1226"><name>HERZEN BRECHEN NICHT</name><desc>Fischauer Vorberge | Engelsberg</desc></wpt>
<wpt lat="47.827687" lon="16.1226"><name>IJKE SPAIN</name><desc>Fischauer Vorberge | Engelsberg</desc></wpt>
<wpt lat="47.827687" lon="16.1226"><name>KAMELBUCKELN</name><desc>Fischauer Vorberge | Engelsberg</desc></wpt>
<wpt lat="47.827687" lon="16.1226"><name>KAUUM</name><desc>Fischauer Vorberge | Engelsberg</desc></wpt>
<wpt lat="47.827687" lon="16.1226"><name>LILLY VS WILLY</name><desc>Fischauer Vorberge | Engelsberg</desc></wpt>
<wpt lat="47.827687" lon="16.1226"><name>MAC GEPP</name><desc>Fischauer Vorberge | Engelsberg</desc></wpt>
<wpt lat="47.827687" lon="16.1226"><name>MANTLE</name><desc>Fischauer Vorberge | Engelsberg</desc></wpt>
<wpt lat="47.827687" lon="16.1226"><name>MIT AUES</name><desc>Fischauer Vorberge | Engelsberg</desc></wpt>
<wpt lat="47.827687" lon="16.1226"><name>MURMELTIER</name><desc>Fischauer Vorberge | Engelsberg</desc></wpt>
<wpt lat="47.827687" lon="16.1226"><name>MUST NOCH WACHSEN</name><desc>Fischauer Vorberge | Engelsberg</desc></wpt>
<wpt lat="47.827687" lon="16.1226"><name>NAMENLOS</name><desc>Fischauer Vorberge | Engelsberg</desc></wpt>
<wpt lat="47.827687" lon="16.1226"><name>NAMENLOSER GEIST</name><desc>Fischauer Vorberge | Engelsberg</desc></wpt>
<wpt lat="47.827687" lon="16.1226"><name>PESTPFEILER</name><desc>Fischauer Vorberge | Engelsberg</desc></wpt>
<wpt lat="47.827687" lon="16.1226"><name>PLEASE RELEASE ME</name><desc>Fischauer Vorberge | Engelsberg</desc></wpt>
<wpt lat="47.827687" lon="16.1226"><name>QUEREINSTEIGER</name><desc>Fischauer Vorberge | Engelsberg</desc></wpt>
<wpt lat="47.827687" lon="16.1226"><name>REISEWINTER</name><desc>Fischauer Vorberge | Engelsberg</desc></wpt>
<wpt lat="47.827687" lon="16.1226"><name>RÜCKREISEMANAGER</name><desc>Fischauer Vorberge | Engelsberg</desc></wpt>
<wpt lat="47.827687" lon="16.1226"><name>SUCK &amp; PAIN</name><desc>Fischauer Vorberge | Engelsberg</desc></wpt>
<wpt lat="47.827687" lon="16.1226"><name>SULDENSANG</name><desc>Fischauer Vorberge | Engelsberg</desc></wpt>
<wpt lat="47.827687" lon="16.1226"><name>WEISSE PULVER</name><desc>Fischauer Vorberge | Engelsberg</desc></wpt>
<wpt lat="47.827687" lon="16.1226"><name>WINTERFREUDEN</name><desc>Fischauer Vorberge | Engelsberg</desc></wpt>
<wpt lat="47.827687" lon="16.1226"><name>WOLFSRISS</name><desc>Fischauer Vorberge | Engelsberg</desc></wpt>
<wpt lat="47.827687" lon="16.1226"><name>Wk@GRUPPENKUSCHELN</name><desc>Fischauer Vorberge | Engelsberg</desc></wpt>
<wpt lat="47.827687" lon="16.1226"><name>ZWINGHERR</name><desc>Fischauer Vorberge | Engelsberg</desc></wpt>
<wpt lat="47.827687" lon="16.1226"><name>öFANG DAS GRIFF</name><desc>Fischauer Vorberge | Engelsberg</desc></wpt>
</gpx>
