<?xml version="1.0" encoding="UTF-8"?>
<gpx version="1.1" creator="Vertical Moment" xmlns="http://www.topografix.com/GPX/1/1">
<metadata><name>Fischauer Vorberge | Willendorfer Wandl</name><desc>GPS data for Vertical Moment master v4. Coordinates derived from OSM (OpenStreetMap, (c) OSM contributors, ODbL 1.0), theCrag, climb.sk, outdooractive, Nominatim and legacy master coords.</desc></metadata>
<wpt lat="47.797039" lon="16.007119"><name>ASCHENREGEN</name><desc>Fischauer Vorberge | Willendorfer Wandl</desc></wpt>
<wpt lat="47.797039" lon="16.007119"><name>ASCHENSEGEN</name><desc>Fischauer Vorberge | Willendorfer Wandl</desc></wpt>
<wpt lat="47.797039" lon="16.007119"><name>DÖWI</name><desc>Fischauer Vorberge | Willendorfer Wandl</desc></wpt>
<wpt lat="47.797039" lon="16.007119"><name>IM MASCHINENRAUM</name><desc>Fischauer Vorberge | Willendorfer Wandl</desc></wpt>
<wpt lat="47.797039" lon="16.007119"><name>KASPERLPOST</name><desc>Fischauer Vorberge | Willendorfer Wandl</desc></wpt>
<wpt lat="47.797039" lon="16.007119"><name>ROSTGEWITTER</name><desc>Fischauer Vorberge | Willendorfer Wandl</desc></wpt>
<wpt lat="47.797039" lon="16.007119"><name>ROTER RISS</name><desc>Fischauer Vorberge | Willendorfer Wandl</desc></wpt>
<wpt lat="47.797039" lon="16.007119"><name>STOLPERSTEIN</name><desc>Fischauer Vorberge | Willendorfer Wandl</desc></wpt>
</gpx>
