<?xml version="1.0" encoding="UTF-8"?>
<gpx version="1.1" creator="Vertical Moment" xmlns="http://www.topografix.com/GPX/1/1">
<metadata><name>Fischauer Vorberge | Klettergarten</name><desc>GPS data for Vertical Moment master v4. Coordinates derived from OSM (OpenStreetMap, (c) OSM contributors, ODbL 1.0), theCrag, climb.sk, outdooractive, Nominatim and legacy master coords.</desc></metadata>
<wpt lat="47.834437" lon="16.155728"><name>ALPENTARZAN</name><desc>Fischauer Vorberge | Klettergarten</desc></wpt>
<wpt lat="47.834437" lon="16.155728"><name>AOPFElLERVERSCHNElDUNG</name><desc>Fischauer Vorberge | Klettergarten</desc></wpt>
<wpt lat="47.834437" lon="16.155728"><name>BAD FISCHAU BOBO</name><desc>Fischauer Vorberge | Klettergarten</desc></wpt>
<wpt lat="47.834437" lon="16.155728"><name>CHIEN FATIGUE</name><desc>Fischauer Vorberge | Klettergarten</desc></wpt>
<wpt lat="47.834437" lon="16.155728"><name>COMEUCK</name><desc>Fischauer Vorberge | Klettergarten</desc></wpt>
<wpt lat="47.834437" lon="16.155728"><name>DIREKTER EINSTIEG</name><desc>Fischauer Vorberge | Klettergarten</desc></wpt>
<wpt lat="47.834437" lon="16.155728"><name>DJANGO</name><desc>Fischauer Vorberge | Klettergarten</desc></wpt>
<wpt lat="47.834437" lon="16.155728"><name>DREIECKSDACH</name><desc>Fischauer Vorberge | Klettergarten</desc></wpt>
<wpt lat="47.834437" lon="16.155728"><name>FREUNDSCHAFr</name><desc>Fischauer Vorberge | Klettergarten</desc></wpt>
<wpt lat="47.834437" lon="16.155728"><name>FUTLOCHWAND</name><desc>Fischauer Vorberge | Klettergarten</desc></wpt>
<wpt lat="47.834437" lon="16.155728"><name>GRETA THUNFISCH</name><desc>Fischauer Vorberge | Klettergarten</desc></wpt>
<wpt lat="47.834437" lon="16.155728"><name>GROBMOTORIKER</name><desc>Fischauer Vorberge | Klettergarten</desc></wpt>
<wpt lat="47.834437" lon="16.155728"><name>HANSI HOPP</name><desc>Fischauer Vorberge | Klettergarten</desc></wpt>
<wpt lat="47.834437" lon="16.155728"><name>IHR GLAUBT AUCH ALLES</name><desc>Fischauer Vorberge | Klettergarten</desc></wpt>
<wpt lat="47.834437" lon="16.155728"><name>INTERJEKTION</name><desc>Fischauer Vorberge | Klettergarten</desc></wpt>
<wpt lat="47.834437" lon="16.155728"><name>KANTKA</name><desc>Fischauer Vorberge | Klettergarten</desc></wpt>
<wpt lat="47.834437" lon="16.155728"><name>KETTENSÄGE</name><desc>Fischauer Vorberge | Klettergarten</desc></wpt>
<wpt lat="47.834437" lon="16.155728"><name>KLAGEMAUER</name><desc>Fischauer Vorberge | Klettergarten</desc></wpt>
<wpt lat="47.834437" lon="16.155728"><name>KOBIS WEINKRAMPF</name><desc>Fischauer Vorberge | Klettergarten</desc></wpt>
<wpt lat="47.834437" lon="16.155728"><name>LAUSBUA</name><desc>Fischauer Vorberge | Klettergarten</desc></wpt>
<wpt lat="47.834437" lon="16.155728"><name>LUMUMU</name><desc>Fischauer Vorberge | Klettergarten</desc></wpt>
<wpt lat="47.834437" lon="16.155728"><name>LUPOTOUR</name><desc>Fischauer Vorberge | Klettergarten</desc></wpt>
<wpt lat="47.834437" lon="16.155728"><name>LÄCHELT VIEL</name><desc>Fischauer Vorberge | Klettergarten</desc></wpt>
<wpt lat="47.834437" lon="16.155728"><name>MIRANDA ORANGE</name><desc>Fischauer Vorberge | Klettergarten</desc></wpt>
<wpt lat="47.834437" lon="16.155728"><name>MOSTAY HUNGRY DIREKT</name><desc>Fischauer Vorberge | Klettergarten</desc></wpt>
<wpt lat="47.834437" lon="16.155728"><name>MUHRIRISS</name><desc>Fischauer Vorberge | Klettergarten</desc></wpt>
<wpt lat="47.834437" lon="16.155728"><name>PIAZKING</name><desc>Fischauer Vorberge | Klettergarten</desc></wpt>
<wpt lat="47.834437" lon="16.155728"><name>SALZBURGER NOCKERL</name><desc>Fischauer Vorberge | Klettergarten</desc></wpt>
<wpt lat="47.834437" lon="16.155728"><name>SCHRÄGE</name><desc>Fischauer Vorberge | Klettergarten</desc></wpt>
<wpt lat="47.834437" lon="16.155728"><name>SCHÖNE TAGE</name><desc>Fischauer Vorberge | Klettergarten</desc></wpt>
<wpt lat="47.834437" lon="16.155728"><name>SILBERPFElL</name><desc>Fischauer Vorberge | Klettergarten</desc></wpt>
<wpt lat="47.834437" lon="16.155728"><name>SIMAPLATTE</name><desc>Fischauer Vorberge | Klettergarten</desc></wpt>
<wpt lat="47.834437" lon="16.155728"><name>UVE FREE OR DIE</name><desc>Fischauer Vorberge | Klettergarten</desc></wpt>
<wpt lat="47.834437" lon="16.155728"><name>WEG DURCH DEN FISCH</name><desc>Fischauer Vorberge | Klettergarten</desc></wpt>
<wpt lat="47.834437" lon="16.155728"><name>WERWOLF</name><desc>Fischauer Vorberge | Klettergarten</desc></wpt>
<wpt lat="47.834437" lon="16.155728"><name>WILDE WELT</name><desc>Fischauer Vorberge | Klettergarten</desc></wpt>
<wpt lat="47.834437" lon="16.155728"><name>ZAPPA</name><desc>Fischauer Vorberge | Klettergarten</desc></wpt>
<wpt lat="47.834437" lon="16.155728"><name>g! MOBUTU</name><desc>Fischauer Vorberge | Klettergarten</desc></wpt>
<wpt lat="47.834437" lon="16.155728"><name>•@CHEAP THRILIS</name><desc>Fischauer Vorberge | Klettergarten</desc></wpt>
</gpx>
