<?xml version="1.0" encoding="UTF-8"?>
<gpx version="1.1" creator="Vertical Moment" xmlns="http://www.topografix.com/GPX/1/1">
<metadata><name>Gesäuse i Haller Mauern | —</name><desc>GPS data for Vertical Moment master v4. Coordinates derived from OSM (OpenStreetMap, (c) OSM contributors, ODbL 1.0), theCrag, climb.sk, outdooractive, Nominatim and legacy master coords.</desc></metadata>
<wpt lat="47.6526569" lon="14.3975248"><name>Großer Pyhrgas Ostgrat un.</name><desc>Gesäuse i Haller Mauern | —</desc></wpt>
<wpt lat="47.5618474" lon="14.6326058"><name>Hochtor Nordwand, Jahn-Zimmer</name><desc>Gesäuse i Haller Mauern | —</desc></wpt>
<wpt lat="47.5618474" lon="14.6326058"><name>Große Gesäuseüberschreitung</name><desc>Gesäuse i Haller Mauern | —</desc></wpt>
</gpx>
