<?xml version="1.0" encoding="UTF-8"?>
<gpx version="1.1" creator="Vertical Moment" xmlns="http://www.topografix.com/GPX/1/1">
<metadata><name>Gesäuse i Haller Mauern | Großer Buchstein</name><desc>GPS data for Vertical Moment master v4. Coordinates derived from OSM (OpenStreetMap, (c) OSM contributors, ODbL 1.0), theCrag, climb.sk, outdooractive, Nominatim and legacy master coords.</desc></metadata>
<wpt lat="47.6103613" lon="14.5966374"><name>Buchstein Westgrat</name><desc>Gesäuse i Haller Mauern | Großer Buchstein</desc></wpt>
</gpx>
