<?xml version="1.0" encoding="UTF-8"?>
<gpx version="1.1" creator="Vertical Moment" xmlns="http://www.topografix.com/GPX/1/1">
<metadata><name>Helenental | Engelstein</name><desc>GPS data for Vertical Moment master v4. Coordinates derived from OSM (OpenStreetMap, (c) OSM contributors, ODbL 1.0), theCrag, climb.sk, outdooractive, Nominatim and legacy master coords.</desc></metadata>
<wpt lat="48.015914" lon="16.196654"><name>DRUM DREAM</name><desc>Helenental | Engelstein</desc></wpt>
<wpt lat="48.015914" lon="16.196654"><name>KATZENJAMMER</name><desc>Helenental | Engelstein</desc></wpt>
<wpt lat="48.015914" lon="16.196654"><name>SCHLEUDERGEFAHR</name><desc>Helenental | Engelstein</desc></wpt>
<wpt lat="48.015914" lon="16.196654"><name>SCHLICHTWEG</name><desc>Helenental | Engelstein</desc></wpt>
<wpt lat="48.015914" lon="16.196654"><name>YEUOW SUBMARINE</name><desc>Helenental | Engelstein</desc></wpt>
</gpx>
