<?xml version="1.0" encoding="UTF-8"?>
<gpx version="1.1" creator="Vertical Moment" xmlns="http://www.topografix.com/GPX/1/1">
<metadata><name>Helenental | Turm/Dachs-/Ost..wandl</name><desc>GPS data for Vertical Moment master v4. Coordinates derived from OSM (OpenStreetMap, (c) OSM contributors, ODbL 1.0), theCrag, climb.sk, outdooractive, Nominatim and legacy master coords.</desc></metadata>
<wpt lat="48.016749" lon="16.197253"><name>BISSIGER DACHS</name><desc>Helenental | Turm/Dachs-/Ost..wandl</desc></wpt>
<wpt lat="48.016749" lon="16.197253"><name>BRÖSELRISS</name><desc>Helenental | Turm/Dachs-/Ost..wandl</desc></wpt>
<wpt lat="48.016749" lon="16.197253"><name>COOPER HARD</name><desc>Helenental | Turm/Dachs-/Ost..wandl</desc></wpt>
<wpt lat="48.016749" lon="16.197253"><name>DACHSBEUTE</name><desc>Helenental | Turm/Dachs-/Ost..wandl</desc></wpt>
<wpt lat="48.016749" lon="16.197253"><name>POLTERGEIST</name><desc>Helenental | Turm/Dachs-/Ost..wandl</desc></wpt>
<wpt lat="48.016749" lon="16.197253"><name>SAFT</name><desc>Helenental | Turm/Dachs-/Ost..wandl</desc></wpt>
</gpx>
