<?xml version="1.0" encoding="UTF-8"?>
<gpx version="1.1" creator="Vertical Moment" xmlns="http://www.topografix.com/GPX/1/1">
<metadata><name>Hoellental | Weichtalhaus</name><desc>GPS data for Vertical Moment master v4. Coordinates derived from OSM (OpenStreetMap, (c) OSM contributors, ODbL 1.0), theCrag, climb.sk, outdooractive, Nominatim and legacy master coords.</desc></metadata>
<wpt lat="47.7463764" lon="15.7694132"><name>BAUCH MIT DACH</name><desc>Hoellental | Weichtalhaus</desc></wpt>
<wpt lat="47.7463764" lon="15.7694132"><name>DIE SCHÖNE</name><desc>Hoellental | Weichtalhaus</desc></wpt>
<wpt lat="47.7463764" lon="15.7694132"><name>DIE UNNÖTIGE</name><desc>Hoellental | Weichtalhaus</desc></wpt>
<wpt lat="47.7463764" lon="15.7694132"><name>EINSERSCHMÅH</name><desc>Hoellental | Weichtalhaus</desc></wpt>
<wpt lat="47.7463764" lon="15.7694132"><name>FLORI FLIEG</name><desc>Hoellental | Weichtalhaus</desc></wpt>
<wpt lat="47.7463764" lon="15.7694132"><name>KÜNSTLICHE INTELLIGENZ</name><desc>Hoellental | Weichtalhaus</desc></wpt>
<wpt lat="47.7463764" lon="15.7694132"><name>NIMMER SECHS</name><desc>Hoellental | Weichtalhaus</desc></wpt>
<wpt lat="47.7463764" lon="15.7694132"><name>SCHIFFLIKAMIN</name><desc>Hoellental | Weichtalhaus</desc></wpt>
<wpt lat="47.7463764" lon="15.7694132"><name>SCHOPPELDUPPE</name><desc>Hoellental | Weichtalhaus</desc></wpt>
<wpt lat="47.7463764" lon="15.7694132"><name>STEIG DANEBEN</name><desc>Hoellental | Weichtalhaus</desc></wpt>
<wpt lat="47.7463764" lon="15.7694132"><name>STEIG IM WEG</name><desc>Hoellental | Weichtalhaus</desc></wpt>
<wpt lat="47.7463764" lon="15.7694132"><name>UNTEN HUI OBEN PFUI</name><desc>Hoellental | Weichtalhaus</desc></wpt>
<wpt lat="47.7463764" lon="15.7694132"><name>VEGETARIER</name><desc>Hoellental | Weichtalhaus</desc></wpt>
<wpt lat="47.7463764" lon="15.7694132"><name>WOACHTOI KANTERL</name><desc>Hoellental | Weichtalhaus</desc></wpt>
<wpt lat="47.7463764" lon="15.7694132"><name>• BESSER NICHT</name><desc>Hoellental | Weichtalhaus</desc></wpt>
<wpt lat="47.7463764" lon="15.7694132"><name>• DER KLASSIKER</name><desc>Hoellental | Weichtalhaus</desc></wpt>
<wpt lat="47.7463764" lon="15.7694132"><name>• EIGEN ABER ARTIG</name><desc>Hoellental | Weichtalhaus</desc></wpt>
<wpt lat="47.7463764" lon="15.7694132"><name>• VIA DOLOMITI</name><desc>Hoellental | Weichtalhaus</desc></wpt>
</gpx>
