<?xml version="1.0" encoding="UTF-8"?>
<gpx version="1.1" creator="Vertical Moment" xmlns="http://www.topografix.com/GPX/1/1">
<metadata><name>Hoellental | Handlesberg</name><desc>GPS data for Vertical Moment master v4. Coordinates derived from OSM (OpenStreetMap, (c) OSM contributors, ODbL 1.0), theCrag, climb.sk, outdooractive, Nominatim and legacy master coords.</desc></metadata>
<wpt lat="47.825669" lon="15.739558"><name>12 ZUFLUCHT DER SÜNDER</name><desc>Hoellental | Handlesberg</desc></wpt>
<wpt lat="47.825669" lon="15.739558"><name>CUORE SPORTIVO</name><desc>Hoellental | Handlesberg</desc></wpt>
<wpt lat="47.825669" lon="15.739558"><name>DEUS EX MACHINA</name><desc>Hoellental | Handlesberg</desc></wpt>
<wpt lat="47.825669" lon="15.739558"><name>ELEFANTU</name><desc>Hoellental | Handlesberg</desc></wpt>
<wpt lat="47.825669" lon="15.739558"><name>ELEFANTU VARIANTEN</name><desc>Hoellental | Handlesberg</desc></wpt>
<wpt lat="47.825669" lon="15.739558"><name>FELIX AUSTRIA</name><desc>Hoellental | Handlesberg</desc></wpt>
<wpt lat="47.825669" lon="15.739558"><name>FLUSS</name><desc>Hoellental | Handlesberg</desc></wpt>
<wpt lat="47.825669" lon="15.739558"><name>HAPPY</name><desc>Hoellental | Handlesberg</desc></wpt>
<wpt lat="47.825669" lon="15.739558"><name>HELDEN IN TIROL</name><desc>Hoellental | Handlesberg</desc></wpt>
<wpt lat="47.825669" lon="15.739558"><name>HOLA DI LA</name><desc>Hoellental | Handlesberg</desc></wpt>
<wpt lat="47.825669" lon="15.739558"><name>IDEE</name><desc>Hoellental | Handlesberg</desc></wpt>
<wpt lat="47.825669" lon="15.739558"><name>JUMP STYLE OIDA</name><desc>Hoellental | Handlesberg</desc></wpt>
<wpt lat="47.825669" lon="15.739558"><name>KOMBI</name><desc>Hoellental | Handlesberg</desc></wpt>
<wpt lat="47.825669" lon="15.739558"><name>SCHATTENSCHUPFER</name><desc>Hoellental | Handlesberg</desc></wpt>
<wpt lat="47.825669" lon="15.739558"><name>SEIDELTOUR</name><desc>Hoellental | Handlesberg</desc></wpt>
<wpt lat="47.825669" lon="15.739558"><name>SMARTIES</name><desc>Hoellental | Handlesberg</desc></wpt>
<wpt lat="47.825669" lon="15.739558"><name>SPONSORED BY FAMILY</name><desc>Hoellental | Handlesberg</desc></wpt>
<wpt lat="47.825669" lon="15.739558"><name>WASSERSPIEL</name><desc>Hoellental | Handlesberg</desc></wpt>
<wpt lat="47.825669" lon="15.739558"><name>ZUFLUCHT DER SÜNDER</name><desc>Hoellental | Handlesberg</desc></wpt>
</gpx>
