<?xml version="1.0" encoding="UTF-8"?>
<gpx version="1.1" creator="Vertical Moment" xmlns="http://www.topografix.com/GPX/1/1">
<metadata><name>Hoellental | Frisbee Platte</name><desc>GPS data for Vertical Moment master v4. Coordinates derived from OSM (OpenStreetMap, (c) OSM contributors, ODbL 1.0), theCrag, climb.sk, outdooractive, Nominatim and legacy master coords.</desc></metadata>
<wpt lat="47.8251" lon="15.6993"><name>BERE</name><desc>Hoellental | Frisbee Platte</desc></wpt>
<wpt lat="47.8251" lon="15.6993"><name>BERE FRISBEEPLATTE</name><desc>Hoellental | Frisbee Platte</desc></wpt>
<wpt lat="47.8251" lon="15.6993"><name>EINE HAB ICH NOCH</name><desc>Hoellental | Frisbee Platte</desc></wpt>
<wpt lat="47.8251" lon="15.6993"><name>FRISBEEKANTE</name><desc>Hoellental | Frisbee Platte</desc></wpt>
<wpt lat="47.8251" lon="15.6993"><name>HAGAL</name><desc>Hoellental | Frisbee Platte</desc></wpt>
<wpt lat="47.8251" lon="15.6993"><name>HAGALAZ</name><desc>Hoellental | Frisbee Platte</desc></wpt>
<wpt lat="47.8251" lon="15.6993"><name>HAPPY BIRTHDAY KURTL</name><desc>Hoellental | Frisbee Platte</desc></wpt>
<wpt lat="47.8251" lon="15.6993"><name>HAURUCK</name><desc>Hoellental | Frisbee Platte</desc></wpt>
<wpt lat="47.8251" lon="15.6993"><name>HERBSTGOLD</name><desc>Hoellental | Frisbee Platte</desc></wpt>
<wpt lat="47.8251" lon="15.6993"><name>HNE KRAFT UND FREUDE</name><desc>Hoellental | Frisbee Platte</desc></wpt>
<wpt lat="47.8251" lon="15.6993"><name>KILUNGFIELDS</name><desc>Hoellental | Frisbee Platte</desc></wpt>
<wpt lat="47.8251" lon="15.6993"><name>KURZBART</name><desc>Hoellental | Frisbee Platte</desc></wpt>
<wpt lat="47.8251" lon="15.6993"><name>MATERIALSEILBAHN</name><desc>Hoellental | Frisbee Platte</desc></wpt>
<wpt lat="47.8251" lon="15.6993"><name>MERRY CHRISTMAS</name><desc>Hoellental | Frisbee Platte</desc></wpt>
<wpt lat="47.8251" lon="15.6993"><name>QUATTRO BIRTHDAY</name><desc>Hoellental | Frisbee Platte</desc></wpt>
<wpt lat="47.8251" lon="15.6993"><name>RElCHERVARlANTE</name><desc>Hoellental | Frisbee Platte</desc></wpt>
<wpt lat="47.8251" lon="15.6993"><name>TIRAMISU LIGHT</name><desc>Hoellental | Frisbee Platte</desc></wpt>
<wpt lat="47.8251" lon="15.6993"><name>VERLÅNGERUNG</name><desc>Hoellental | Frisbee Platte</desc></wpt>
<wpt lat="47.8251" lon="15.6993"><name>VOLKSMUSIK</name><desc>Hoellental | Frisbee Platte</desc></wpt>
</gpx>
