<?xml version="1.0" encoding="UTF-8"?>
<gpx version="1.1" creator="Vertical Moment" xmlns="http://www.topografix.com/GPX/1/1">
<metadata><name>Hoellental | Schattenreich</name><desc>GPS data for Vertical Moment master v4. Coordinates derived from OSM (OpenStreetMap, (c) OSM contributors, ODbL 1.0), theCrag, climb.sk, outdooractive, Nominatim and legacy master coords.</desc></metadata>
<wpt lat="47.748958" lon="15.760586"><name>&amp;ELLE VUE</name><desc>Hoellental | Schattenreich</desc></wpt>
<wpt lat="47.748958" lon="15.760586"><name>SCHNEE VON GESTERN</name><desc>Hoellental | Schattenreich</desc></wpt>
<wpt lat="47.748958" lon="15.760586"><name>BASILISK</name><desc>Hoellental | Schattenreich</desc></wpt>
<wpt lat="47.748958" lon="15.760586"><name>BSOFFENE GSCHICHT</name><desc>Hoellental | Schattenreich</desc></wpt>
<wpt lat="47.748958" lon="15.760586"><name>DACHBODENPARTY BEI TOM OSCHWÅCH DE OYGGDUSlL</name><desc>Hoellental | Schattenreich</desc></wpt>
<wpt lat="47.748958" lon="15.760586"><name>DAS KLEINE ARSCHLOCH</name><desc>Hoellental | Schattenreich</desc></wpt>
<wpt lat="47.748958" lon="15.760586"><name>DER LANGE ATEM</name><desc>Hoellental | Schattenreich</desc></wpt>
<wpt lat="47.748958" lon="15.760586"><name>DEREUNQUAT</name><desc>Hoellental | Schattenreich</desc></wpt>
<wpt lat="47.748958" lon="15.760586"><name>DES SATANS NEUE KLEIDER</name><desc>Hoellental | Schattenreich</desc></wpt>
<wpt lat="47.748958" lon="15.760586"><name>DYSTOPICS</name><desc>Hoellental | Schattenreich</desc></wpt>
<wpt lat="47.748958" lon="15.760586"><name>FIMBULWINTER</name><desc>Hoellental | Schattenreich</desc></wpt>
<wpt lat="47.748958" lon="15.760586"><name>FUEGENTREK MBH</name><desc>Hoellental | Schattenreich</desc></wpt>
<wpt lat="47.748958" lon="15.760586"><name>KÖNIG LAURIN</name><desc>Hoellental | Schattenreich</desc></wpt>
<wpt lat="47.748958" lon="15.760586"><name>NIGHT</name><desc>Hoellental | Schattenreich</desc></wpt>
<wpt lat="47.748958" lon="15.760586"><name>REMOVABLE HOLDS</name><desc>Hoellental | Schattenreich</desc></wpt>
<wpt lat="47.748958" lon="15.760586"><name>RIP DAISY CHAIN</name><desc>Hoellental | Schattenreich</desc></wpt>
<wpt lat="47.748958" lon="15.760586"><name>SCHONZEIT</name><desc>Hoellental | Schattenreich</desc></wpt>
<wpt lat="47.748958" lon="15.760586"><name>STREETPHILOSOPHY</name><desc>Hoellental | Schattenreich</desc></wpt>
<wpt lat="47.748958" lon="15.760586"><name>TTO FIND ICH GUT</name><desc>Hoellental | Schattenreich</desc></wpt>
<wpt lat="47.748958" lon="15.760586"><name>VERSEHRTENDACHL</name><desc>Hoellental | Schattenreich</desc></wpt>
<wpt lat="47.748958" lon="15.760586"><name>WALDSCHRAT</name><desc>Hoellental | Schattenreich</desc></wpt>
<wpt lat="47.748958" lon="15.760586"><name>WASCHKÜCHENSHERIFF AN DIE FREUDE</name><desc>Hoellental | Schattenreich</desc></wpt>
<wpt lat="47.748958" lon="15.760586"><name>«r OCLEAN MACHINE</name><desc>Hoellental | Schattenreich</desc></wpt>
</gpx>
