<?xml version="1.0" encoding="UTF-8"?>
<gpx version="1.1" creator="Vertical Moment" xmlns="http://www.topografix.com/GPX/1/1">
<metadata><name>Hoellental | Detektivbuero</name><desc>GPS data for Vertical Moment master v4. Coordinates derived from OSM (OpenStreetMap, (c) OSM contributors, ODbL 1.0), theCrag, climb.sk, outdooractive, Nominatim and legacy master coords.</desc></metadata>
<wpt lat="47.74985" lon="15.758789"><name>BANANE</name><desc>Hoellental | Detektivbuero</desc></wpt>
<wpt lat="47.74985" lon="15.758789"><name>CARO UND KLARO</name><desc>Hoellental | Detektivbuero</desc></wpt>
<wpt lat="47.74985" lon="15.758789"><name>DAS GEISTERKARUSELL</name><desc>Hoellental | Detektivbuero</desc></wpt>
<wpt lat="47.74985" lon="15.758789"><name>DAS GUMMIMANNGEHEIMNIS</name><desc>Hoellental | Detektivbuero</desc></wpt>
<wpt lat="47.74985" lon="15.758789"><name>DIE AUGEN DES TIGERS</name><desc>Hoellental | Detektivbuero</desc></wpt>
<wpt lat="47.74985" lon="15.758789"><name>DIE HEISSE SPUR</name><desc>Hoellental | Detektivbuero</desc></wpt>
<wpt lat="47.74985" lon="15.758789"><name>FRAU DOKTOR GRUSELGLATZ</name><desc>Hoellental | Detektivbuero</desc></wpt>
<wpt lat="47.74985" lon="15.758789"><name>RIESENSCHWANZ</name><desc>Hoellental | Detektivbuero</desc></wpt>
<wpt lat="47.74985" lon="15.758789"><name>SCHOCK</name><desc>Hoellental | Detektivbuero</desc></wpt>
<wpt lat="47.74985" lon="15.758789"><name>SCHRECKENS</name><desc>Hoellental | Detektivbuero</desc></wpt>
<wpt lat="47.74985" lon="15.758789"><name>SIGI SCHLITZOHR</name><desc>Hoellental | Detektivbuero</desc></wpt>
<wpt lat="47.74985" lon="15.758789"><name>TOM TURBO</name><desc>Hoellental | Detektivbuero</desc></wpt>
</gpx>
