<?xml version="1.0" encoding="UTF-8"?>
<gpx version="1.1" creator="Vertical Moment" xmlns="http://www.topografix.com/GPX/1/1">
<metadata><name>Hoellental | Vordere Klobenwand</name><desc>GPS data for Vertical Moment master v4. Coordinates derived from OSM (OpenStreetMap, (c) OSM contributors, ODbL 1.0), theCrag, climb.sk, outdooractive, Nominatim and legacy master coords.</desc></metadata>
<wpt lat="47.750545" lon="15.760975"><name>AFFENBROTBAUM</name><desc>Hoellental | Vordere Klobenwand</desc></wpt>
<wpt lat="47.750545" lon="15.760975"><name>ANTHERICUM ADE</name><desc>Hoellental | Vordere Klobenwand</desc></wpt>
<wpt lat="47.750545" lon="15.760975"><name>BIS ZUM HOLZKARTON</name><desc>Hoellental | Vordere Klobenwand</desc></wpt>
<wpt lat="47.750545" lon="15.760975"><name>CHEF IM HIMMEL</name><desc>Hoellental | Vordere Klobenwand</desc></wpt>
<wpt lat="47.750545" lon="15.760975"><name>DER KÄLTE TREU</name><desc>Hoellental | Vordere Klobenwand</desc></wpt>
<wpt lat="47.750545" lon="15.760975"><name>IM HIMMEL</name><desc>Hoellental | Vordere Klobenwand</desc></wpt>
<wpt lat="47.750545" lon="15.760975"><name>LAISIRBONGO</name><desc>Hoellental | Vordere Klobenwand</desc></wpt>
<wpt lat="47.750545" lon="15.760975"><name>LE HOMME DE LACTION</name><desc>Hoellental | Vordere Klobenwand</desc></wpt>
<wpt lat="47.750545" lon="15.760975"><name>LEKTIONEN IN DEMUT</name><desc>Hoellental | Vordere Klobenwand</desc></wpt>
<wpt lat="47.750545" lon="15.760975"><name>NEBELLEUCHTEN</name><desc>Hoellental | Vordere Klobenwand</desc></wpt>
<wpt lat="47.750545" lon="15.760975"><name>NEBEUEUCHTEN</name><desc>Hoellental | Vordere Klobenwand</desc></wpt>
<wpt lat="47.750545" lon="15.760975"><name>NEUNTÖTER</name><desc>Hoellental | Vordere Klobenwand</desc></wpt>
<wpt lat="47.750545" lon="15.760975"><name>PLAISIRBONGO</name><desc>Hoellental | Vordere Klobenwand</desc></wpt>
<wpt lat="47.750545" lon="15.760975"><name>RAXIST</name><desc>Hoellental | Vordere Klobenwand</desc></wpt>
<wpt lat="47.750545" lon="15.760975"><name>RAXJST</name><desc>Hoellental | Vordere Klobenwand</desc></wpt>
<wpt lat="47.750545" lon="15.760975"><name>SCHWARZER RUTTLER</name><desc>Hoellental | Vordere Klobenwand</desc></wpt>
<wpt lat="47.750545" lon="15.760975"><name>SCHWARZER RÜTTLER</name><desc>Hoellental | Vordere Klobenwand</desc></wpt>
<wpt lat="47.750545" lon="15.760975"><name>SEELE MIT HORNHAUT</name><desc>Hoellental | Vordere Klobenwand</desc></wpt>
<wpt lat="47.750545" lon="15.760975"><name>WILDE JAGD</name><desc>Hoellental | Vordere Klobenwand</desc></wpt>
<wpt lat="47.750545" lon="15.760975"><name>ZERSTÖRER</name><desc>Hoellental | Vordere Klobenwand</desc></wpt>
</gpx>
