<?xml version="1.0" encoding="UTF-8"?>
<gpx version="1.1" creator="Vertical Moment" xmlns="http://www.topografix.com/GPX/1/1">
<metadata><name>Hoellental | Weisse Wand</name><desc>GPS data for Vertical Moment master v4. Coordinates derived from OSM (OpenStreetMap, (c) OSM contributors, ODbL 1.0), theCrag, climb.sk, outdooractive, Nominatim and legacy master coords.</desc></metadata>
<wpt lat="47.750988" lon="15.758456"><name>BACK TO THE ROOTS</name><desc>Hoellental | Weisse Wand</desc></wpt>
<wpt lat="47.750988" lon="15.758456"><name>BARRELHOUSE</name><desc>Hoellental | Weisse Wand</desc></wpt>
<wpt lat="47.750988" lon="15.758456"><name>BATTLES IN THE</name><desc>Hoellental | Weisse Wand</desc></wpt>
<wpt lat="47.750988" lon="15.758456"><name>BATTLES IN THE DUSK</name><desc>Hoellental | Weisse Wand</desc></wpt>
<wpt lat="47.750988" lon="15.758456"><name>BLOCKBUSTER</name><desc>Hoellental | Weisse Wand</desc></wpt>
<wpt lat="47.750988" lon="15.758456"><name>DACH UND WANNE</name><desc>Hoellental | Weisse Wand</desc></wpt>
<wpt lat="47.750988" lon="15.758456"><name>DER BERGE</name><desc>Hoellental | Weisse Wand</desc></wpt>
<wpt lat="47.750988" lon="15.758456"><name>DES GESTEINS</name><desc>Hoellental | Weisse Wand</desc></wpt>
<wpt lat="47.750988" lon="15.758456"><name>DIE DUNKLE BRUDERSCHAFT</name><desc>Hoellental | Weisse Wand</desc></wpt>
<wpt lat="47.750988" lon="15.758456"><name>DIE UNERTRÄGLICHE WEISHEIT OSEIDENSTRASSE</name><desc>Hoellental | Weisse Wand</desc></wpt>
<wpt lat="47.750988" lon="15.758456"><name>DUFT DER BERGE</name><desc>Hoellental | Weisse Wand</desc></wpt>
<wpt lat="47.750988" lon="15.758456"><name>DUNSTVARIANTE</name><desc>Hoellental | Weisse Wand</desc></wpt>
<wpt lat="47.750988" lon="15.758456"><name>Dwo DIE SCHWARZEN VÖGEL @DIE FORMVOLLENDETE</name><desc>Hoellental | Weisse Wand</desc></wpt>
<wpt lat="47.750988" lon="15.758456"><name>GOLLUM</name><desc>Hoellental | Weisse Wand</desc></wpt>
<wpt lat="47.750988" lon="15.758456"><name>GORGOROTH</name><desc>Hoellental | Weisse Wand</desc></wpt>
<wpt lat="47.750988" lon="15.758456"><name>HERODES</name><desc>Hoellental | Weisse Wand</desc></wpt>
<wpt lat="47.750988" lon="15.758456"><name>HIEBLPLATTE</name><desc>Hoellental | Weisse Wand</desc></wpt>
<wpt lat="47.750988" lon="15.758456"><name>I@ZWISCHEN DEN STREIFEN</name><desc>Hoellental | Weisse Wand</desc></wpt>
<wpt lat="47.750988" lon="15.758456"><name>KARO</name><desc>Hoellental | Weisse Wand</desc></wpt>
<wpt lat="47.750988" lon="15.758456"><name>KARURISS</name><desc>Hoellental | Weisse Wand</desc></wpt>
<wpt lat="47.750988" lon="15.758456"><name>KEOPAGODE, DACH UND WANNE</name><desc>Hoellental | Weisse Wand</desc></wpt>
<wpt lat="47.750988" lon="15.758456"><name>KNOBBI</name><desc>Hoellental | Weisse Wand</desc></wpt>
<wpt lat="47.750988" lon="15.758456"><name>LOZWISCHEN DEN STREIFEN</name><desc>Hoellental | Weisse Wand</desc></wpt>
<wpt lat="47.750988" lon="15.758456"><name>MASSADA ISL</name><desc>Hoellental | Weisse Wand</desc></wpt>
<wpt lat="47.750988" lon="15.758456"><name>NEUER REHARISS</name><desc>Hoellental | Weisse Wand</desc></wpt>
<wpt lat="47.750988" lon="15.758456"><name>PLUS EN PLUS COOL</name><desc>Hoellental | Weisse Wand</desc></wpt>
<wpt lat="47.750988" lon="15.758456"><name>PUNKS ON SOAP</name><desc>Hoellental | Weisse Wand</desc></wpt>
<wpt lat="47.750988" lon="15.758456"><name>RAUCHQUARZ</name><desc>Hoellental | Weisse Wand</desc></wpt>
<wpt lat="47.750988" lon="15.758456"><name>SATYRICON</name><desc>Hoellental | Weisse Wand</desc></wpt>
<wpt lat="47.750988" lon="15.758456"><name>ZIEHN</name><desc>Hoellental | Weisse Wand</desc></wpt>
<wpt lat="47.750988" lon="15.758456"><name>g@DER KLEINE SPANNER</name><desc>Hoellental | Weisse Wand</desc></wpt>
<wpt lat="47.750988" lon="15.758456"><name>pws EN PLUS COOL</name><desc>Hoellental | Weisse Wand</desc></wpt>
</gpx>
