<?xml version="1.0" encoding="UTF-8"?>
<gpx version="1.1" creator="Vertical Moment" xmlns="http://www.topografix.com/GPX/1/1">
<metadata><name>Hoellental | Niemandsland</name><desc>GPS data for Vertical Moment master v4. Coordinates derived from OSM (OpenStreetMap, (c) OSM contributors, ODbL 1.0), theCrag, climb.sk, outdooractive, Nominatim and legacy master coords.</desc></metadata>
<wpt lat="47.750062" lon="15.758581"><name>"A@RAINBOW WARRIOR</name><desc>Hoellental | Niemandsland</desc></wpt>
<wpt lat="47.750062" lon="15.758581"><name>ANIMAL FARM</name><desc>Hoellental | Niemandsland</desc></wpt>
<wpt lat="47.750062" lon="15.758581"><name>AkOSHURT CUTS</name><desc>Hoellental | Niemandsland</desc></wpt>
<wpt lat="47.750062" lon="15.758581"><name>BELANGLOS</name><desc>Hoellental | Niemandsland</desc></wpt>
<wpt lat="47.750062" lon="15.758581"><name>BIG SLEEP</name><desc>Hoellental | Niemandsland</desc></wpt>
<wpt lat="47.750062" lon="15.758581"><name>BLACK PLANET</name><desc>Hoellental | Niemandsland</desc></wpt>
<wpt lat="47.750062" lon="15.758581"><name>BLUE PLANET</name><desc>Hoellental | Niemandsland</desc></wpt>
<wpt lat="47.750062" lon="15.758581"><name>BLUT UND HONIG</name><desc>Hoellental | Niemandsland</desc></wpt>
<wpt lat="47.750062" lon="15.758581"><name>CUTS</name><desc>Hoellental | Niemandsland</desc></wpt>
<wpt lat="47.750062" lon="15.758581"><name>DEMIAN</name><desc>Hoellental | Niemandsland</desc></wpt>
<wpt lat="47.750062" lon="15.758581"><name>DER KÜBELREITER</name><desc>Hoellental | Niemandsland</desc></wpt>
<wpt lat="47.750062" lon="15.758581"><name>DIRTY</name><desc>Hoellental | Niemandsland</desc></wpt>
<wpt lat="47.750062" lon="15.758581"><name>DIRTY PAWS</name><desc>Hoellental | Niemandsland</desc></wpt>
<wpt lat="47.750062" lon="15.758581"><name>ELZA</name><desc>Hoellental | Niemandsland</desc></wpt>
<wpt lat="47.750062" lon="15.758581"><name>FATBURNER</name><desc>Hoellental | Niemandsland</desc></wpt>
<wpt lat="47.750062" lon="15.758581"><name>FLUSS DER ZEIT</name><desc>Hoellental | Niemandsland</desc></wpt>
<wpt lat="47.750062" lon="15.758581"><name>GASTON</name><desc>Hoellental | Niemandsland</desc></wpt>
<wpt lat="47.750062" lon="15.758581"><name>GEFÜHLLOSEN</name><desc>Hoellental | Niemandsland</desc></wpt>
<wpt lat="47.750062" lon="15.758581"><name>GLASPERLENSPIEL</name><desc>Hoellental | Niemandsland</desc></wpt>
<wpt lat="47.750062" lon="15.758581"><name>HAUCH VON EWIGKEIT</name><desc>Hoellental | Niemandsland</desc></wpt>
<wpt lat="47.750062" lon="15.758581"><name>HONIG</name><desc>Hoellental | Niemandsland</desc></wpt>
<wpt lat="47.750062" lon="15.758581"><name>HUT AB MUTTERTAG</name><desc>Hoellental | Niemandsland</desc></wpt>
<wpt lat="47.750062" lon="15.758581"><name>HYMNS TO THE LIGHT</name><desc>Hoellental | Niemandsland</desc></wpt>
<wpt lat="47.750062" lon="15.758581"><name>INDOTIMES</name><desc>Hoellental | Niemandsland</desc></wpt>
<wpt lat="47.750062" lon="15.758581"><name>J (K Reicht, RP B Fiedler 2003' ODER KLEINE HUDINI</name><desc>Hoellental | Niemandsland</desc></wpt>
<wpt lat="47.750062" lon="15.758581"><name>KNEISSLWHITE STAR ONE PERSONNE LA</name><desc>Hoellental | Niemandsland</desc></wpt>
<wpt lat="47.750062" lon="15.758581"><name>NICARAGUA</name><desc>Hoellental | Niemandsland</desc></wpt>
<wpt lat="47.750062" lon="15.758581"><name>NIEMANDSLAND</name><desc>Hoellental | Niemandsland</desc></wpt>
<wpt lat="47.750062" lon="15.758581"><name>PAPALAGI</name><desc>Hoellental | Niemandsland</desc></wpt>
<wpt lat="47.750062" lon="15.758581"><name>PPENSCHLÖCHER</name><desc>Hoellental | Niemandsland</desc></wpt>
<wpt lat="47.750062" lon="15.758581"><name>PYCHIATERS ERBSCHAFT</name><desc>Hoellental | Niemandsland</desc></wpt>
<wpt lat="47.750062" lon="15.758581"><name>ROSETTENKAVALIER</name><desc>Hoellental | Niemandsland</desc></wpt>
<wpt lat="47.750062" lon="15.758581"><name>SIDDHARTA</name><desc>Hoellental | Niemandsland</desc></wpt>
<wpt lat="47.750062" lon="15.758581"><name>SONGLINE</name><desc>Hoellental | Niemandsland</desc></wpt>
<wpt lat="47.750062" lon="15.758581"><name>STEINFEDER</name><desc>Hoellental | Niemandsland</desc></wpt>
<wpt lat="47.750062" lon="15.758581"><name>STEPPENWOLF</name><desc>Hoellental | Niemandsland</desc></wpt>
<wpt lat="47.750062" lon="15.758581"><name>TEARS OF HEAVEN</name><desc>Hoellental | Niemandsland</desc></wpt>
<wpt lat="47.750062" lon="15.758581"><name>WARRIOR</name><desc>Hoellental | Niemandsland</desc></wpt>
<wpt lat="47.750062" lon="15.758581"><name>ZECKENJAGD</name><desc>Hoellental | Niemandsland</desc></wpt>
<wpt lat="47.750062" lon="15.758581"><name>o BLACK PLANET</name><desc>Hoellental | Niemandsland</desc></wpt>
</gpx>
