<?xml version="1.0" encoding="UTF-8"?>
<gpx version="1.1" creator="Vertical Moment" xmlns="http://www.topografix.com/GPX/1/1">
<metadata><name>Hoellental | Fuchslochgraben</name><desc>GPS data for Vertical Moment master v4. Coordinates derived from OSM (OpenStreetMap, (c) OSM contributors, ODbL 1.0), theCrag, climb.sk, outdooractive, Nominatim and legacy master coords.</desc></metadata>
<wpt lat="47.74441" lon="15.762248"><name>BIG FAT MONSON</name><desc>Hoellental | Fuchslochgraben</desc></wpt>
<wpt lat="47.74441" lon="15.762248"><name>BLACK METAL IST KRIEG</name><desc>Hoellental | Fuchslochgraben</desc></wpt>
<wpt lat="47.74441" lon="15.762248"><name>CUTTING EDGE KOMPLETT</name><desc>Hoellental | Fuchslochgraben</desc></wpt>
<wpt lat="47.74441" lon="15.762248"><name>DAGORLAD</name><desc>Hoellental | Fuchslochgraben</desc></wpt>
<wpt lat="47.74441" lon="15.762248"><name>DAMPFENDE DUMMHEIT</name><desc>Hoellental | Fuchslochgraben</desc></wpt>
<wpt lat="47.74441" lon="15.762248"><name>DUNKLE SCHWINGEN</name><desc>Hoellental | Fuchslochgraben</desc></wpt>
<wpt lat="47.74441" lon="15.762248"><name>FUCHSLOCHTHRON</name><desc>Hoellental | Fuchslochgraben</desc></wpt>
<wpt lat="47.74441" lon="15.762248"><name>GRIPPER IN OSTUMLAND</name><desc>Hoellental | Fuchslochgraben</desc></wpt>
<wpt lat="47.74441" lon="15.762248"><name>GRÜNE HÖLLE</name><desc>Hoellental | Fuchslochgraben</desc></wpt>
<wpt lat="47.74441" lon="15.762248"><name>GUVELAND</name><desc>Hoellental | Fuchslochgraben</desc></wpt>
<wpt lat="47.74441" lon="15.762248"><name>HALTIUM</name><desc>Hoellental | Fuchslochgraben</desc></wpt>
<wpt lat="47.74441" lon="15.762248"><name>HUDSKJALF</name><desc>Hoellental | Fuchslochgraben</desc></wpt>
<wpt lat="47.74441" lon="15.762248"><name>HÖLLENTANZ</name><desc>Hoellental | Fuchslochgraben</desc></wpt>
<wpt lat="47.74441" lon="15.762248"><name>IN DEN MAUERN VON ERYX</name><desc>Hoellental | Fuchslochgraben</desc></wpt>
<wpt lat="47.74441" lon="15.762248"><name>MINAS ANOR</name><desc>Hoellental | Fuchslochgraben</desc></wpt>
<wpt lat="47.74441" lon="15.762248"><name>MINAS ITHIL</name><desc>Hoellental | Fuchslochgraben</desc></wpt>
<wpt lat="47.74441" lon="15.762248"><name>MOON IN THE SCORPIO</name><desc>Hoellental | Fuchslochgraben</desc></wpt>
<wpt lat="47.74441" lon="15.762248"><name>POLARIS</name><desc>Hoellental | Fuchslochgraben</desc></wpt>
<wpt lat="47.74441" lon="15.762248"><name>RIGER</name><desc>Hoellental | Fuchslochgraben</desc></wpt>
<wpt lat="47.74441" lon="15.762248"><name>RONIN</name><desc>Hoellental | Fuchslochgraben</desc></wpt>
<wpt lat="47.74441" lon="15.762248"><name>SCHATTENWOLF</name><desc>Hoellental | Fuchslochgraben</desc></wpt>
<wpt lat="47.74441" lon="15.762248"><name>STORMBORN</name><desc>Hoellental | Fuchslochgraben</desc></wpt>
<wpt lat="47.74441" lon="15.762248"><name>SUARZAHA</name><desc>Hoellental | Fuchslochgraben</desc></wpt>
<wpt lat="47.74441" lon="15.762248"><name>TRÄNEN UND STAHL</name><desc>Hoellental | Fuchslochgraben</desc></wpt>
<wpt lat="47.74441" lon="15.762248"><name>WASSERGEBORENE</name><desc>Hoellental | Fuchslochgraben</desc></wpt>
<wpt lat="47.74441" lon="15.762248"><name>WINTERFELL</name><desc>Hoellental | Fuchslochgraben</desc></wpt>
<wpt lat="47.74441" lon="15.762248"><name>ZEIT DER KRÄHEN</name><desc>Hoellental | Fuchslochgraben</desc></wpt>
<wpt lat="47.74441" lon="15.762248"><name>ZENTULFRIEDHOF</name><desc>Hoellental | Fuchslochgraben</desc></wpt>
</gpx>
