<?xml version="1.0" encoding="UTF-8"?>
<gpx version="1.1" creator="Vertical Moment" xmlns="http://www.topografix.com/GPX/1/1">
<metadata><name>Hoellental | Atlantis</name><desc>GPS data for Vertical Moment master v4. Coordinates derived from OSM (OpenStreetMap, (c) OSM contributors, ODbL 1.0), theCrag, climb.sk, outdooractive, Nominatim and legacy master coords.</desc></metadata>
<wpt lat="47.75343" lon="15.761864"><name>"SCHOPPELDUPPE"</name><desc>Hoellental | Atlantis</desc></wpt>
<wpt lat="47.75343" lon="15.761864"><name>3223 NACH ATLANTIS</name><desc>Hoellental | Atlantis</desc></wpt>
<wpt lat="47.75343" lon="15.761864"><name>ACAPULCO GOLD</name><desc>Hoellental | Atlantis</desc></wpt>
<wpt lat="47.75343" lon="15.761864"><name>BASTI DER HUND</name><desc>Hoellental | Atlantis</desc></wpt>
<wpt lat="47.75343" lon="15.761864"><name>BESTE JAHRESZEIT: Hochsommer ODIE ÜBLICHE GAMS</name><desc>Hoellental | Atlantis</desc></wpt>
<wpt lat="47.75343" lon="15.761864"><name>BLACK MILENNIUM</name><desc>Hoellental | Atlantis</desc></wpt>
<wpt lat="47.75343" lon="15.761864"><name>DER GEMEINE INGINÖR</name><desc>Hoellental | Atlantis</desc></wpt>
<wpt lat="47.75343" lon="15.761864"><name>DER GESTREIFTE RUBIN</name><desc>Hoellental | Atlantis</desc></wpt>
<wpt lat="47.75343" lon="15.761864"><name>DOLB</name><desc>Hoellental | Atlantis</desc></wpt>
<wpt lat="47.75343" lon="15.761864"><name>FLATTERMANN</name><desc>Hoellental | Atlantis</desc></wpt>
<wpt lat="47.75343" lon="15.761864"><name>GOAL OGLIO</name><desc>Hoellental | Atlantis</desc></wpt>
<wpt lat="47.75343" lon="15.761864"><name>HEILIGE HAINE</name><desc>Hoellental | Atlantis</desc></wpt>
<wpt lat="47.75343" lon="15.761864"><name>HERRSCHER UNTER SICH</name><desc>Hoellental | Atlantis</desc></wpt>
<wpt lat="47.75343" lon="15.761864"><name>JAGEN</name><desc>Hoellental | Atlantis</desc></wpt>
<wpt lat="47.75343" lon="15.761864"><name>KOMBINATION</name><desc>Hoellental | Atlantis</desc></wpt>
<wpt lat="47.75343" lon="15.761864"><name>LIZARD</name><desc>Hoellental | Atlantis</desc></wpt>
<wpt lat="47.75343" lon="15.761864"><name>LODENFREAK</name><desc>Hoellental | Atlantis</desc></wpt>
<wpt lat="47.75343" lon="15.761864"><name>MIMMIKRY</name><desc>Hoellental | Atlantis</desc></wpt>
<wpt lat="47.75343" lon="15.761864"><name>NEUEN UFERN</name><desc>Hoellental | Atlantis</desc></wpt>
<wpt lat="47.75343" lon="15.761864"><name>NOABTURNER</name><desc>Hoellental | Atlantis</desc></wpt>
<wpt lat="47.75343" lon="15.761864"><name>NOAL OGLIO</name><desc>Hoellental | Atlantis</desc></wpt>
<wpt lat="47.75343" lon="15.761864"><name>ROTER BEISSER</name><desc>Hoellental | Atlantis</desc></wpt>
<wpt lat="47.75343" lon="15.761864"><name>SAUBARTL</name><desc>Hoellental | Atlantis</desc></wpt>
<wpt lat="47.75343" lon="15.761864"><name>SPAZYRUS</name><desc>Hoellental | Atlantis</desc></wpt>
<wpt lat="47.75343" lon="15.761864"><name>y« ODAS BREMSPACKL</name><desc>Hoellental | Atlantis</desc></wpt>
<wpt lat="47.75343" lon="15.761864"><name>• KOMBINATION</name><desc>Hoellental | Atlantis</desc></wpt>
<wpt lat="47.75343" lon="15.761864"><name>• WADLBEISSER</name><desc>Hoellental | Atlantis</desc></wpt>
</gpx>
