<?xml version="1.0" encoding="UTF-8"?>
<gpx version="1.1" creator="Vertical Moment" xmlns="http://www.topografix.com/GPX/1/1">
<metadata><name>Hohe Wand | Kleine Klause</name><desc>GPS data for Vertical Moment master v4. Coordinates derived from OSM (OpenStreetMap, (c) OSM contributors, ODbL 1.0), theCrag, climb.sk, outdooractive, Nominatim and legacy master coords.</desc></metadata>
<wpt lat="47.849635" lon="16.078885"><name>AUSDRUCKSTANZ</name><desc>Hohe Wand | Kleine Klause</desc></wpt>
<wpt lat="47.849635" lon="16.078885"><name>DER FELSINATOR</name><desc>Hohe Wand | Kleine Klause</desc></wpt>
<wpt lat="47.849635" lon="16.078885"><name>DICH ROQUE</name><desc>Hohe Wand | Kleine Klause</desc></wpt>
<wpt lat="47.849635" lon="16.078885"><name>DIRTY DANCING</name><desc>Hohe Wand | Kleine Klause</desc></wpt>
<wpt lat="47.849635" lon="16.078885"><name>Disco TEAM</name><desc>Hohe Wand | Kleine Klause</desc></wpt>
<wpt lat="47.849635" lon="16.078885"><name>HENKELDISCO</name><desc>Hohe Wand | Kleine Klause</desc></wpt>
<wpt lat="47.849635" lon="16.078885"><name>HINTENRUM</name><desc>Hohe Wand | Kleine Klause</desc></wpt>
<wpt lat="47.849635" lon="16.078885"><name>JOS PROJEKT</name><desc>Hohe Wand | Kleine Klause</desc></wpt>
<wpt lat="47.849635" lon="16.078885"><name>JÄGERSLUST</name><desc>Hohe Wand | Kleine Klause</desc></wpt>
<wpt lat="47.849635" lon="16.078885"><name>MARTIALISCHE KUNST</name><desc>Hohe Wand | Kleine Klause</desc></wpt>
<wpt lat="47.849635" lon="16.078885"><name>MEMORANDUM</name><desc>Hohe Wand | Kleine Klause</desc></wpt>
<wpt lat="47.849635" lon="16.078885"><name>MORDSTRUM</name><desc>Hohe Wand | Kleine Klause</desc></wpt>
<wpt lat="47.849635" lon="16.078885"><name>SEISDRUM</name><desc>Hohe Wand | Kleine Klause</desc></wpt>
<wpt lat="47.849635" lon="16.078885"><name>STEINERWEG</name><desc>Hohe Wand | Kleine Klause</desc></wpt>
<wpt lat="47.849635" lon="16.078885"><name>TWITTERTÅUFER</name><desc>Hohe Wand | Kleine Klause</desc></wpt>
</gpx>
