<?xml version="1.0" encoding="UTF-8"?>
<gpx version="1.1" creator="Vertical Moment" xmlns="http://www.topografix.com/GPX/1/1">
<metadata><name>Hohe Wand | Unterer/Mittlerer Nordgrat</name><desc>GPS data for Vertical Moment master v4. Coordinates derived from OSM (OpenStreetMap, (c) OSM contributors, ODbL 1.0), theCrag, climb.sk, outdooractive, Nominatim and legacy master coords.</desc></metadata>
<wpt lat="48.006751" lon="16.034302"><name>ARCHEO CUMB</name><desc>Hohe Wand | Unterer/Mittlerer Nordgrat</desc></wpt>
<wpt lat="48.006751" lon="16.034302"><name>ASSELN, DIE RASSELN</name><desc>Hohe Wand | Unterer/Mittlerer Nordgrat</desc></wpt>
<wpt lat="48.006751" lon="16.034302"><name>FINKEN, DIE WINKEN</name><desc>Hohe Wand | Unterer/Mittlerer Nordgrat</desc></wpt>
<wpt lat="48.006751" lon="16.034302"><name>GEISSEN, DIE SCHEISSEN</name><desc>Hohe Wand | Unterer/Mittlerer Nordgrat</desc></wpt>
<wpt lat="48.006751" lon="16.034302"><name>GIMPELN, DIE PIMPELN</name><desc>Hohe Wand | Unterer/Mittlerer Nordgrat</desc></wpt>
<wpt lat="48.006751" lon="16.034302"><name>GÖTTERDIAGONALE</name><desc>Hohe Wand | Unterer/Mittlerer Nordgrat</desc></wpt>
<wpt lat="48.006751" lon="16.034302"><name>HASEN, DIE GRASEN</name><desc>Hohe Wand | Unterer/Mittlerer Nordgrat</desc></wpt>
<wpt lat="48.006751" lon="16.034302"><name>HENNEN, DIE RENNEN</name><desc>Hohe Wand | Unterer/Mittlerer Nordgrat</desc></wpt>
<wpt lat="48.006751" lon="16.034302"><name>HERBSTWIND</name><desc>Hohe Wand | Unterer/Mittlerer Nordgrat</desc></wpt>
<wpt lat="48.006751" lon="16.034302"><name>HILFE ERWÜNSCHT</name><desc>Hohe Wand | Unterer/Mittlerer Nordgrat</desc></wpt>
<wpt lat="48.006751" lon="16.034302"><name>KURZE SCHÖNHEIT</name><desc>Hohe Wand | Unterer/Mittlerer Nordgrat</desc></wpt>
<wpt lat="48.006751" lon="16.034302"><name>POWERSTATION</name><desc>Hohe Wand | Unterer/Mittlerer Nordgrat</desc></wpt>
<wpt lat="48.006751" lon="16.034302"><name>RAKETENPFEILER</name><desc>Hohe Wand | Unterer/Mittlerer Nordgrat</desc></wpt>
<wpt lat="48.006751" lon="16.034302"><name>SPINNEN, DIE SINGEN</name><desc>Hohe Wand | Unterer/Mittlerer Nordgrat</desc></wpt>
<wpt lat="48.006751" lon="16.034302"><name>TORIDONIA</name><desc>Hohe Wand | Unterer/Mittlerer Nordgrat</desc></wpt>
<wpt lat="48.006751" lon="16.034302"><name>WANZEN, DIE TANZEN</name><desc>Hohe Wand | Unterer/Mittlerer Nordgrat</desc></wpt>
<wpt lat="48.006751" lon="16.034302"><name>WONDERFUL WORLD</name><desc>Hohe Wand | Unterer/Mittlerer Nordgrat</desc></wpt>
<wpt lat="48.006751" lon="16.034302"><name>ZECKEN, DIE NECKEN</name><desc>Hohe Wand | Unterer/Mittlerer Nordgrat</desc></wpt>
<wpt lat="48.006751" lon="16.034302"><name>ZIEGEN, DIE LIEGEN</name><desc>Hohe Wand | Unterer/Mittlerer Nordgrat</desc></wpt>
<wpt lat="48.006751" lon="16.034302"><name>• SCHLANGEN, DIE SANGEN</name><desc>Hohe Wand | Unterer/Mittlerer Nordgrat</desc></wpt>
</gpx>
