<?xml version="1.0" encoding="UTF-8"?>
<gpx version="1.1" creator="Vertical Moment" xmlns="http://www.topografix.com/GPX/1/1">
<metadata><name>Hohe Tauern — Glockner | Großglockner</name><desc>GPS data for Vertical Moment master v4. Coordinates derived from OSM (OpenStreetMap, (c) OSM contributors, ODbL 1.0), theCrag, climb.sk, outdooractive, Nominatim and legacy master coords.</desc></metadata>
<wpt lat="47.0745464" lon="12.6938826"><name>Stüdlgrat</name><desc>Hohe Tauern — Glockner | Großglockner</desc></wpt>
<wpt lat="47.0745464" lon="12.6938826"><name>Meletzkigrat</name><desc>Hohe Tauern — Glockner | Großglockner</desc></wpt>
</gpx>
