<?xml version="1.0" encoding="UTF-8"?>
<gpx version="1.1" creator="Vertical Moment" xmlns="http://www.topografix.com/GPX/1/1">
<metadata><name>Hohe Wand | Zentrum</name><desc>GPS data for Vertical Moment master v4. Coordinates derived from OSM (OpenStreetMap, (c) OSM contributors, ODbL 1.0), theCrag, climb.sk, outdooractive, Nominatim and legacy master coords.</desc></metadata>
<wpt lat="47.915312" lon="15.939315"><name>BIS ZUM BITTEREN ENDE</name><desc>Hohe Wand | Zentrum</desc></wpt>
<wpt lat="47.915312" lon="15.939315"><name>CALGONIT CADDY</name><desc>Hohe Wand | Zentrum</desc></wpt>
<wpt lat="47.915312" lon="15.939315"><name>CRNO MACKA</name><desc>Hohe Wand | Zentrum</desc></wpt>
<wpt lat="47.915312" lon="15.939315"><name>DE OIDE PLESCHN</name><desc>Hohe Wand | Zentrum</desc></wpt>
<wpt lat="47.915312" lon="15.939315"><name>DESIDERIO DESIDERAVI</name><desc>Hohe Wand | Zentrum</desc></wpt>
<wpt lat="47.915312" lon="15.939315"><name>DIE ALTEN WILDEN</name><desc>Hohe Wand | Zentrum</desc></wpt>
<wpt lat="47.915312" lon="15.939315"><name>GUCKI WUCKI</name><desc>Hohe Wand | Zentrum</desc></wpt>
<wpt lat="47.915312" lon="15.939315"><name>MADELENE</name><desc>Hohe Wand | Zentrum</desc></wpt>
<wpt lat="47.915312" lon="15.939315"><name>PARADIES</name><desc>Hohe Wand | Zentrum</desc></wpt>
<wpt lat="47.915312" lon="15.939315"><name>PEINIGL</name><desc>Hohe Wand | Zentrum</desc></wpt>
<wpt lat="47.915312" lon="15.939315"><name>PRIMUS INTER PARES</name><desc>Hohe Wand | Zentrum</desc></wpt>
<wpt lat="47.915312" lon="15.939315"><name>SAXA LOQUUNTUR</name><desc>Hohe Wand | Zentrum</desc></wpt>
<wpt lat="47.915312" lon="15.939315"><name>STARIT</name><desc>Hohe Wand | Zentrum</desc></wpt>
<wpt lat="47.915312" lon="15.939315"><name>WUNDERBARE REISE</name><desc>Hohe Wand | Zentrum</desc></wpt>
</gpx>
