<?xml version="1.0" encoding="UTF-8"?>
<gpx version="1.1" creator="Vertical Moment" xmlns="http://www.topografix.com/GPX/1/1">
<metadata><name>Hohe Wand | Wandeck Klettergarten</name><desc>GPS data for Vertical Moment master v4. Coordinates derived from OSM (OpenStreetMap, (c) OSM contributors, ODbL 1.0), theCrag, climb.sk, outdooractive, Nominatim and legacy master coords.</desc></metadata>
<wpt lat="47.849841" lon="16.079012"><name>AMYGDALA</name><desc>Hohe Wand | Wandeck Klettergarten</desc></wpt>
<wpt lat="47.849841" lon="16.079012"><name>AST IM RÜCKEN</name><desc>Hohe Wand | Wandeck Klettergarten</desc></wpt>
<wpt lat="47.849841" lon="16.079012"><name>BERMOTZER</name><desc>Hohe Wand | Wandeck Klettergarten</desc></wpt>
<wpt lat="47.849841" lon="16.079012"><name>BIGTIME</name><desc>Hohe Wand | Wandeck Klettergarten</desc></wpt>
<wpt lat="47.849841" lon="16.079012"><name>CARESSING THE TIGER</name><desc>Hohe Wand | Wandeck Klettergarten</desc></wpt>
<wpt lat="47.849841" lon="16.079012"><name>DAMISCH DYNAMISCH</name><desc>Hohe Wand | Wandeck Klettergarten</desc></wpt>
<wpt lat="47.849841" lon="16.079012"><name>DAS PROJEKT</name><desc>Hohe Wand | Wandeck Klettergarten</desc></wpt>
<wpt lat="47.849841" lon="16.079012"><name>EAT THE RICH</name><desc>Hohe Wand | Wandeck Klettergarten</desc></wpt>
<wpt lat="47.849841" lon="16.079012"><name>EIERTANZ</name><desc>Hohe Wand | Wandeck Klettergarten</desc></wpt>
<wpt lat="47.849841" lon="16.079012"><name>ESCALIER C</name><desc>Hohe Wand | Wandeck Klettergarten</desc></wpt>
<wpt lat="47.849841" lon="16.079012"><name>ESPANDRILLO</name><desc>Hohe Wand | Wandeck Klettergarten</desc></wpt>
<wpt lat="47.849841" lon="16.079012"><name>FLEISCHESSER</name><desc>Hohe Wand | Wandeck Klettergarten</desc></wpt>
<wpt lat="47.849841" lon="16.079012"><name>FLEISCHWOLF</name><desc>Hohe Wand | Wandeck Klettergarten</desc></wpt>
<wpt lat="47.849841" lon="16.079012"><name>FOOL ON THE HILL</name><desc>Hohe Wand | Wandeck Klettergarten</desc></wpt>
<wpt lat="47.849841" lon="16.079012"><name>FUGAZI</name><desc>Hohe Wand | Wandeck Klettergarten</desc></wpt>
<wpt lat="47.849841" lon="16.079012"><name>GFLUXUS</name><desc>Hohe Wand | Wandeck Klettergarten</desc></wpt>
<wpt lat="47.849841" lon="16.079012"><name>GRAN FURY</name><desc>Hohe Wand | Wandeck Klettergarten</desc></wpt>
<wpt lat="47.849841" lon="16.079012"><name>HENKEL TROCKEN</name><desc>Hohe Wand | Wandeck Klettergarten</desc></wpt>
<wpt lat="47.849841" lon="16.079012"><name>HERRGOTTSCHNITZERWEG</name><desc>Hohe Wand | Wandeck Klettergarten</desc></wpt>
<wpt lat="47.849841" lon="16.079012"><name>HOME IS MY HITTN</name><desc>Hohe Wand | Wandeck Klettergarten</desc></wpt>
<wpt lat="47.849841" lon="16.079012"><name>HOOTCHIE GOOTCHIE MAN</name><desc>Hohe Wand | Wandeck Klettergarten</desc></wpt>
<wpt lat="47.849841" lon="16.079012"><name>HUNTER</name><desc>Hohe Wand | Wandeck Klettergarten</desc></wpt>
<wpt lat="47.849841" lon="16.079012"><name>KNOLLSTEIGLEIN</name><desc>Hohe Wand | Wandeck Klettergarten</desc></wpt>
<wpt lat="47.849841" lon="16.079012"><name>KNOLLVERSCHNEIDUNG</name><desc>Hohe Wand | Wandeck Klettergarten</desc></wpt>
<wpt lat="47.849841" lon="16.079012"><name>LIEBESNEST</name><desc>Hohe Wand | Wandeck Klettergarten</desc></wpt>
<wpt lat="47.849841" lon="16.079012"><name>LUCKYS STREIK</name><desc>Hohe Wand | Wandeck Klettergarten</desc></wpt>
<wpt lat="47.849841" lon="16.079012"><name>MALARIA</name><desc>Hohe Wand | Wandeck Klettergarten</desc></wpt>
<wpt lat="47.849841" lon="16.079012"><name>MANDELA FREE</name><desc>Hohe Wand | Wandeck Klettergarten</desc></wpt>
<wpt lat="47.849841" lon="16.079012"><name>MORBUS PARKINSON</name><desc>Hohe Wand | Wandeck Klettergarten</desc></wpt>
<wpt lat="47.849841" lon="16.079012"><name>MOTZER</name><desc>Hohe Wand | Wandeck Klettergarten</desc></wpt>
<wpt lat="47.849841" lon="16.079012"><name>MOTZSTEIGLEIN</name><desc>Hohe Wand | Wandeck Klettergarten</desc></wpt>
<wpt lat="47.849841" lon="16.079012"><name>RED HOT CHILI PEPPERS</name><desc>Hohe Wand | Wandeck Klettergarten</desc></wpt>
<wpt lat="47.849841" lon="16.079012"><name>SCHICKSALSSYMPHONIE</name><desc>Hohe Wand | Wandeck Klettergarten</desc></wpt>
<wpt lat="47.849841" lon="16.079012"><name>SCHNEUZELCHEN</name><desc>Hohe Wand | Wandeck Klettergarten</desc></wpt>
<wpt lat="47.849841" lon="16.079012"><name>SKINY</name><desc>Hohe Wand | Wandeck Klettergarten</desc></wpt>
<wpt lat="47.849841" lon="16.079012"><name>SMANDKURTI NEU</name><desc>Hohe Wand | Wandeck Klettergarten</desc></wpt>
<wpt lat="47.849841" lon="16.079012"><name>STEIG DER SCHMIEDE</name><desc>Hohe Wand | Wandeck Klettergarten</desc></wpt>
<wpt lat="47.849841" lon="16.079012"><name>SUMMERRUNNING</name><desc>Hohe Wand | Wandeck Klettergarten</desc></wpt>
<wpt lat="47.849841" lon="16.079012"><name>TEN YEARS AFTER</name><desc>Hohe Wand | Wandeck Klettergarten</desc></wpt>
<wpt lat="47.849841" lon="16.079012"><name>TIME AND AGAIN</name><desc>Hohe Wand | Wandeck Klettergarten</desc></wpt>
<wpt lat="47.849841" lon="16.079012"><name>TOD UND TEUFEL</name><desc>Hohe Wand | Wandeck Klettergarten</desc></wpt>
<wpt lat="47.849841" lon="16.079012"><name>TOPTOPDOG</name><desc>Hohe Wand | Wandeck Klettergarten</desc></wpt>
<wpt lat="47.849841" lon="16.079012"><name>VERLÄNGERUNG</name><desc>Hohe Wand | Wandeck Klettergarten</desc></wpt>
<wpt lat="47.849841" lon="16.079012"><name>VEüNGERUNG</name><desc>Hohe Wand | Wandeck Klettergarten</desc></wpt>
<wpt lat="47.849841" lon="16.079012"><name>VOX HUMANA</name><desc>Hohe Wand | Wandeck Klettergarten</desc></wpt>
<wpt lat="47.849841" lon="16.079012"><name>WERKSTÄTTE</name><desc>Hohe Wand | Wandeck Klettergarten</desc></wpt>
<wpt lat="47.849841" lon="16.079012"><name>WILD AT HEART</name><desc>Hohe Wand | Wandeck Klettergarten</desc></wpt>
<wpt lat="47.849841" lon="16.079012"><name>WOHIN UND ZURÜCK</name><desc>Hohe Wand | Wandeck Klettergarten</desc></wpt>
<wpt lat="47.849841" lon="16.079012"><name>ZARATHUSTRA</name><desc>Hohe Wand | Wandeck Klettergarten</desc></wpt>
<wpt lat="47.849841" lon="16.079012"><name>ZWISCHENZEIT</name><desc>Hohe Wand | Wandeck Klettergarten</desc></wpt>
<wpt lat="47.849841" lon="16.079012"><name>• NAMENLOS</name><desc>Hohe Wand | Wandeck Klettergarten</desc></wpt>
</gpx>
