<?xml version="1.0" encoding="UTF-8"?>
<gpx version="1.1" creator="Vertical Moment" xmlns="http://www.topografix.com/GPX/1/1">
<metadata><name>Hohe Wand | Philosophenzahn/Auenland</name><desc>GPS data for Vertical Moment master v4. Coordinates derived from OSM (OpenStreetMap, (c) OSM contributors, ODbL 1.0), theCrag, climb.sk, outdooractive, Nominatim and legacy master coords.</desc></metadata>
<wpt lat="48.007517" lon="16.036387"><name>AUGORN DER KÖNIG</name><desc>Hohe Wand | Philosophenzahn/Auenland</desc></wpt>
<wpt lat="48.007517" lon="16.036387"><name>BACKENZAHN</name><desc>Hohe Wand | Philosophenzahn/Auenland</desc></wpt>
<wpt lat="48.007517" lon="16.036387"><name>ECKZAHN</name><desc>Hohe Wand | Philosophenzahn/Auenland</desc></wpt>
<wpt lat="48.007517" lon="16.036387"><name>FRODO</name><desc>Hohe Wand | Philosophenzahn/Auenland</desc></wpt>
<wpt lat="48.007517" lon="16.036387"><name>HÄTTEST DU GESCHWIEGEN</name><desc>Hohe Wand | Philosophenzahn/Auenland</desc></wpt>
<wpt lat="48.007517" lon="16.036387"><name>I OSTRISS</name><desc>Hohe Wand | Philosophenzahn/Auenland</desc></wpt>
<wpt lat="48.007517" lon="16.036387"><name>LEGOLAS DER ELB</name><desc>Hohe Wand | Philosophenzahn/Auenland</desc></wpt>
<wpt lat="48.007517" lon="16.036387"><name>LEISTEN-SCHNAPP-QUÅLGEIST</name><desc>Hohe Wand | Philosophenzahn/Auenland</desc></wpt>
<wpt lat="48.007517" lon="16.036387"><name>LÖCHER-BLOCKIER-QUÄLGEIST</name><desc>Hohe Wand | Philosophenzahn/Auenland</desc></wpt>
<wpt lat="48.007517" lon="16.036387"><name>PRUSIKANSTIEG</name><desc>Hohe Wand | Philosophenzahn/Auenland</desc></wpt>
<wpt lat="48.007517" lon="16.036387"><name>REDEN IST SILBER</name><desc>Hohe Wand | Philosophenzahn/Auenland</desc></wpt>
<wpt lat="48.007517" lon="16.036387"><name>RIGINAL</name><desc>Hohe Wand | Philosophenzahn/Auenland</desc></wpt>
<wpt lat="48.007517" lon="16.036387"><name>RIGINELL</name><desc>Hohe Wand | Philosophenzahn/Auenland</desc></wpt>
</gpx>
