<?xml version="1.0" encoding="UTF-8"?>
<gpx version="1.1" creator="Vertical Moment" xmlns="http://www.topografix.com/GPX/1/1">
<metadata><name>Hohe Wand | Steinwandklamm</name><desc>GPS data for Vertical Moment master v4. Coordinates derived from OSM (OpenStreetMap, (c) OSM contributors, ODbL 1.0), theCrag, climb.sk, outdooractive, Nominatim and legacy master coords.</desc></metadata>
<wpt lat="47.9306118" lon="15.9457054"><name>ALL GIRLS ARE 18</name><desc>Hohe Wand | Steinwandklamm</desc></wpt>
<wpt lat="47.9306118" lon="15.9457054"><name>ANASSAZI</name><desc>Hohe Wand | Steinwandklamm</desc></wpt>
<wpt lat="47.9306118" lon="15.9457054"><name>DIE WELLE</name><desc>Hohe Wand | Steinwandklamm</desc></wpt>
<wpt lat="47.9306118" lon="15.9457054"><name>DRECKSPATZ</name><desc>Hohe Wand | Steinwandklamm</desc></wpt>
<wpt lat="47.9306118" lon="15.9457054"><name>MILCH</name><desc>Hohe Wand | Steinwandklamm</desc></wpt>
<wpt lat="47.9306118" lon="15.9457054"><name>READY FOR SM</name><desc>Hohe Wand | Steinwandklamm</desc></wpt>
<wpt lat="47.9306118" lon="15.9457054"><name>READY OR NOT</name><desc>Hohe Wand | Steinwandklamm</desc></wpt>
<wpt lat="47.9306118" lon="15.9457054"><name>SADOMASO</name><desc>Hohe Wand | Steinwandklamm</desc></wpt>
</gpx>
