<?xml version="1.0" encoding="UTF-8"?>
<gpx version="1.1" creator="Vertical Moment" xmlns="http://www.topografix.com/GPX/1/1">
<metadata><name>Hohe Wand | Hausstein</name><desc>GPS data for Vertical Moment master v4. Coordinates derived from OSM (OpenStreetMap, (c) OSM contributors, ODbL 1.0), theCrag, climb.sk, outdooractive, Nominatim and legacy master coords.</desc></metadata>
<wpt lat="47.917665" lon="15.93254"><name>AMERIKANERWEG ca</name><desc>Hohe Wand | Hausstein</desc></wpt>
<wpt lat="47.917665" lon="15.93254"><name>ARSCH IM RAUM DER ZEIT</name><desc>Hohe Wand | Hausstein</desc></wpt>
<wpt lat="47.917665" lon="15.93254"><name>DA WUCHTLDRUCU</name><desc>Hohe Wand | Hausstein</desc></wpt>
<wpt lat="47.917665" lon="15.93254"><name>DACH ÜBERM KOPF</name><desc>Hohe Wand | Hausstein</desc></wpt>
<wpt lat="47.917665" lon="15.93254"><name>DER EINBRENNTE HUND</name><desc>Hohe Wand | Hausstein</desc></wpt>
<wpt lat="47.917665" lon="15.93254"><name>DIREKTE HAUS-STEINKANTE</name><desc>Hohe Wand | Hausstein</desc></wpt>
<wpt lat="47.917665" lon="15.93254"><name>EPIC PROBLEM</name><desc>Hohe Wand | Hausstein</desc></wpt>
<wpt lat="47.917665" lon="15.93254"><name>FAVETE LINGUIS</name><desc>Hohe Wand | Hausstein</desc></wpt>
<wpt lat="47.917665" lon="15.93254"><name>FLEDERMAUSDACH</name><desc>Hohe Wand | Hausstein</desc></wpt>
<wpt lat="47.917665" lon="15.93254"><name>FREEDOM</name><desc>Hohe Wand | Hausstein</desc></wpt>
<wpt lat="47.917665" lon="15.93254"><name>GHADAFFI GRÜSST KREISKY</name><desc>Hohe Wand | Hausstein</desc></wpt>
<wpt lat="47.917665" lon="15.93254"><name>GOAT UPS</name><desc>Hohe Wand | Hausstein</desc></wpt>
<wpt lat="47.917665" lon="15.93254"><name>GÖSING-WOLFES</name><desc>Hohe Wand | Hausstein</desc></wpt>
<wpt lat="47.917665" lon="15.93254"><name>HAPPY HAKI HOUR</name><desc>Hohe Wand | Hausstein</desc></wpt>
<wpt lat="47.917665" lon="15.93254"><name>HAUSSTEIN ZWEI</name><desc>Hohe Wand | Hausstein</desc></wpt>
<wpt lat="47.917665" lon="15.93254"><name>HAUSTEIN EINS</name><desc>Hohe Wand | Hausstein</desc></wpt>
<wpt lat="47.917665" lon="15.93254"><name>HERBERT WEST</name><desc>Hohe Wand | Hausstein</desc></wpt>
<wpt lat="47.917665" lon="15.93254"><name>INOX</name><desc>Hohe Wand | Hausstein</desc></wpt>
<wpt lat="47.917665" lon="15.93254"><name>JAGASIMMERL</name><desc>Hohe Wand | Hausstein</desc></wpt>
<wpt lat="47.917665" lon="15.93254"><name>KERZLSCHUCU</name><desc>Hohe Wand | Hausstein</desc></wpt>
<wpt lat="47.917665" lon="15.93254"><name>KÖPEK</name><desc>Hohe Wand | Hausstein</desc></wpt>
<wpt lat="47.917665" lon="15.93254"><name>LA DE L.A TRADICION</name><desc>Hohe Wand | Hausstein</desc></wpt>
<wpt lat="47.917665" lon="15.93254"><name>MENSCHEN</name><desc>Hohe Wand | Hausstein</desc></wpt>
<wpt lat="47.917665" lon="15.93254"><name>MOSTSCHANK WÖBER</name><desc>Hohe Wand | Hausstein</desc></wpt>
<wpt lat="47.917665" lon="15.93254"><name>NAMENLOS</name><desc>Hohe Wand | Hausstein</desc></wpt>
<wpt lat="47.917665" lon="15.93254"><name>PATAGONIA</name><desc>Hohe Wand | Hausstein</desc></wpt>
<wpt lat="47.917665" lon="15.93254"><name>PHILIPP</name><desc>Hohe Wand | Hausstein</desc></wpt>
<wpt lat="47.917665" lon="15.93254"><name>RADARFALLE</name><desc>Hohe Wand | Hausstein</desc></wpt>
<wpt lat="47.917665" lon="15.93254"><name>RESIS RISS</name><desc>Hohe Wand | Hausstein</desc></wpt>
<wpt lat="47.917665" lon="15.93254"><name>SANTA</name><desc>Hohe Wand | Hausstein</desc></wpt>
<wpt lat="47.917665" lon="15.93254"><name>SCHANKHOLZ</name><desc>Hohe Wand | Hausstein</desc></wpt>
<wpt lat="47.917665" lon="15.93254"><name>SCHNEEBERGBLICK</name><desc>Hohe Wand | Hausstein</desc></wpt>
<wpt lat="47.917665" lon="15.93254"><name>SCHNEEGLÖCKCHEN</name><desc>Hohe Wand | Hausstein</desc></wpt>
<wpt lat="47.917665" lon="15.93254"><name>SPENGLERVERSCHNEIDUNG</name><desc>Hohe Wand | Hausstein</desc></wpt>
<wpt lat="47.917665" lon="15.93254"><name>THATS NOT ME</name><desc>Hohe Wand | Hausstein</desc></wpt>
<wpt lat="47.917665" lon="15.93254"><name>TORTURPLATTE</name><desc>Hohe Wand | Hausstein</desc></wpt>
<wpt lat="47.917665" lon="15.93254"><name>WOLF UKE ME</name><desc>Hohe Wand | Hausstein</desc></wpt>
</gpx>
