<?xml version="1.0" encoding="UTF-8"?>
<gpx version="1.1" creator="Vertical Moment" xmlns="http://www.topografix.com/GPX/1/1">
<metadata><name>Hohe Wand | Badener Turm</name><desc>GPS data for Vertical Moment master v4. Coordinates derived from OSM (OpenStreetMap, (c) OSM contributors, ODbL 1.0), theCrag, climb.sk, outdooractive, Nominatim and legacy master coords.</desc></metadata>
<wpt lat="47.8445776" lon="16.0247791"><name>BRÖSELMONSTER</name><desc>Hohe Wand | Badener Turm</desc></wpt>
<wpt lat="47.8445776" lon="16.0247791"><name>ENDE GUT ALLES GUT</name><desc>Hohe Wand | Badener Turm</desc></wpt>
<wpt lat="47.8445776" lon="16.0247791"><name>GALAKTOBUREKO</name><desc>Hohe Wand | Badener Turm</desc></wpt>
<wpt lat="47.8445776" lon="16.0247791"><name>GLÜCKSLOS</name><desc>Hohe Wand | Badener Turm</desc></wpt>
<wpt lat="47.8445776" lon="16.0247791"><name>GROSSER SCHWARZER VOGEL</name><desc>Hohe Wand | Badener Turm</desc></wpt>
<wpt lat="47.8445776" lon="16.0247791"><name>HELMHEIMVORTEIL</name><desc>Hohe Wand | Badener Turm</desc></wpt>
<wpt lat="47.8445776" lon="16.0247791"><name>HOCH MIT GEFÜHL</name><desc>Hohe Wand | Badener Turm</desc></wpt>
<wpt lat="47.8445776" lon="16.0247791"><name>IM SOG DER TIEFE</name><desc>Hohe Wand | Badener Turm</desc></wpt>
<wpt lat="47.8445776" lon="16.0247791"><name>KLEINE MÄNNER VARIANTE</name><desc>Hohe Wand | Badener Turm</desc></wpt>
<wpt lat="47.8445776" lon="16.0247791"><name>KLEINER AUSREISSER</name><desc>Hohe Wand | Badener Turm</desc></wpt>
<wpt lat="47.8445776" lon="16.0247791"><name>KLETTERN AUF EIGENE GEFAHR</name><desc>Hohe Wand | Badener Turm</desc></wpt>
<wpt lat="47.8445776" lon="16.0247791"><name>MORBIDER HÖHENRAUSCH</name><desc>Hohe Wand | Badener Turm</desc></wpt>
<wpt lat="47.8445776" lon="16.0247791"><name>PAUL WATSON</name><desc>Hohe Wand | Badener Turm</desc></wpt>
<wpt lat="47.8445776" lon="16.0247791"><name>PLAG DICH HOCH</name><desc>Hohe Wand | Badener Turm</desc></wpt>
<wpt lat="47.8445776" lon="16.0247791"><name>SCHRÄGES MONSTER</name><desc>Hohe Wand | Badener Turm</desc></wpt>
<wpt lat="47.8445776" lon="16.0247791"><name>SCHWERE JUNGS</name><desc>Hohe Wand | Badener Turm</desc></wpt>
<wpt lat="47.8445776" lon="16.0247791"><name>VERTRAU DICH HOCH</name><desc>Hohe Wand | Badener Turm</desc></wpt>
<wpt lat="47.8445776" lon="16.0247791"><name>VOGELFREI</name><desc>Hohe Wand | Badener Turm</desc></wpt>
</gpx>
