<?xml version="1.0" encoding="UTF-8"?>
<gpx version="1.1" creator="Vertical Moment" xmlns="http://www.topografix.com/GPX/1/1">
<metadata><name>Hohe Wand | Calimero Wall</name><desc>GPS data for Vertical Moment master v4. Coordinates derived from OSM (OpenStreetMap, (c) OSM contributors, ODbL 1.0), theCrag, climb.sk, outdooractive, Nominatim and legacy master coords.</desc></metadata>
<wpt lat="47.915312" lon="15.939315"><name>AUSSTEIGER</name><desc>Hohe Wand | Calimero Wall</desc></wpt>
<wpt lat="47.915312" lon="15.939315"><name>BABA RODELLAR</name><desc>Hohe Wand | Calimero Wall</desc></wpt>
<wpt lat="47.915312" lon="15.939315"><name>BUSHSNAKE</name><desc>Hohe Wand | Calimero Wall</desc></wpt>
<wpt lat="47.915312" lon="15.939315"><name>CALIMERO</name><desc>Hohe Wand | Calimero Wall</desc></wpt>
<wpt lat="47.915312" lon="15.939315"><name>DAS SCHWARZE REH</name><desc>Hohe Wand | Calimero Wall</desc></wpt>
<wpt lat="47.915312" lon="15.939315"><name>DIE WELT IST SO UNGERECHT</name><desc>Hohe Wand | Calimero Wall</desc></wpt>
<wpt lat="47.915312" lon="15.939315"><name>DRAKEN DIREKT</name><desc>Hohe Wand | Calimero Wall</desc></wpt>
<wpt lat="47.915312" lon="15.939315"><name>DRAKENSTOUR</name><desc>Hohe Wand | Calimero Wall</desc></wpt>
<wpt lat="47.915312" lon="15.939315"><name>EIN PFUND RAUCH</name><desc>Hohe Wand | Calimero Wall</desc></wpt>
<wpt lat="47.915312" lon="15.939315"><name>GEISTERBAHN</name><desc>Hohe Wand | Calimero Wall</desc></wpt>
<wpt lat="47.915312" lon="15.939315"><name>GEISTESBLITZ</name><desc>Hohe Wand | Calimero Wall</desc></wpt>
<wpt lat="47.915312" lon="15.939315"><name>HIRSCHEN UND PIRSCHEN</name><desc>Hohe Wand | Calimero Wall</desc></wpt>
<wpt lat="47.915312" lon="15.939315"><name>HIRSCHHÄND</name><desc>Hohe Wand | Calimero Wall</desc></wpt>
<wpt lat="47.915312" lon="15.939315"><name>HOCHZEITSNACHT</name><desc>Hohe Wand | Calimero Wall</desc></wpt>
<wpt lat="47.915312" lon="15.939315"><name>IMMER AUF DIE KLEINEN</name><desc>Hohe Wand | Calimero Wall</desc></wpt>
<wpt lat="47.915312" lon="15.939315"><name>PHOBIKER DER SCHWERKRAFT</name><desc>Hohe Wand | Calimero Wall</desc></wpt>
<wpt lat="47.915312" lon="15.939315"><name>SEKTOR 1: CALIMERO WALL (direkt O DIE WELT IST SO UNGERECHT</name><desc>Hohe Wand | Calimero Wall</desc></wpt>
<wpt lat="47.915312" lon="15.939315"><name>SOWETO</name><desc>Hohe Wand | Calimero Wall</desc></wpt>
<wpt lat="47.915312" lon="15.939315"><name>STEIRISCHE WEINSTRASSE</name><desc>Hohe Wand | Calimero Wall</desc></wpt>
<wpt lat="47.915312" lon="15.939315"><name>STOTINA GODINE</name><desc>Hohe Wand | Calimero Wall</desc></wpt>
<wpt lat="47.915312" lon="15.939315"><name>TRANSKEI</name><desc>Hohe Wand | Calimero Wall</desc></wpt>
<wpt lat="47.915312" lon="15.939315"><name>TROMMELFELL</name><desc>Hohe Wand | Calimero Wall</desc></wpt>
</gpx>
