<?xml version="1.0" encoding="UTF-8"?>
<gpx version="1.1" creator="Vertical Moment" xmlns="http://www.topografix.com/GPX/1/1">
<metadata><name>Hohe Wand | Himmelsfinger/Untere Ostwand</name><desc>GPS data for Vertical Moment master v4. Coordinates derived from OSM (OpenStreetMap, (c) OSM contributors, ODbL 1.0), theCrag, climb.sk, outdooractive, Nominatim and legacy master coords.</desc></metadata>
<wpt lat="48.006783" lon="16.036522"><name>BETTHUPFERL</name><desc>Hohe Wand | Himmelsfinger/Untere Ostwand</desc></wpt>
<wpt lat="48.006783" lon="16.036522"><name>BETTSTEIGERL</name><desc>Hohe Wand | Himmelsfinger/Untere Ostwand</desc></wpt>
<wpt lat="48.006783" lon="16.036522"><name>BUTZ</name><desc>Hohe Wand | Himmelsfinger/Untere Ostwand</desc></wpt>
<wpt lat="48.006783" lon="16.036522"><name>DIREKTER HIMMELSFlNGER</name><desc>Hohe Wand | Himmelsfinger/Untere Ostwand</desc></wpt>
<wpt lat="48.006783" lon="16.036522"><name>HIMMELSLEITER</name><desc>Hohe Wand | Himmelsfinger/Untere Ostwand</desc></wpt>
<wpt lat="48.006783" lon="16.036522"><name>SESAMBRÖTCHEN</name><desc>Hohe Wand | Himmelsfinger/Untere Ostwand</desc></wpt>
</gpx>
