<?xml version="1.0" encoding="UTF-8"?>
<gpx version="1.1" creator="Vertical Moment" xmlns="http://www.topografix.com/GPX/1/1">
<metadata><name>Hohe Wand | Kalkofenwand</name><desc>GPS data for Vertical Moment master v4. Coordinates derived from OSM (OpenStreetMap, (c) OSM contributors, ODbL 1.0), theCrag, climb.sk, outdooractive, Nominatim and legacy master coords.</desc></metadata>
<wpt lat="47.915312" lon="15.939315"><name>AUSWEICHE</name><desc>Hohe Wand | Kalkofenwand</desc></wpt>
<wpt lat="47.915312" lon="15.939315"><name>BLUFF</name><desc>Hohe Wand | Kalkofenwand</desc></wpt>
<wpt lat="47.915312" lon="15.939315"><name>CHALKING HEADS</name><desc>Hohe Wand | Kalkofenwand</desc></wpt>
<wpt lat="47.915312" lon="15.939315"><name>DETAIL-SCHULUNG</name><desc>Hohe Wand | Kalkofenwand</desc></wpt>
<wpt lat="47.915312" lon="15.939315"><name>ERSTES TRAINING</name><desc>Hohe Wand | Kalkofenwand</desc></wpt>
<wpt lat="47.915312" lon="15.939315"><name>FENKANTE</name><desc>Hohe Wand | Kalkofenwand</desc></wpt>
<wpt lat="47.915312" lon="15.939315"><name>FENVERSCHNEIDUNG</name><desc>Hohe Wand | Kalkofenwand</desc></wpt>
<wpt lat="47.915312" lon="15.939315"><name>FRÜH ÜBT SICH</name><desc>Hohe Wand | Kalkofenwand</desc></wpt>
<wpt lat="47.915312" lon="15.939315"><name>FRÜHFOERDERUNG</name><desc>Hohe Wand | Kalkofenwand</desc></wpt>
<wpt lat="47.915312" lon="15.939315"><name>GEHSCHULE</name><desc>Hohe Wand | Kalkofenwand</desc></wpt>
<wpt lat="47.915312" lon="15.939315"><name>KALKBRAND</name><desc>Hohe Wand | Kalkofenwand</desc></wpt>
<wpt lat="47.915312" lon="15.939315"><name>KAMIN-EINSCHULUNG</name><desc>Hohe Wand | Kalkofenwand</desc></wpt>
<wpt lat="47.915312" lon="15.939315"><name>KINDERGARTEN</name><desc>Hohe Wand | Kalkofenwand</desc></wpt>
<wpt lat="47.915312" lon="15.939315"><name>KRABBLPLATTE</name><desc>Hohe Wand | Kalkofenwand</desc></wpt>
<wpt lat="47.915312" lon="15.939315"><name>LEIDER GEIL</name><desc>Hohe Wand | Kalkofenwand</desc></wpt>
<wpt lat="47.915312" lon="15.939315"><name>MAXI</name><desc>Hohe Wand | Kalkofenwand</desc></wpt>
<wpt lat="47.915312" lon="15.939315"><name>NICHTS FÜR KINDER</name><desc>Hohe Wand | Kalkofenwand</desc></wpt>
<wpt lat="47.915312" lon="15.939315"><name>NÖTSCH</name><desc>Hohe Wand | Kalkofenwand</desc></wpt>
<wpt lat="47.915312" lon="15.939315"><name>RISS MIT BISS</name><desc>Hohe Wand | Kalkofenwand</desc></wpt>
<wpt lat="47.915312" lon="15.939315"><name>SCHATTENGRAT</name><desc>Hohe Wand | Kalkofenwand</desc></wpt>
<wpt lat="47.915312" lon="15.939315"><name>SCHINIFIX</name><desc>Hohe Wand | Kalkofenwand</desc></wpt>
<wpt lat="47.915312" lon="15.939315"><name>SCHULREIFE</name><desc>Hohe Wand | Kalkofenwand</desc></wpt>
<wpt lat="47.915312" lon="15.939315"><name>TODESVERSCHNEIDUNG</name><desc>Hohe Wand | Kalkofenwand</desc></wpt>
<wpt lat="47.915312" lon="15.939315"><name>VERBALE BENOTUNG</name><desc>Hohe Wand | Kalkofenwand</desc></wpt>
<wpt lat="47.915312" lon="15.939315"><name>VOLKSSCHULE</name><desc>Hohe Wand | Kalkofenwand</desc></wpt>
</gpx>
