<?xml version="1.0" encoding="UTF-8"?>
<gpx version="1.1" creator="Vertical Moment" xmlns="http://www.topografix.com/GPX/1/1">
<metadata><name>Hohe Wand | Mittlerer/Oberer Nordgrat</name><desc>GPS data for Vertical Moment master v4. Coordinates derived from OSM (OpenStreetMap, (c) OSM contributors, ODbL 1.0), theCrag, climb.sk, outdooractive, Nominatim and legacy master coords.</desc></metadata>
<wpt lat="48.006238" lon="16.033774"><name>"DSUPPORT ACT</name><desc>Hohe Wand | Mittlerer/Oberer Nordgrat</desc></wpt>
<wpt lat="48.006238" lon="16.033774"><name>ABKÜRZUNG</name><desc>Hohe Wand | Mittlerer/Oberer Nordgrat</desc></wpt>
<wpt lat="48.006238" lon="16.033774"><name>CKATZEN, DIE KRATZEN</name><desc>Hohe Wand | Mittlerer/Oberer Nordgrat</desc></wpt>
<wpt lat="48.006238" lon="16.033774"><name>CRUX EINER FREUNDSCHAFT</name><desc>Hohe Wand | Mittlerer/Oberer Nordgrat</desc></wpt>
<wpt lat="48.006238" lon="16.033774"><name>DACHS</name><desc>Hohe Wand | Mittlerer/Oberer Nordgrat</desc></wpt>
<wpt lat="48.006238" lon="16.033774"><name>DACHSBAU</name><desc>Hohe Wand | Mittlerer/Oberer Nordgrat</desc></wpt>
<wpt lat="48.006238" lon="16.033774"><name>FATAL DIAGONAL</name><desc>Hohe Wand | Mittlerer/Oberer Nordgrat</desc></wpt>
<wpt lat="48.006238" lon="16.033774"><name>FINGERSCHMAU</name><desc>Hohe Wand | Mittlerer/Oberer Nordgrat</desc></wpt>
<wpt lat="48.006238" lon="16.033774"><name>FOOLISH</name><desc>Hohe Wand | Mittlerer/Oberer Nordgrat</desc></wpt>
<wpt lat="48.006238" lon="16.033774"><name>GANG</name><desc>Hohe Wand | Mittlerer/Oberer Nordgrat</desc></wpt>
<wpt lat="48.006238" lon="16.033774"><name>HIRNSCHMALZ</name><desc>Hohe Wand | Mittlerer/Oberer Nordgrat</desc></wpt>
<wpt lat="48.006238" lon="16.033774"><name>HÖHUSCH</name><desc>Hohe Wand | Mittlerer/Oberer Nordgrat</desc></wpt>
<wpt lat="48.006238" lon="16.033774"><name>HÖLLISCH</name><desc>Hohe Wand | Mittlerer/Oberer Nordgrat</desc></wpt>
<wpt lat="48.006238" lon="16.033774"><name>INDIANA JONES</name><desc>Hohe Wand | Mittlerer/Oberer Nordgrat</desc></wpt>
<wpt lat="48.006238" lon="16.033774"><name>MEISEN, DIE KREISEN</name><desc>Hohe Wand | Mittlerer/Oberer Nordgrat</desc></wpt>
<wpt lat="48.006238" lon="16.033774"><name>MENTALE PRELLUNG</name><desc>Hohe Wand | Mittlerer/Oberer Nordgrat</desc></wpt>
<wpt lat="48.006238" lon="16.033774"><name>NIMM IHN SCHLECHT</name><desc>Hohe Wand | Mittlerer/Oberer Nordgrat</desc></wpt>
<wpt lat="48.006238" lon="16.033774"><name>SCHADENFREUDIGER DACHS</name><desc>Hohe Wand | Mittlerer/Oberer Nordgrat</desc></wpt>
<wpt lat="48.006238" lon="16.033774"><name>SONDEREINSATZ</name><desc>Hohe Wand | Mittlerer/Oberer Nordgrat</desc></wpt>
<wpt lat="48.006238" lon="16.033774"><name>SPACE COWBOYS</name><desc>Hohe Wand | Mittlerer/Oberer Nordgrat</desc></wpt>
<wpt lat="48.006238" lon="16.033774"><name>SPORTS FOR SPINNERS</name><desc>Hohe Wand | Mittlerer/Oberer Nordgrat</desc></wpt>
<wpt lat="48.006238" lon="16.033774"><name>SPORTS FOR WINNERS</name><desc>Hohe Wand | Mittlerer/Oberer Nordgrat</desc></wpt>
<wpt lat="48.006238" lon="16.033774"><name>STONE HEAD</name><desc>Hohe Wand | Mittlerer/Oberer Nordgrat</desc></wpt>
<wpt lat="48.006238" lon="16.033774"><name>TIEFBLICK ZUM DACHS</name><desc>Hohe Wand | Mittlerer/Oberer Nordgrat</desc></wpt>
<wpt lat="48.006238" lon="16.033774"><name>UND SAMMLER</name><desc>Hohe Wand | Mittlerer/Oberer Nordgrat</desc></wpt>
<wpt lat="48.006238" lon="16.033774"><name>WEIRD NIGHTS</name><desc>Hohe Wand | Mittlerer/Oberer Nordgrat</desc></wpt>
<wpt lat="48.006238" lon="16.033774"><name>WIRD IHNEN DENN</name><desc>Hohe Wand | Mittlerer/Oberer Nordgrat</desc></wpt>
</gpx>
