<?xml version="1.0" encoding="UTF-8"?>
<gpx version="1.1" creator="Vertical Moment" xmlns="http://www.topografix.com/GPX/1/1">
<metadata><name>Hohe Wand | Kulisse</name><desc>GPS data for Vertical Moment master v4. Coordinates derived from OSM (OpenStreetMap, (c) OSM contributors, ODbL 1.0), theCrag, climb.sk, outdooractive, Nominatim and legacy master coords.</desc></metadata>
<wpt lat="47.915312" lon="15.939315"><name>AMASAKE</name><desc>Hohe Wand | Kulisse</desc></wpt>
<wpt lat="47.915312" lon="15.939315"><name>ANARCHOPRAK</name><desc>Hohe Wand | Kulisse</desc></wpt>
<wpt lat="47.915312" lon="15.939315"><name>ARCEO</name><desc>Hohe Wand | Kulisse</desc></wpt>
<wpt lat="47.915312" lon="15.939315"><name>B-BOULDER</name><desc>Hohe Wand | Kulisse</desc></wpt>
<wpt lat="47.915312" lon="15.939315"><name>CHAOSGASSE 92</name><desc>Hohe Wand | Kulisse</desc></wpt>
<wpt lat="47.915312" lon="15.939315"><name>CIERNE DNI</name><desc>Hohe Wand | Kulisse</desc></wpt>
<wpt lat="47.915312" lon="15.939315"><name>FAITES VOUS JEUX</name><desc>Hohe Wand | Kulisse</desc></wpt>
<wpt lat="47.915312" lon="15.939315"><name>HOLDE TÄUSCHUNG</name><desc>Hohe Wand | Kulisse</desc></wpt>
<wpt lat="47.915312" lon="15.939315"><name>JOYFIGHT</name><desc>Hohe Wand | Kulisse</desc></wpt>
<wpt lat="47.915312" lon="15.939315"><name>JOYRIDE</name><desc>Hohe Wand | Kulisse</desc></wpt>
<wpt lat="47.915312" lon="15.939315"><name>LIEBSTLING</name><desc>Hohe Wand | Kulisse</desc></wpt>
<wpt lat="47.915312" lon="15.939315"><name>MACH DICH LEICHT</name><desc>Hohe Wand | Kulisse</desc></wpt>
<wpt lat="47.915312" lon="15.939315"><name>PROCAINE</name><desc>Hohe Wand | Kulisse</desc></wpt>
<wpt lat="47.915312" lon="15.939315"><name>PULVIS ET UMBRA</name><desc>Hohe Wand | Kulisse</desc></wpt>
<wpt lat="47.915312" lon="15.939315"><name>RIGINALEINSTIEG</name><desc>Hohe Wand | Kulisse</desc></wpt>
<wpt lat="47.915312" lon="15.939315"><name>RIGINALTRICK</name><desc>Hohe Wand | Kulisse</desc></wpt>
<wpt lat="47.915312" lon="15.939315"><name>SCHRÄGES GELÄNDE</name><desc>Hohe Wand | Kulisse</desc></wpt>
<wpt lat="47.915312" lon="15.939315"><name>STRENGER AUFRISS</name><desc>Hohe Wand | Kulisse</desc></wpt>
<wpt lat="47.915312" lon="15.939315"><name>VERLÄNGERUNG</name><desc>Hohe Wand | Kulisse</desc></wpt>
<wpt lat="47.915312" lon="15.939315"><name>ZAUBERNUSS</name><desc>Hohe Wand | Kulisse</desc></wpt>
<wpt lat="47.915312" lon="15.939315"><name>ZAUBERNUSSINI</name><desc>Hohe Wand | Kulisse</desc></wpt>
</gpx>
