<?xml version="1.0" encoding="UTF-8"?>
<gpx version="1.1" creator="Vertical Moment" xmlns="http://www.topografix.com/GPX/1/1">
<metadata><name>Hohe Wand | Untere Thalhoferwand</name><desc>GPS data for Vertical Moment master v4. Coordinates derived from OSM (OpenStreetMap, (c) OSM contributors, ODbL 1.0), theCrag, climb.sk, outdooractive, Nominatim and legacy master coords.</desc></metadata>
<wpt lat="48.007285" lon="16.036561"><name>AMADEUS</name><desc>Hohe Wand | Untere Thalhoferwand</desc></wpt>
<wpt lat="48.007285" lon="16.036561"><name>AMERIKA</name><desc>Hohe Wand | Untere Thalhoferwand</desc></wpt>
<wpt lat="48.007285" lon="16.036561"><name>AUF DIE MAUS GEKOMMEN</name><desc>Hohe Wand | Untere Thalhoferwand</desc></wpt>
<wpt lat="48.007285" lon="16.036561"><name>COMING HOME</name><desc>Hohe Wand | Untere Thalhoferwand</desc></wpt>
<wpt lat="48.007285" lon="16.036561"><name>DER KOMMISSAR</name><desc>Hohe Wand | Untere Thalhoferwand</desc></wpt>
<wpt lat="48.007285" lon="16.036561"><name>DON ALBATROS</name><desc>Hohe Wand | Untere Thalhoferwand</desc></wpt>
<wpt lat="48.007285" lon="16.036561"><name>DON CARLOS</name><desc>Hohe Wand | Untere Thalhoferwand</desc></wpt>
<wpt lat="48.007285" lon="16.036561"><name>DON ROBERTO</name><desc>Hohe Wand | Untere Thalhoferwand</desc></wpt>
<wpt lat="48.007285" lon="16.036561"><name>DON ROSL</name><desc>Hohe Wand | Untere Thalhoferwand</desc></wpt>
<wpt lat="48.007285" lon="16.036561"><name>EINE KUH-</name><desc>Hohe Wand | Untere Thalhoferwand</desc></wpt>
<wpt lat="48.007285" lon="16.036561"><name>FALCO LIVE</name><desc>Hohe Wand | Untere Thalhoferwand</desc></wpt>
<wpt lat="48.007285" lon="16.036561"><name>GOTTARDI Riss</name><desc>Hohe Wand | Untere Thalhoferwand</desc></wpt>
<wpt lat="48.007285" lon="16.036561"><name>HULMEISTER</name><desc>Hohe Wand | Untere Thalhoferwand</desc></wpt>
<wpt lat="48.007285" lon="16.036561"><name>JEANNY</name><desc>Hohe Wand | Untere Thalhoferwand</desc></wpt>
<wpt lat="48.007285" lon="16.036561"><name>KUH ROSL</name><desc>Hohe Wand | Untere Thalhoferwand</desc></wpt>
<wpt lat="48.007285" lon="16.036561"><name>MIT NEUER KRAFT</name><desc>Hohe Wand | Untere Thalhoferwand</desc></wpt>
<wpt lat="48.007285" lon="16.036561"><name>MORGENGRAUEN</name><desc>Hohe Wand | Untere Thalhoferwand</desc></wpt>
<wpt lat="48.007285" lon="16.036561"><name>MORGENTAU</name><desc>Hohe Wand | Untere Thalhoferwand</desc></wpt>
<wpt lat="48.007285" lon="16.036561"><name>MÄUSEFALLE</name><desc>Hohe Wand | Untere Thalhoferwand</desc></wpt>
<wpt lat="48.007285" lon="16.036561"><name>MÄUSEFUTTER</name><desc>Hohe Wand | Untere Thalhoferwand</desc></wpt>
<wpt lat="48.007285" lon="16.036561"><name>MÄUSEHOCHZEIT</name><desc>Hohe Wand | Untere Thalhoferwand</desc></wpt>
<wpt lat="48.007285" lon="16.036561"><name>MÄUSEJAGD</name><desc>Hohe Wand | Untere Thalhoferwand</desc></wpt>
<wpt lat="48.007285" lon="16.036561"><name>MÄUSEKÖNIG</name><desc>Hohe Wand | Untere Thalhoferwand</desc></wpt>
<wpt lat="48.007285" lon="16.036561"><name>RATATOUILLE VERSCHNEIDUNG</name><desc>Hohe Wand | Untere Thalhoferwand</desc></wpt>
<wpt lat="48.007285" lon="16.036561"><name>SAURER REGEN</name><desc>Hohe Wand | Untere Thalhoferwand</desc></wpt>
<wpt lat="48.007285" lon="16.036561"><name>ÖKOPOLI</name><desc>Hohe Wand | Untere Thalhoferwand</desc></wpt>
</gpx>
