<?xml version="1.0" encoding="UTF-8"?>
<gpx version="1.1" creator="Vertical Moment" xmlns="http://www.topografix.com/GPX/1/1">
<metadata><name>Hohe Wand | Shadow Wall</name><desc>GPS data for Vertical Moment master v4. Coordinates derived from OSM (OpenStreetMap, (c) OSM contributors, ODbL 1.0), theCrag, climb.sk, outdooractive, Nominatim and legacy master coords.</desc></metadata>
<wpt lat="47.915312" lon="15.939315"><name>BALANCE OF POWER</name><desc>Hohe Wand | Shadow Wall</desc></wpt>
<wpt lat="47.915312" lon="15.939315"><name>SCHATTENDASEIN</name><desc>Hohe Wand | Shadow Wall</desc></wpt>
<wpt lat="47.915312" lon="15.939315"><name>SCHATTENSPENDER</name><desc>Hohe Wand | Shadow Wall</desc></wpt>
<wpt lat="47.915312" lon="15.939315"><name>SCHATTENSPIELE</name><desc>Hohe Wand | Shadow Wall</desc></wpt>
<wpt lat="47.915312" lon="15.939315"><name>SHADOW ON THE WALL</name><desc>Hohe Wand | Shadow Wall</desc></wpt>
</gpx>
