<?xml version="1.0" encoding="UTF-8"?>
<gpx version="1.1" creator="Vertical Moment" xmlns="http://www.topografix.com/GPX/1/1">
<metadata><name>Hohe Wand | Strassenwand</name><desc>GPS data for Vertical Moment master v4. Coordinates derived from OSM (OpenStreetMap, (c) OSM contributors, ODbL 1.0), theCrag, climb.sk, outdooractive, Nominatim and legacy master coords.</desc></metadata>
<wpt lat="47.8284688" lon="16.047321"><name>CRISIS</name><desc>Hohe Wand | Strassenwand</desc></wpt>
<wpt lat="47.8284688" lon="16.047321"><name>DER STÜMPER</name><desc>Hohe Wand | Strassenwand</desc></wpt>
<wpt lat="47.8284688" lon="16.047321"><name>DIREINSTIEG</name><desc>Hohe Wand | Strassenwand</desc></wpt>
<wpt lat="47.8284688" lon="16.047321"><name>EICHENLAUB</name><desc>Hohe Wand | Strassenwand</desc></wpt>
<wpt lat="47.8284688" lon="16.047321"><name>GOSPUT</name><desc>Hohe Wand | Strassenwand</desc></wpt>
<wpt lat="47.8284688" lon="16.047321"><name>HAMMERSTURM</name><desc>Hohe Wand | Strassenwand</desc></wpt>
<wpt lat="47.8284688" lon="16.047321"><name>HEIDI HETZER</name><desc>Hohe Wand | Strassenwand</desc></wpt>
<wpt lat="47.8284688" lon="16.047321"><name>HELLY HANNSEN</name><desc>Hohe Wand | Strassenwand</desc></wpt>
<wpt lat="47.8284688" lon="16.047321"><name>IMMER VORWÄRTS</name><desc>Hohe Wand | Strassenwand</desc></wpt>
<wpt lat="47.8284688" lon="16.047321"><name>LAND DER LAUSBUBEN</name><desc>Hohe Wand | Strassenwand</desc></wpt>
<wpt lat="47.8284688" lon="16.047321"><name>LAUSBUBENRISS</name><desc>Hohe Wand | Strassenwand</desc></wpt>
<wpt lat="47.8284688" lon="16.047321"><name>LOCK UP</name><desc>Hohe Wand | Strassenwand</desc></wpt>
<wpt lat="47.8284688" lon="16.047321"><name>MORBUS 68</name><desc>Hohe Wand | Strassenwand</desc></wpt>
<wpt lat="47.8284688" lon="16.047321"><name>MUSIKANTENSTADL</name><desc>Hohe Wand | Strassenwand</desc></wpt>
<wpt lat="47.8284688" lon="16.047321"><name>MÜLLERRISS</name><desc>Hohe Wand | Strassenwand</desc></wpt>
<wpt lat="47.8284688" lon="16.047321"><name>PERSONA NON GRATA</name><desc>Hohe Wand | Strassenwand</desc></wpt>
<wpt lat="47.8284688" lon="16.047321"><name>PO BLUTMAUER</name><desc>Hohe Wand | Strassenwand</desc></wpt>
<wpt lat="47.8284688" lon="16.047321"><name>REIN ODER NEIN</name><desc>Hohe Wand | Strassenwand</desc></wpt>
<wpt lat="47.8284688" lon="16.047321"><name>ROOM TO MOVE</name><desc>Hohe Wand | Strassenwand</desc></wpt>
<wpt lat="47.8284688" lon="16.047321"><name>RUHELOS</name><desc>Hohe Wand | Strassenwand</desc></wpt>
<wpt lat="47.8284688" lon="16.047321"><name>RUHIG BLUT</name><desc>Hohe Wand | Strassenwand</desc></wpt>
<wpt lat="47.8284688" lon="16.047321"><name>SCHWEINSGALOPP</name><desc>Hohe Wand | Strassenwand</desc></wpt>
<wpt lat="47.8284688" lon="16.047321"><name>SPHYNX</name><desc>Hohe Wand | Strassenwand</desc></wpt>
<wpt lat="47.8284688" lon="16.047321"><name>STONEOFFICE</name><desc>Hohe Wand | Strassenwand</desc></wpt>
<wpt lat="47.8284688" lon="16.047321"><name>UNG TUMB TUMB</name><desc>Hohe Wand | Strassenwand</desc></wpt>
<wpt lat="47.8284688" lon="16.047321"><name>ZUGANG: Kurz Hohe Wand- OPUCHBERGER PRÄSENT</name><desc>Hohe Wand | Strassenwand</desc></wpt>
<wpt lat="47.8284688" lon="16.047321"><name>ZWEI BOMBEN MEHR</name><desc>Hohe Wand | Strassenwand</desc></wpt>
<wpt lat="47.8284688" lon="16.047321"><name>«g OSPÄTLESE</name><desc>Hohe Wand | Strassenwand</desc></wpt>
</gpx>
