<?xml version="1.0" encoding="UTF-8"?>
<gpx version="1.1" creator="Vertical Moment" xmlns="http://www.topografix.com/GPX/1/1">
<metadata><name>Hohe Wand | Prinzwiesentuerme</name><desc>GPS data for Vertical Moment master v4. Coordinates derived from OSM (OpenStreetMap, (c) OSM contributors, ODbL 1.0), theCrag, climb.sk, outdooractive, Nominatim and legacy master coords.</desc></metadata>
<wpt lat="47.991869" lon="15.960178"><name>ERDVERWACHSEN</name><desc>Hohe Wand | Prinzwiesentuerme</desc></wpt>
<wpt lat="47.991869" lon="15.960178"><name>GIPFEL DER FRECHHEIT</name><desc>Hohe Wand | Prinzwiesentuerme</desc></wpt>
<wpt lat="47.991869" lon="15.960178"><name>HEIMATLEUCHTEN</name><desc>Hohe Wand | Prinzwiesentuerme</desc></wpt>
<wpt lat="47.991869" lon="15.960178"><name>HOAGASCHT</name><desc>Hohe Wand | Prinzwiesentuerme</desc></wpt>
<wpt lat="47.991869" lon="15.960178"><name>S@EIGENBRÖTLER</name><desc>Hohe Wand | Prinzwiesentuerme</desc></wpt>
<wpt lat="47.991869" lon="15.960178"><name>SCHEINHEIUGTUM</name><desc>Hohe Wand | Prinzwiesentuerme</desc></wpt>
<wpt lat="47.991869" lon="15.960178"><name>STURMFEST</name><desc>Hohe Wand | Prinzwiesentuerme</desc></wpt>
<wpt lat="47.991869" lon="15.960178"><name>WENDEHALS</name><desc>Hohe Wand | Prinzwiesentuerme</desc></wpt>
</gpx>
