<?xml version="1.0" encoding="UTF-8"?>
<gpx version="1.1" creator="Vertical Moment" xmlns="http://www.topografix.com/GPX/1/1">
<metadata><name>Hohe Wand | Naglplatten</name><desc>GPS data for Vertical Moment master v4. Coordinates derived from OSM (OpenStreetMap, (c) OSM contributors, ODbL 1.0), theCrag, climb.sk, outdooractive, Nominatim and legacy master coords.</desc></metadata>
<wpt lat="47.810895" lon="16.016873"><name>ALTE NEUE DIREKTE</name><desc>Hohe Wand | Naglplatten</desc></wpt>
<wpt lat="47.810895" lon="16.016873"><name>ANWANDLER</name><desc>Hohe Wand | Naglplatten</desc></wpt>
<wpt lat="47.810895" lon="16.016873"><name>AUSSTIEG</name><desc>Hohe Wand | Naglplatten</desc></wpt>
<wpt lat="47.810895" lon="16.016873"><name>BERE NAG LUNTE</name><desc>Hohe Wand | Naglplatten</desc></wpt>
<wpt lat="47.810895" lon="16.016873"><name>BIBI BLOCKSBERG</name><desc>Hohe Wand | Naglplatten</desc></wpt>
<wpt lat="47.810895" lon="16.016873"><name>CHAOS DIREKT</name><desc>Hohe Wand | Naglplatten</desc></wpt>
<wpt lat="47.810895" lon="16.016873"><name>DER EIERMANN</name><desc>Hohe Wand | Naglplatten</desc></wpt>
<wpt lat="47.810895" lon="16.016873"><name>DIREKTEINSTIEG</name><desc>Hohe Wand | Naglplatten</desc></wpt>
<wpt lat="47.810895" lon="16.016873"><name>DIRTY</name><desc>Hohe Wand | Naglplatten</desc></wpt>
<wpt lat="47.810895" lon="16.016873"><name>EILE MIT WEILE</name><desc>Hohe Wand | Naglplatten</desc></wpt>
<wpt lat="47.810895" lon="16.016873"><name>ELFISTEIG</name><desc>Hohe Wand | Naglplatten</desc></wpt>
<wpt lat="47.810895" lon="16.016873"><name>FENSTERLGALERIE</name><desc>Hohe Wand | Naglplatten</desc></wpt>
<wpt lat="47.810895" lon="16.016873"><name>HEIMATTREU</name><desc>Hohe Wand | Naglplatten</desc></wpt>
<wpt lat="47.810895" lon="16.016873"><name>HEUSTEIG</name><desc>Hohe Wand | Naglplatten</desc></wpt>
<wpt lat="47.810895" lon="16.016873"><name>HÖHLENQUERUNG</name><desc>Hohe Wand | Naglplatten</desc></wpt>
<wpt lat="47.810895" lon="16.016873"><name>HÖHLENUNFUG</name><desc>Hohe Wand | Naglplatten</desc></wpt>
<wpt lat="47.810895" lon="16.016873"><name>NAGLVERSCHNEIDUNG</name><desc>Hohe Wand | Naglplatten</desc></wpt>
<wpt lat="47.810895" lon="16.016873"><name>NEUE ELF'</name><desc>Hohe Wand | Naglplatten</desc></wpt>
<wpt lat="47.810895" lon="16.016873"><name>PEN WINDOW</name><desc>Hohe Wand | Naglplatten</desc></wpt>
<wpt lat="47.810895" lon="16.016873"><name>PLATTENABSCHIED</name><desc>Hohe Wand | Naglplatten</desc></wpt>
<wpt lat="47.810895" lon="16.016873"><name>PUPPISTEIG</name><desc>Hohe Wand | Naglplatten</desc></wpt>
<wpt lat="47.810895" lon="16.016873"><name>SCHACKLTOUR</name><desc>Hohe Wand | Naglplatten</desc></wpt>
<wpt lat="47.810895" lon="16.016873"><name>SCHANDWACHE</name><desc>Hohe Wand | Naglplatten</desc></wpt>
<wpt lat="47.810895" lon="16.016873"><name>SIMEKTOUR</name><desc>Hohe Wand | Naglplatten</desc></wpt>
<wpt lat="47.810895" lon="16.016873"><name>STURZ-AUSSTIEG</name><desc>Hohe Wand | Naglplatten</desc></wpt>
<wpt lat="47.810895" lon="16.016873"><name>TOCOTRONIC</name><desc>Hohe Wand | Naglplatten</desc></wpt>
<wpt lat="47.810895" lon="16.016873"><name>UNTERE NAGLK.ANTE</name><desc>Hohe Wand | Naglplatten</desc></wpt>
<wpt lat="47.810895" lon="16.016873"><name>UNTERE NAGLPLATTE</name><desc>Hohe Wand | Naglplatten</desc></wpt>
<wpt lat="47.810895" lon="16.016873"><name>«r@DYNAMlSlERT</name><desc>Hohe Wand | Naglplatten</desc></wpt>
</gpx>
