<?xml version="1.0" encoding="UTF-8"?>
<gpx version="1.1" creator="Vertical Moment" xmlns="http://www.topografix.com/GPX/1/1">
<metadata><name>Hohe Wand | Links aussen</name><desc>GPS data for Vertical Moment master v4. Coordinates derived from OSM (OpenStreetMap, (c) OSM contributors, ODbL 1.0), theCrag, climb.sk, outdooractive, Nominatim and legacy master coords.</desc></metadata>
<wpt lat="47.915312" lon="15.939315"><name>BAD BOY BOOGIE</name><desc>Hohe Wand | Links aussen</desc></wpt>
<wpt lat="47.915312" lon="15.939315"><name>BRÖSELMAIER</name><desc>Hohe Wand | Links aussen</desc></wpt>
<wpt lat="47.915312" lon="15.939315"><name>CCENTURIO</name><desc>Hohe Wand | Links aussen</desc></wpt>
<wpt lat="47.915312" lon="15.939315"><name>CURETTAGE A VIF</name><desc>Hohe Wand | Links aussen</desc></wpt>
<wpt lat="47.915312" lon="15.939315"><name>GOMPHIDIUS</name><desc>Hohe Wand | Links aussen</desc></wpt>
<wpt lat="47.915312" lon="15.939315"><name>GRANTIG KANTIG</name><desc>Hohe Wand | Links aussen</desc></wpt>
<wpt lat="47.915312" lon="15.939315"><name>HENKELVERSPRECHUNG</name><desc>Hohe Wand | Links aussen</desc></wpt>
<wpt lat="47.915312" lon="15.939315"><name>IMMER NUR LÄCHELN</name><desc>Hohe Wand | Links aussen</desc></wpt>
<wpt lat="47.915312" lon="15.939315"><name>JÄGERMEISTERKAMIN</name><desc>Hohe Wand | Links aussen</desc></wpt>
<wpt lat="47.915312" lon="15.939315"><name>KLASSISCHER RISS</name><desc>Hohe Wand | Links aussen</desc></wpt>
<wpt lat="47.915312" lon="15.939315"><name>LES PETITS RIENS</name><desc>Hohe Wand | Links aussen</desc></wpt>
<wpt lat="47.915312" lon="15.939315"><name>MORIA</name><desc>Hohe Wand | Links aussen</desc></wpt>
<wpt lat="47.915312" lon="15.939315"><name>NICHT MEIN PROBLEM</name><desc>Hohe Wand | Links aussen</desc></wpt>
<wpt lat="47.915312" lon="15.939315"><name>RIESENKAMIN</name><desc>Hohe Wand | Links aussen</desc></wpt>
<wpt lat="47.915312" lon="15.939315"><name>SAND IN SICHT</name><desc>Hohe Wand | Links aussen</desc></wpt>
<wpt lat="47.915312" lon="15.939315"><name>SCHARFE SACHE</name><desc>Hohe Wand | Links aussen</desc></wpt>
<wpt lat="47.915312" lon="15.939315"><name>SCHERZPFEIFERL</name><desc>Hohe Wand | Links aussen</desc></wpt>
<wpt lat="47.915312" lon="15.939315"><name>SEMIROUGH</name><desc>Hohe Wand | Links aussen</desc></wpt>
<wpt lat="47.915312" lon="15.939315"><name>SINGT MIR EIN UED</name><desc>Hohe Wand | Links aussen</desc></wpt>
<wpt lat="47.915312" lon="15.939315"><name>SONNENDIAGONALE</name><desc>Hohe Wand | Links aussen</desc></wpt>
<wpt lat="47.915312" lon="15.939315"><name>STERNSCHNUPPERER</name><desc>Hohe Wand | Links aussen</desc></wpt>
<wpt lat="47.915312" lon="15.939315"><name>STERNSCHNUPPERER I.SL</name><desc>Hohe Wand | Links aussen</desc></wpt>
<wpt lat="47.915312" lon="15.939315"><name>VIVANT SEQUENTES</name><desc>Hohe Wand | Links aussen</desc></wpt>
<wpt lat="47.915312" lon="15.939315"><name>ZWERGENFALLE</name><desc>Hohe Wand | Links aussen</desc></wpt>
</gpx>
