<?xml version="1.0" encoding="UTF-8"?>
<gpx version="1.1" creator="Vertical Moment" xmlns="http://www.topografix.com/GPX/1/1">
<metadata><name>Hohe Wand | Woellersdorf Hart</name><desc>GPS data for Vertical Moment master v4. Coordinates derived from OSM (OpenStreetMap, (c) OSM contributors, ODbL 1.0), theCrag, climb.sk, outdooractive, Nominatim and legacy master coords.</desc></metadata>
<wpt lat="47.874466" lon="16.155979"><name>A PLEASURE</name><desc>Hohe Wand | Woellersdorf Hart</desc></wpt>
<wpt lat="47.874466" lon="16.155979"><name>BEVERLY HILLS</name><desc>Hohe Wand | Woellersdorf Hart</desc></wpt>
<wpt lat="47.874466" lon="16.155979"><name>BIEDE GSCHICHT</name><desc>Hohe Wand | Woellersdorf Hart</desc></wpt>
<wpt lat="47.874466" lon="16.155979"><name>BIMBULLI</name><desc>Hohe Wand | Woellersdorf Hart</desc></wpt>
<wpt lat="47.874466" lon="16.155979"><name>CHIEMSEE</name><desc>Hohe Wand | Woellersdorf Hart</desc></wpt>
<wpt lat="47.874466" lon="16.155979"><name>CONFETTI SHOW</name><desc>Hohe Wand | Woellersdorf Hart</desc></wpt>
<wpt lat="47.874466" lon="16.155979"><name>DAS KNIE IST HIE</name><desc>Hohe Wand | Woellersdorf Hart</desc></wpt>
<wpt lat="47.874466" lon="16.155979"><name>FISTFUL OF POWER</name><desc>Hohe Wand | Woellersdorf Hart</desc></wpt>
<wpt lat="47.874466" lon="16.155979"><name>FUCK THE ARMY</name><desc>Hohe Wand | Woellersdorf Hart</desc></wpt>
<wpt lat="47.874466" lon="16.155979"><name>HAWAI</name><desc>Hohe Wand | Woellersdorf Hart</desc></wpt>
<wpt lat="47.874466" lon="16.155979"><name>HAWAR</name><desc>Hohe Wand | Woellersdorf Hart</desc></wpt>
<wpt lat="47.874466" lon="16.155979"><name>HE NOSE</name><desc>Hohe Wand | Woellersdorf Hart</desc></wpt>
<wpt lat="47.874466" lon="16.155979"><name>HOLLYWOOD</name><desc>Hohe Wand | Woellersdorf Hart</desc></wpt>
<wpt lat="47.874466" lon="16.155979"><name>HÖHLENBÄR</name><desc>Hohe Wand | Woellersdorf Hart</desc></wpt>
<wpt lat="47.874466" lon="16.155979"><name>IL GUFO</name><desc>Hohe Wand | Woellersdorf Hart</desc></wpt>
<wpt lat="47.874466" lon="16.155979"><name>KASPERLTHEATER</name><desc>Hohe Wand | Woellersdorf Hart</desc></wpt>
<wpt lat="47.874466" lon="16.155979"><name>KINDERWAND: Etwa IOOm rechts HALLOKlTTY</name><desc>Hohe Wand | Woellersdorf Hart</desc></wpt>
<wpt lat="47.874466" lon="16.155979"><name>MATURA</name><desc>Hohe Wand | Woellersdorf Hart</desc></wpt>
<wpt lat="47.874466" lon="16.155979"><name>NEUTOUR ca</name><desc>Hohe Wand | Woellersdorf Hart</desc></wpt>
<wpt lat="47.874466" lon="16.155979"><name>P EBENE</name><desc>Hohe Wand | Woellersdorf Hart</desc></wpt>
<wpt lat="47.874466" lon="16.155979"><name>VOLLRAUSCH</name><desc>Hohe Wand | Woellersdorf Hart</desc></wpt>
<wpt lat="47.874466" lon="16.155979"><name>WEPSENSTICH</name><desc>Hohe Wand | Woellersdorf Hart</desc></wpt>
<wpt lat="47.874466" lon="16.155979"><name>WICKIE</name><desc>Hohe Wand | Woellersdorf Hart</desc></wpt>
<wpt lat="47.874466" lon="16.155979"><name>WIZO</name><desc>Hohe Wand | Woellersdorf Hart</desc></wpt>
</gpx>
