<?xml version="1.0" encoding="UTF-8"?>
<gpx version="1.1" creator="Vertical Moment" xmlns="http://www.topografix.com/GPX/1/1">
<metadata><name>Hohe Wand | Unterer Almfrieden</name><desc>GPS data for Vertical Moment master v4. Coordinates derived from OSM (OpenStreetMap, (c) OSM contributors, ODbL 1.0), theCrag, climb.sk, outdooractive, Nominatim and legacy master coords.</desc></metadata>
<wpt lat="47.835046" lon="16.055602"><name>ARKTISCHER STURM</name><desc>Hohe Wand | Unterer Almfrieden</desc></wpt>
<wpt lat="47.835046" lon="16.055602"><name>BAT BITCH</name><desc>Hohe Wand | Unterer Almfrieden</desc></wpt>
<wpt lat="47.835046" lon="16.055602"><name>CONDORMAN</name><desc>Hohe Wand | Unterer Almfrieden</desc></wpt>
<wpt lat="47.835046" lon="16.055602"><name>FLUG DES KOLIBRI</name><desc>Hohe Wand | Unterer Almfrieden</desc></wpt>
<wpt lat="47.835046" lon="16.055602"><name>FROSCHKÖNIG</name><desc>Hohe Wand | Unterer Almfrieden</desc></wpt>
<wpt lat="47.835046" lon="16.055602"><name>GUT DING BRAUCHT WEILE</name><desc>Hohe Wand | Unterer Almfrieden</desc></wpt>
<wpt lat="47.835046" lon="16.055602"><name>IM REGENWALD</name><desc>Hohe Wand | Unterer Almfrieden</desc></wpt>
<wpt lat="47.835046" lon="16.055602"><name>IM SCHATTEN DES SEQUOIA</name><desc>Hohe Wand | Unterer Almfrieden</desc></wpt>
<wpt lat="47.835046" lon="16.055602"><name>MÄRCHENPRINZ</name><desc>Hohe Wand | Unterer Almfrieden</desc></wpt>
<wpt lat="47.835046" lon="16.055602"><name>NAMENLOS</name><desc>Hohe Wand | Unterer Almfrieden</desc></wpt>
<wpt lat="47.835046" lon="16.055602"><name>TURBO DIESEL</name><desc>Hohe Wand | Unterer Almfrieden</desc></wpt>
<wpt lat="47.835046" lon="16.055602"><name>YOPAPAMOBIL</name><desc>Hohe Wand | Unterer Almfrieden</desc></wpt>
<wpt lat="47.835046" lon="16.055602"><name>ZWERGNASE</name><desc>Hohe Wand | Unterer Almfrieden</desc></wpt>
<wpt lat="47.835046" lon="16.055602"><name>ZWIELICHTIG</name><desc>Hohe Wand | Unterer Almfrieden</desc></wpt>
<wpt lat="47.835046" lon="16.055602"><name>ÖKO HANF</name><desc>Hohe Wand | Unterer Almfrieden</desc></wpt>
</gpx>
