<?xml version="1.0" encoding="UTF-8"?>
<gpx version="1.1" creator="Vertical Moment" xmlns="http://www.topografix.com/GPX/1/1">
<metadata><name>Hohe Wand | Rechts aussen</name><desc>GPS data for Vertical Moment master v4. Coordinates derived from OSM (OpenStreetMap, (c) OSM contributors, ODbL 1.0), theCrag, climb.sk, outdooractive, Nominatim and legacy master coords.</desc></metadata>
<wpt lat="48.028694" lon="16.065213"><name>DIREKTER OSTGRAT</name><desc>Hohe Wand | Rechts aussen</desc></wpt>
<wpt lat="48.028694" lon="16.065213"><name>EINTRITT FREI</name><desc>Hohe Wand | Rechts aussen</desc></wpt>
<wpt lat="48.028694" lon="16.065213"><name>SKIDROAD</name><desc>Hohe Wand | Rechts aussen</desc></wpt>
<wpt lat="48.028694" lon="16.065213"><name>SUNSET BOULEVARD</name><desc>Hohe Wand | Rechts aussen</desc></wpt>
<wpt lat="48.028694" lon="16.065213"><name>UT ALIQUOD FIAT</name><desc>Hohe Wand | Rechts aussen</desc></wpt>
</gpx>
