<?xml version="1.0" encoding="UTF-8"?>
<gpx version="1.1" creator="Vertical Moment" xmlns="http://www.topografix.com/GPX/1/1">
<metadata><name>Hohe Wand | Holzschlag</name><desc>GPS data for Vertical Moment master v4. Coordinates derived from OSM (OpenStreetMap, (c) OSM contributors, ODbL 1.0), theCrag, climb.sk, outdooractive, Nominatim and legacy master coords.</desc></metadata>
<wpt lat="48.022162" lon="16.056349"><name>ABSOLUTION</name><desc>Hohe Wand | Holzschlag</desc></wpt>
<wpt lat="48.022162" lon="16.056349"><name>APOKALYPS NOW</name><desc>Hohe Wand | Holzschlag</desc></wpt>
<wpt lat="48.022162" lon="16.056349"><name>AUSWEICHE</name><desc>Hohe Wand | Holzschlag</desc></wpt>
<wpt lat="48.022162" lon="16.056349"><name>BRAZIL</name><desc>Hohe Wand | Holzschlag</desc></wpt>
<wpt lat="48.022162" lon="16.056349"><name>BUSSGELD</name><desc>Hohe Wand | Holzschlag</desc></wpt>
<wpt lat="48.022162" lon="16.056349"><name>CUCKLESS 1</name><desc>Hohe Wand | Holzschlag</desc></wpt>
<wpt lat="48.022162" lon="16.056349"><name>DAMOKLES BLÖCKE</name><desc>Hohe Wand | Holzschlag</desc></wpt>
<wpt lat="48.022162" lon="16.056349"><name>DARIN</name><desc>Hohe Wand | Holzschlag</desc></wpt>
<wpt lat="48.022162" lon="16.056349"><name>DAWN WALL</name><desc>Hohe Wand | Holzschlag</desc></wpt>
<wpt lat="48.022162" lon="16.056349"><name>DER SCHMALE GUT</name><desc>Hohe Wand | Holzschlag</desc></wpt>
<wpt lat="48.022162" lon="16.056349"><name>DOPE CRACK</name><desc>Hohe Wand | Holzschlag</desc></wpt>
<wpt lat="48.022162" lon="16.056349"><name>EIN ABSOLUTES MUSS</name><desc>Hohe Wand | Holzschlag</desc></wpt>
<wpt lat="48.022162" lon="16.056349"><name>EIN WEITERER SCHRITT</name><desc>Hohe Wand | Holzschlag</desc></wpt>
<wpt lat="48.022162" lon="16.056349"><name>ENERCHI</name><desc>Hohe Wand | Holzschlag</desc></wpt>
<wpt lat="48.022162" lon="16.056349"><name>GEGENWIND</name><desc>Hohe Wand | Holzschlag</desc></wpt>
<wpt lat="48.022162" lon="16.056349"><name>GRENZGANG</name><desc>Hohe Wand | Holzschlag</desc></wpt>
<wpt lat="48.022162" lon="16.056349"><name>JENSEITIG</name><desc>Hohe Wand | Holzschlag</desc></wpt>
<wpt lat="48.022162" lon="16.056349"><name>KILLERKRÄHEN</name><desc>Hohe Wand | Holzschlag</desc></wpt>
<wpt lat="48.022162" lon="16.056349"><name>KLASSISCH</name><desc>Hohe Wand | Holzschlag</desc></wpt>
<wpt lat="48.022162" lon="16.056349"><name>KURZE KANTE</name><desc>Hohe Wand | Holzschlag</desc></wpt>
<wpt lat="48.022162" lon="16.056349"><name>MYSTIC WAY</name><desc>Hohe Wand | Holzschlag</desc></wpt>
<wpt lat="48.022162" lon="16.056349"><name>MÖRDERMÜCKEN</name><desc>Hohe Wand | Holzschlag</desc></wpt>
<wpt lat="48.022162" lon="16.056349"><name>NIX BOULDER</name><desc>Hohe Wand | Holzschlag</desc></wpt>
<wpt lat="48.022162" lon="16.056349"><name>PETER PAN</name><desc>Hohe Wand | Holzschlag</desc></wpt>
<wpt lat="48.022162" lon="16.056349"><name>PLATTENBOULDER</name><desc>Hohe Wand | Holzschlag</desc></wpt>
<wpt lat="48.022162" lon="16.056349"><name>RATS EYES</name><desc>Hohe Wand | Holzschlag</desc></wpt>
<wpt lat="48.022162" lon="16.056349"><name>RATTENSCHWANZ</name><desc>Hohe Wand | Holzschlag</desc></wpt>
<wpt lat="48.022162" lon="16.056349"><name>RISSBOULDER</name><desc>Hohe Wand | Holzschlag</desc></wpt>
<wpt lat="48.022162" lon="16.056349"><name>ROLLERBALL</name><desc>Hohe Wand | Holzschlag</desc></wpt>
<wpt lat="48.022162" lon="16.056349"><name>ROMARIO</name><desc>Hohe Wand | Holzschlag</desc></wpt>
<wpt lat="48.022162" lon="16.056349"><name>RÜCKWAND</name><desc>Hohe Wand | Holzschlag</desc></wpt>
<wpt lat="48.022162" lon="16.056349"><name>SCHLEIMI</name><desc>Hohe Wand | Holzschlag</desc></wpt>
<wpt lat="48.022162" lon="16.056349"><name>SCHMAZO PIAZO</name><desc>Hohe Wand | Holzschlag</desc></wpt>
<wpt lat="48.022162" lon="16.056349"><name>SMOKE CRACK</name><desc>Hohe Wand | Holzschlag</desc></wpt>
<wpt lat="48.022162" lon="16.056349"><name>STONE FREE</name><desc>Hohe Wand | Holzschlag</desc></wpt>
<wpt lat="48.022162" lon="16.056349"><name>TAU FRISCH</name><desc>Hohe Wand | Holzschlag</desc></wpt>
<wpt lat="48.022162" lon="16.056349"><name>THE DAY AFTER</name><desc>Hohe Wand | Holzschlag</desc></wpt>
</gpx>
