<?xml version="1.0" encoding="UTF-8"?>
<gpx version="1.1" creator="Vertical Moment" xmlns="http://www.topografix.com/GPX/1/1">
<metadata><name>Hohe Wand | Messer/Gamshoehlen</name><desc>GPS data for Vertical Moment master v4. Coordinates derived from OSM (OpenStreetMap, (c) OSM contributors, ODbL 1.0), theCrag, climb.sk, outdooractive, Nominatim and legacy master coords.</desc></metadata>
<wpt lat="47.915312" lon="15.939315"><name>CENTERFOLD</name><desc>Hohe Wand | Messer/Gamshoehlen</desc></wpt>
<wpt lat="47.915312" lon="15.939315"><name>DOPINGTEST</name><desc>Hohe Wand | Messer/Gamshoehlen</desc></wpt>
<wpt lat="47.915312" lon="15.939315"><name>ETWAS STUMPF</name><desc>Hohe Wand | Messer/Gamshoehlen</desc></wpt>
<wpt lat="47.915312" lon="15.939315"><name>EXIT</name><desc>Hohe Wand | Messer/Gamshoehlen</desc></wpt>
<wpt lat="47.915312" lon="15.939315"><name>FRISS ODER STIRB</name><desc>Hohe Wand | Messer/Gamshoehlen</desc></wpt>
<wpt lat="47.915312" lon="15.939315"><name>HERR DER RINGE</name><desc>Hohe Wand | Messer/Gamshoehlen</desc></wpt>
<wpt lat="47.915312" lon="15.939315"><name>HOUR OF POWER</name><desc>Hohe Wand | Messer/Gamshoehlen</desc></wpt>
<wpt lat="47.915312" lon="15.939315"><name>LEATHERMAN TOOL</name><desc>Hohe Wand | Messer/Gamshoehlen</desc></wpt>
<wpt lat="47.915312" lon="15.939315"><name>MASTERPIECE</name><desc>Hohe Wand | Messer/Gamshoehlen</desc></wpt>
<wpt lat="47.915312" lon="15.939315"><name>NAMENLOS</name><desc>Hohe Wand | Messer/Gamshoehlen</desc></wpt>
<wpt lat="47.915312" lon="15.939315"><name>RAP THE ROCK</name><desc>Hohe Wand | Messer/Gamshoehlen</desc></wpt>
<wpt lat="47.915312" lon="15.939315"><name>UT BITCH</name><desc>Hohe Wand | Messer/Gamshoehlen</desc></wpt>
</gpx>
