<?xml version="1.0" encoding="UTF-8"?>
<gpx version="1.1" creator="Vertical Moment" xmlns="http://www.topografix.com/GPX/1/1">
<metadata><name>Hohe Wand | Obere Ostwand</name><desc>GPS data for Vertical Moment master v4. Coordinates derived from OSM (OpenStreetMap, (c) OSM contributors, ODbL 1.0), theCrag, climb.sk, outdooractive, Nominatim and legacy master coords.</desc></metadata>
<wpt lat="48.007192" lon="16.03693"><name>A RECHTE VERZWEIFLUNG</name><desc>Hohe Wand | Obere Ostwand</desc></wpt>
<wpt lat="48.007192" lon="16.03693"><name>DIE PERLE DES OSTENS</name><desc>Hohe Wand | Obere Ostwand</desc></wpt>
<wpt lat="48.007192" lon="16.03693"><name>EIN WIXER IN DER ARKTIS</name><desc>Hohe Wand | Obere Ostwand</desc></wpt>
<wpt lat="48.007192" lon="16.03693"><name>EOSTWANDSCHOCKER</name><desc>Hohe Wand | Obere Ostwand</desc></wpt>
<wpt lat="48.007192" lon="16.03693"><name>FELS-STURZ</name><desc>Hohe Wand | Obere Ostwand</desc></wpt>
<wpt lat="48.007192" lon="16.03693"><name>GASTARBEITER</name><desc>Hohe Wand | Obere Ostwand</desc></wpt>
<wpt lat="48.007192" lon="16.03693"><name>GROTTENOLM</name><desc>Hohe Wand | Obere Ostwand</desc></wpt>
<wpt lat="48.007192" lon="16.03693"><name>GRUSELKABlNETr</name><desc>Hohe Wand | Obere Ostwand</desc></wpt>
<wpt lat="48.007192" lon="16.03693"><name>GÄNSEHAUT</name><desc>Hohe Wand | Obere Ostwand</desc></wpt>
<wpt lat="48.007192" lon="16.03693"><name>HOBBY EXTRA</name><desc>Hohe Wand | Obere Ostwand</desc></wpt>
<wpt lat="48.007192" lon="16.03693"><name>LEISTEN-BRUCH</name><desc>Hohe Wand | Obere Ostwand</desc></wpt>
<wpt lat="48.007192" lon="16.03693"><name>NICHTRAUCHERZONE</name><desc>Hohe Wand | Obere Ostwand</desc></wpt>
<wpt lat="48.007192" lon="16.03693"><name>NOTNAGEL</name><desc>Hohe Wand | Obere Ostwand</desc></wpt>
<wpt lat="48.007192" lon="16.03693"><name>SARGNAGEL</name><desc>Hohe Wand | Obere Ostwand</desc></wpt>
<wpt lat="48.007192" lon="16.03693"><name>SKANTELE</name><desc>Hohe Wand | Obere Ostwand</desc></wpt>
<wpt lat="48.007192" lon="16.03693"><name>STAUBWEDEL</name><desc>Hohe Wand | Obere Ostwand</desc></wpt>
<wpt lat="48.007192" lon="16.03693"><name>STERBRATEN</name><desc>Hohe Wand | Obere Ostwand</desc></wpt>
<wpt lat="48.007192" lon="16.03693"><name>STEREI</name><desc>Hohe Wand | Obere Ostwand</desc></wpt>
<wpt lat="48.007192" lon="16.03693"><name>TURMSTEIGVERSCHNEIDUNG</name><desc>Hohe Wand | Obere Ostwand</desc></wpt>
<wpt lat="48.007192" lon="16.03693"><name>• TEAMARBEIT</name><desc>Hohe Wand | Obere Ostwand</desc></wpt>
</gpx>
