<?xml version="1.0" encoding="UTF-8"?>
<gpx version="1.1" creator="Vertical Moment" xmlns="http://www.topografix.com/GPX/1/1">
<metadata><name>Hohe Wand | Schatzinsel</name><desc>GPS data for Vertical Moment master v4. Coordinates derived from OSM (OpenStreetMap, (c) OSM contributors, ODbL 1.0), theCrag, climb.sk, outdooractive, Nominatim and legacy master coords.</desc></metadata>
<wpt lat="47.849081" lon="16.079012"><name>BOANDLKRAMER</name><desc>Hohe Wand | Schatzinsel</desc></wpt>
<wpt lat="47.849081" lon="16.079012"><name>DEI THAI</name><desc>Hohe Wand | Schatzinsel</desc></wpt>
<wpt lat="47.849081" lon="16.079012"><name>DIE GEIER</name><desc>Hohe Wand | Schatzinsel</desc></wpt>
<wpt lat="47.849081" lon="16.079012"><name>HALTEN</name><desc>Hohe Wand | Schatzinsel</desc></wpt>
<wpt lat="47.849081" lon="16.079012"><name>JUMPING AROUND</name><desc>Hohe Wand | Schatzinsel</desc></wpt>
<wpt lat="47.849081" lon="16.079012"><name>KÅPTN IGLO</name><desc>Hohe Wand | Schatzinsel</desc></wpt>
<wpt lat="47.849081" lon="16.079012"><name>LA GRANDE FIN</name><desc>Hohe Wand | Schatzinsel</desc></wpt>
<wpt lat="47.849081" lon="16.079012"><name>LA VIE EN ROSE</name><desc>Hohe Wand | Schatzinsel</desc></wpt>
<wpt lat="47.849081" lon="16.079012"><name>MOZZIES LIVE</name><desc>Hohe Wand | Schatzinsel</desc></wpt>
<wpt lat="47.849081" lon="16.079012"><name>NAMENLOS</name><desc>Hohe Wand | Schatzinsel</desc></wpt>
<wpt lat="47.849081" lon="16.079012"><name>PHÖNIX AUS DER ASCHE</name><desc>Hohe Wand | Schatzinsel</desc></wpt>
<wpt lat="47.849081" lon="16.079012"><name>ROLLIN ON CHROME</name><desc>Hohe Wand | Schatzinsel</desc></wpt>
<wpt lat="47.849081" lon="16.079012"><name>TANZ DER SCHATTEN</name><desc>Hohe Wand | Schatzinsel</desc></wpt>
<wpt lat="47.849081" lon="16.079012"><name>TAT TWAM ASI</name><desc>Hohe Wand | Schatzinsel</desc></wpt>
<wpt lat="47.849081" lon="16.079012"><name>THE LOST WORLD</name><desc>Hohe Wand | Schatzinsel</desc></wpt>
<wpt lat="47.849081" lon="16.079012"><name>TOTENTANZ</name><desc>Hohe Wand | Schatzinsel</desc></wpt>
</gpx>
