<?xml version="1.0" encoding="UTF-8"?>
<gpx version="1.1" creator="Vertical Moment" xmlns="http://www.topografix.com/GPX/1/1">
<metadata><name>Hohe Wand | Kraftwand</name><desc>GPS data for Vertical Moment master v4. Coordinates derived from OSM (OpenStreetMap, (c) OSM contributors, ODbL 1.0), theCrag, climb.sk, outdooractive, Nominatim and legacy master coords.</desc></metadata>
<wpt lat="47.915312" lon="15.939315"><name>A Riss DER KANA IS</name><desc>Hohe Wand | Kraftwand</desc></wpt>
<wpt lat="47.915312" lon="15.939315"><name>ARMAROCK</name><desc>Hohe Wand | Kraftwand</desc></wpt>
<wpt lat="47.915312" lon="15.939315"><name>MEERSCHWEINE</name><desc>Hohe Wand | Kraftwand</desc></wpt>
<wpt lat="47.915312" lon="15.939315"><name>MUGGENDANCE</name><desc>Hohe Wand | Kraftwand</desc></wpt>
<wpt lat="47.915312" lon="15.939315"><name>NICHT WARUM FRAGEN</name><desc>Hohe Wand | Kraftwand</desc></wpt>
<wpt lat="47.915312" lon="15.939315"><name>NO PAIN NO GAME</name><desc>Hohe Wand | Kraftwand</desc></wpt>
<wpt lat="47.915312" lon="15.939315"><name>PE JING EXPRESS</name><desc>Hohe Wand | Kraftwand</desc></wpt>
<wpt lat="47.915312" lon="15.939315"><name>POWER CONTROL</name><desc>Hohe Wand | Kraftwand</desc></wpt>
<wpt lat="47.915312" lon="15.939315"><name>PROTEINMINISTER</name><desc>Hohe Wand | Kraftwand</desc></wpt>
<wpt lat="47.915312" lon="15.939315"><name>WEISS</name><desc>Hohe Wand | Kraftwand</desc></wpt>
</gpx>
