<?xml version="1.0" encoding="UTF-8"?>
<gpx version="1.1" creator="Vertical Moment" xmlns="http://www.topografix.com/GPX/1/1">
<metadata><name>Hohe Wand | Gamswandl</name><desc>GPS data for Vertical Moment master v4. Coordinates derived from OSM (OpenStreetMap, (c) OSM contributors, ODbL 1.0), theCrag, climb.sk, outdooractive, Nominatim and legacy master coords.</desc></metadata>
<wpt lat="47.851605" lon="16.040184"><name>DELPUFF</name><desc>Hohe Wand | Gamswandl</desc></wpt>
<wpt lat="47.851605" lon="16.040184"><name>HOPPALA</name><desc>Hohe Wand | Gamswandl</desc></wpt>
<wpt lat="47.851605" lon="16.040184"><name>LOCHSTREIFEN</name><desc>Hohe Wand | Gamswandl</desc></wpt>
<wpt lat="47.851605" lon="16.040184"><name>MINI PHILLIP FLAMM</name><desc>Hohe Wand | Gamswandl</desc></wpt>
<wpt lat="47.851605" lon="16.040184"><name>NONSTOP</name><desc>Hohe Wand | Gamswandl</desc></wpt>
<wpt lat="47.851605" lon="16.040184"><name>REZLGRIFF</name><desc>Hohe Wand | Gamswandl</desc></wpt>
<wpt lat="47.851605" lon="16.040184"><name>TRASSENSTRICH</name><desc>Hohe Wand | Gamswandl</desc></wpt>
<wpt lat="47.851605" lon="16.040184"><name>WITZ</name><desc>Hohe Wand | Gamswandl</desc></wpt>
</gpx>
