<?xml version="1.0" encoding="UTF-8"?>
<gpx version="1.1" creator="Vertical Moment" xmlns="http://www.topografix.com/GPX/1/1">
<metadata><name>Hohe Wand | Thalhoferkanzel</name><desc>GPS data for Vertical Moment master v4. Coordinates derived from OSM (OpenStreetMap, (c) OSM contributors, ODbL 1.0), theCrag, climb.sk, outdooractive, Nominatim and legacy master coords.</desc></metadata>
<wpt lat="48.007239" lon="16.035987"><name>BEICHTSTUHL</name><desc>Hohe Wand | Thalhoferkanzel</desc></wpt>
<wpt lat="48.007239" lon="16.035987"><name>BIN SCHON WIEDER WEG</name><desc>Hohe Wand | Thalhoferkanzel</desc></wpt>
<wpt lat="48.007239" lon="16.035987"><name>BLUTIGER SAMSTAG</name><desc>Hohe Wand | Thalhoferkanzel</desc></wpt>
<wpt lat="48.007239" lon="16.035987"><name>DIE KOLLEKTE</name><desc>Hohe Wand | Thalhoferkanzel</desc></wpt>
<wpt lat="48.007239" lon="16.035987"><name>I DONNERWETTER</name><desc>Hohe Wand | Thalhoferkanzel</desc></wpt>
<wpt lat="48.007239" lon="16.035987"><name>MORALPREDIGT</name><desc>Hohe Wand | Thalhoferkanzel</desc></wpt>
<wpt lat="48.007239" lon="16.035987"><name>RUCK VERSCHNEIDUNG</name><desc>Hohe Wand | Thalhoferkanzel</desc></wpt>
<wpt lat="48.007239" lon="16.035987"><name>SCHNEETREIBEN</name><desc>Hohe Wand | Thalhoferkanzel</desc></wpt>
<wpt lat="48.007239" lon="16.035987"><name>SILVANAKAMIN</name><desc>Hohe Wand | Thalhoferkanzel</desc></wpt>
<wpt lat="48.007239" lon="16.035987"><name>SKORPIONGUT</name><desc>Hohe Wand | Thalhoferkanzel</desc></wpt>
<wpt lat="48.007239" lon="16.035987"><name>SKORPIONWAND</name><desc>Hohe Wand | Thalhoferkanzel</desc></wpt>
<wpt lat="48.007239" lon="16.035987"><name>SONNTAGSPREDIGT</name><desc>Hohe Wand | Thalhoferkanzel</desc></wpt>
<wpt lat="48.007239" lon="16.035987"><name>TRES DURE - DREHTÜR</name><desc>Hohe Wand | Thalhoferkanzel</desc></wpt>
<wpt lat="48.007239" lon="16.035987"><name>UCKERUNG</name><desc>Hohe Wand | Thalhoferkanzel</desc></wpt>
<wpt lat="48.007239" lon="16.035987"><name>UFERLOS</name><desc>Hohe Wand | Thalhoferkanzel</desc></wpt>
<wpt lat="48.007239" lon="16.035987"><name>WER SUCHET DER FINDET</name><desc>Hohe Wand | Thalhoferkanzel</desc></wpt>
<wpt lat="48.007239" lon="16.035987"><name>YELLOW SUBMARINE</name><desc>Hohe Wand | Thalhoferkanzel</desc></wpt>
</gpx>
