<?xml version="1.0" encoding="UTF-8"?>
<gpx version="1.1" creator="Vertical Moment" xmlns="http://www.topografix.com/GPX/1/1">
<metadata><name>Hohe Wand | Hochkogleck</name><desc>GPS data for Vertical Moment master v4. Coordinates derived from OSM (OpenStreetMap, (c) OSM contributors, ODbL 1.0), theCrag, climb.sk, outdooractive, Nominatim and legacy master coords.</desc></metadata>
<wpt lat="47.823588" lon="16.040483"><name>:ISZEIT</name><desc>Hohe Wand | Hochkogleck</desc></wpt>
<wpt lat="47.823588" lon="16.040483"><name>A OZEIT EISE</name><desc>Hohe Wand | Hochkogleck</desc></wpt>
<wpt lat="47.823588" lon="16.040483"><name>BACK TO THE ROOTS</name><desc>Hohe Wand | Hochkogleck</desc></wpt>
<wpt lat="47.823588" lon="16.040483"><name>BALUSTO VERTIKAL</name><desc>Hohe Wand | Hochkogleck</desc></wpt>
<wpt lat="47.823588" lon="16.040483"><name>BOCKSTEIG</name><desc>Hohe Wand | Hochkogleck</desc></wpt>
<wpt lat="47.823588" lon="16.040483"><name>CONDOR</name><desc>Hohe Wand | Hochkogleck</desc></wpt>
<wpt lat="47.823588" lon="16.040483"><name>DIE NEUE WELLE</name><desc>Hohe Wand | Hochkogleck</desc></wpt>
<wpt lat="47.823588" lon="16.040483"><name>DIE WENDE</name><desc>Hohe Wand | Hochkogleck</desc></wpt>
<wpt lat="47.823588" lon="16.040483"><name>DRANGSAL</name><desc>Hohe Wand | Hochkogleck</desc></wpt>
<wpt lat="47.823588" lon="16.040483"><name>EINSTIEG</name><desc>Hohe Wand | Hochkogleck</desc></wpt>
<wpt lat="47.823588" lon="16.040483"><name>FCK SYSTEM</name><desc>Hohe Wand | Hochkogleck</desc></wpt>
<wpt lat="47.823588" lon="16.040483"><name>GRAUE KANTE</name><desc>Hohe Wand | Hochkogleck</desc></wpt>
<wpt lat="47.823588" lon="16.040483"><name>GUNGNIR</name><desc>Hohe Wand | Hochkogleck</desc></wpt>
<wpt lat="47.823588" lon="16.040483"><name>GUNGNIR LANG</name><desc>Hohe Wand | Hochkogleck</desc></wpt>
<wpt lat="47.823588" lon="16.040483"><name>GURKERL IM KNIE</name><desc>Hohe Wand | Hochkogleck</desc></wpt>
<wpt lat="47.823588" lon="16.040483"><name>HONEYMOON</name><desc>Hohe Wand | Hochkogleck</desc></wpt>
<wpt lat="47.823588" lon="16.040483"><name>HORUSAUGE</name><desc>Hohe Wand | Hochkogleck</desc></wpt>
<wpt lat="47.823588" lon="16.040483"><name>IMPOPOSANT</name><desc>Hohe Wand | Hochkogleck</desc></wpt>
<wpt lat="47.823588" lon="16.040483"><name>KRAFTUCHT</name><desc>Hohe Wand | Hochkogleck</desc></wpt>
<wpt lat="47.823588" lon="16.040483"><name>KÖNIG UHU UND DIE GIER</name><desc>Hohe Wand | Hochkogleck</desc></wpt>
<wpt lat="47.823588" lon="16.040483"><name>MANITOU</name><desc>Hohe Wand | Hochkogleck</desc></wpt>
<wpt lat="47.823588" lon="16.040483"><name>MISSING LINK</name><desc>Hohe Wand | Hochkogleck</desc></wpt>
<wpt lat="47.823588" lon="16.040483"><name>NOBODI</name><desc>Hohe Wand | Hochkogleck</desc></wpt>
<wpt lat="47.823588" lon="16.040483"><name>REX THE RUNT</name><desc>Hohe Wand | Hochkogleck</desc></wpt>
<wpt lat="47.823588" lon="16.040483"><name>STILLDEMENZ</name><desc>Hohe Wand | Hochkogleck</desc></wpt>
<wpt lat="47.823588" lon="16.040483"><name>SUPERMARTINACHTZEH</name><desc>Hohe Wand | Hochkogleck</desc></wpt>
<wpt lat="47.823588" lon="16.040483"><name>TRUMPETSCAU</name><desc>Hohe Wand | Hochkogleck</desc></wpt>
<wpt lat="47.823588" lon="16.040483"><name>UOVOPECCARE</name><desc>Hohe Wand | Hochkogleck</desc></wpt>
<wpt lat="47.823588" lon="16.040483"><name>URQUELL</name><desc>Hohe Wand | Hochkogleck</desc></wpt>
<wpt lat="47.823588" lon="16.040483"><name>VERLIEBTER LEICHNAM</name><desc>Hohe Wand | Hochkogleck</desc></wpt>
<wpt lat="47.823588" lon="16.040483"><name>WALKNUT</name><desc>Hohe Wand | Hochkogleck</desc></wpt>
<wpt lat="47.823588" lon="16.040483"><name>WILDHONEY</name><desc>Hohe Wand | Hochkogleck</desc></wpt>
<wpt lat="47.823588" lon="16.040483"><name>WINDKRAFT</name><desc>Hohe Wand | Hochkogleck</desc></wpt>
<wpt lat="47.823588" lon="16.040483"><name>ZAUBERFLÖTE</name><desc>Hohe Wand | Hochkogleck</desc></wpt>
<wpt lat="47.823588" lon="16.040483"><name>ZAUBERLEHRLING</name><desc>Hohe Wand | Hochkogleck</desc></wpt>
</gpx>
