<?xml version="1.0" encoding="UTF-8"?>
<gpx version="1.1" creator="Vertical Moment" xmlns="http://www.topografix.com/GPX/1/1">
<metadata><name>Hohe Wand | Hirnflitzstein</name><desc>GPS data for Vertical Moment master v4. Coordinates derived from OSM (OpenStreetMap, (c) OSM contributors, ODbL 1.0), theCrag, climb.sk, outdooractive, Nominatim and legacy master coords.</desc></metadata>
<wpt lat="47.857871" lon="16.089185"><name>ADLITZ</name><desc>Hohe Wand | Hirnflitzstein</desc></wpt>
<wpt lat="47.857871" lon="16.089185"><name>BRAUNE WAMPE</name><desc>Hohe Wand | Hirnflitzstein</desc></wpt>
<wpt lat="47.857871" lon="16.089185"><name>BÜRGERMÜLLER</name><desc>Hohe Wand | Hirnflitzstein</desc></wpt>
<wpt lat="47.857871" lon="16.089185"><name>DER GERÄT</name><desc>Hohe Wand | Hirnflitzstein</desc></wpt>
<wpt lat="47.857871" lon="16.089185"><name>DER SCHLITZER</name><desc>Hohe Wand | Hirnflitzstein</desc></wpt>
<wpt lat="47.857871" lon="16.089185"><name>DIREKTER WÄHRINGERSTEIG</name><desc>Hohe Wand | Hirnflitzstein</desc></wpt>
<wpt lat="47.857871" lon="16.089185"><name>DUNG</name><desc>Hohe Wand | Hirnflitzstein</desc></wpt>
<wpt lat="47.857871" lon="16.089185"><name>FRIDOUNO</name><desc>Hohe Wand | Hirnflitzstein</desc></wpt>
<wpt lat="47.857871" lon="16.089185"><name>HEDWIG</name><desc>Hohe Wand | Hirnflitzstein</desc></wpt>
<wpt lat="47.857871" lon="16.089185"><name>HIRNFUTZER OST</name><desc>Hohe Wand | Hirnflitzstein</desc></wpt>
<wpt lat="47.857871" lon="16.089185"><name>HIRNSAUSEN</name><desc>Hohe Wand | Hirnflitzstein</desc></wpt>
<wpt lat="47.857871" lon="16.089185"><name>KEINESWEGS KOSHER</name><desc>Hohe Wand | Hirnflitzstein</desc></wpt>
<wpt lat="47.857871" lon="16.089185"><name>KLEINE VERSCHNEIDUNG</name><desc>Hohe Wand | Hirnflitzstein</desc></wpt>
<wpt lat="47.857871" lon="16.089185"><name>KÄSEBROT</name><desc>Hohe Wand | Hirnflitzstein</desc></wpt>
<wpt lat="47.857871" lon="16.089185"><name>LICHTERKETTE</name><desc>Hohe Wand | Hirnflitzstein</desc></wpt>
<wpt lat="47.857871" lon="16.089185"><name>SCHÜTZENFEST</name><desc>Hohe Wand | Hirnflitzstein</desc></wpt>
<wpt lat="47.857871" lon="16.089185"><name>SLAPSTICK</name><desc>Hohe Wand | Hirnflitzstein</desc></wpt>
<wpt lat="47.857871" lon="16.089185"><name>SlDESTEP</name><desc>Hohe Wand | Hirnflitzstein</desc></wpt>
<wpt lat="47.857871" lon="16.089185"><name>TURBUND STURMWERK</name><desc>Hohe Wand | Hirnflitzstein</desc></wpt>
<wpt lat="47.857871" lon="16.089185"><name>VARIANTE</name><desc>Hohe Wand | Hirnflitzstein</desc></wpt>
<wpt lat="47.857871" lon="16.089185"><name>WONDERBU</name><desc>Hohe Wand | Hirnflitzstein</desc></wpt>
<wpt lat="47.857871" lon="16.089185"><name>WONDERWALL</name><desc>Hohe Wand | Hirnflitzstein</desc></wpt>
<wpt lat="47.857871" lon="16.089185"><name>sz SPEIBTOUR</name><desc>Hohe Wand | Hirnflitzstein</desc></wpt>
</gpx>
