<?xml version="1.0" encoding="UTF-8"?>
<gpx version="1.1" creator="Vertical Moment" xmlns="http://www.topografix.com/GPX/1/1">
<metadata><name>Hohe Wand | Ostplatte/Mittlere Ostwand</name><desc>GPS data for Vertical Moment master v4. Coordinates derived from OSM (OpenStreetMap, (c) OSM contributors, ODbL 1.0), theCrag, climb.sk, outdooractive, Nominatim and legacy master coords.</desc></metadata>
<wpt lat="48.007" lon="16.0366"><name>AB DURCH DIE MITTE</name><desc>Hohe Wand | Ostplatte/Mittlere Ostwand</desc></wpt>
<wpt lat="48.007" lon="16.0366"><name>ANNYS DELIKTI</name><desc>Hohe Wand | Ostplatte/Mittlere Ostwand</desc></wpt>
<wpt lat="48.007" lon="16.0366"><name>AUGENBUCKE DES GLÜCKS</name><desc>Hohe Wand | Ostplatte/Mittlere Ostwand</desc></wpt>
<wpt lat="48.007" lon="16.0366"><name>AUTASTISCH</name><desc>Hohe Wand | Ostplatte/Mittlere Ostwand</desc></wpt>
<wpt lat="48.007" lon="16.0366"><name>BERER ANNYSTEIG</name><desc>Hohe Wand | Ostplatte/Mittlere Ostwand</desc></wpt>
<wpt lat="48.007" lon="16.0366"><name>DIE WAHRE KOMPLIZIERTE</name><desc>Hohe Wand | Ostplatte/Mittlere Ostwand</desc></wpt>
<wpt lat="48.007" lon="16.0366"><name>ES GEHT WEITER SCHOKO</name><desc>Hohe Wand | Ostplatte/Mittlere Ostwand</desc></wpt>
<wpt lat="48.007" lon="16.0366"><name>GRANTIGE LAUS</name><desc>Hohe Wand | Ostplatte/Mittlere Ostwand</desc></wpt>
<wpt lat="48.007" lon="16.0366"><name>MEIN GOTT, ANNY</name><desc>Hohe Wand | Ostplatte/Mittlere Ostwand</desc></wpt>
<wpt lat="48.007" lon="16.0366"><name>RUMPELSTILZCHEN</name><desc>Hohe Wand | Ostplatte/Mittlere Ostwand</desc></wpt>
<wpt lat="48.007" lon="16.0366"><name>SCHOKO INTENSIV</name><desc>Hohe Wand | Ostplatte/Mittlere Ostwand</desc></wpt>
<wpt lat="48.007" lon="16.0366"><name>SCHOKOLADENBAUER</name><desc>Hohe Wand | Ostplatte/Mittlere Ostwand</desc></wpt>
<wpt lat="48.007" lon="16.0366"><name>SCHOKOUMIN</name><desc>Hohe Wand | Ostplatte/Mittlere Ostwand</desc></wpt>
<wpt lat="48.007" lon="16.0366"><name>SINGLE MAN</name><desc>Hohe Wand | Ostplatte/Mittlere Ostwand</desc></wpt>
<wpt lat="48.007" lon="16.0366"><name>THAUDACH</name><desc>Hohe Wand | Ostplatte/Mittlere Ostwand</desc></wpt>
<wpt lat="48.007" lon="16.0366"><name>THAUDYNAMISCH</name><desc>Hohe Wand | Ostplatte/Mittlere Ostwand</desc></wpt>
<wpt lat="48.007" lon="16.0366"><name>THAUFFIZIL</name><desc>Hohe Wand | Ostplatte/Mittlere Ostwand</desc></wpt>
<wpt lat="48.007" lon="16.0366"><name>THAUPLATTE</name><desc>Hohe Wand | Ostplatte/Mittlere Ostwand</desc></wpt>
<wpt lat="48.007" lon="16.0366"><name>THAURISS</name><desc>Hohe Wand | Ostplatte/Mittlere Ostwand</desc></wpt>
<wpt lat="48.007" lon="16.0366"><name>THAUSTROPHAL</name><desc>Hohe Wand | Ostplatte/Mittlere Ostwand</desc></wpt>
<wpt lat="48.007" lon="16.0366"><name>UTA STEIG</name><desc>Hohe Wand | Ostplatte/Mittlere Ostwand</desc></wpt>
<wpt lat="48.007" lon="16.0366"><name>VOODOO</name><desc>Hohe Wand | Ostplatte/Mittlere Ostwand</desc></wpt>
<wpt lat="48.007" lon="16.0366"><name>WILD PALMS</name><desc>Hohe Wand | Ostplatte/Mittlere Ostwand</desc></wpt>
</gpx>
