<?xml version="1.0" encoding="UTF-8"?>
<gpx version="1.1" creator="Vertical Moment" xmlns="http://www.topografix.com/GPX/1/1">
<metadata><name>Hohe Wand | OeTK-Klettergarten</name><desc>GPS data for Vertical Moment master v4. Coordinates derived from OSM (OpenStreetMap, (c) OSM contributors, ODbL 1.0), theCrag, climb.sk, outdooractive, Nominatim and legacy master coords.</desc></metadata>
<wpt lat="47.83002" lon="16.047411"><name>ALLER ANFANG</name><desc>Hohe Wand | OeTK-Klettergarten</desc></wpt>
<wpt lat="47.83002" lon="16.047411"><name>BAHLSENKEX</name><desc>Hohe Wand | OeTK-Klettergarten</desc></wpt>
<wpt lat="47.83002" lon="16.047411"><name>BEINHART</name><desc>Hohe Wand | OeTK-Klettergarten</desc></wpt>
<wpt lat="47.83002" lon="16.047411"><name>DER MANN VON DER MAUT</name><desc>Hohe Wand | OeTK-Klettergarten</desc></wpt>
<wpt lat="47.83002" lon="16.047411"><name>DIE WÜDESTE POSTEUNE</name><desc>Hohe Wand | OeTK-Klettergarten</desc></wpt>
<wpt lat="47.83002" lon="16.047411"><name>FÜR UNSERE KINDER</name><desc>Hohe Wand | OeTK-Klettergarten</desc></wpt>
<wpt lat="47.83002" lon="16.047411"><name>KURZER KAMIN</name><desc>Hohe Wand | OeTK-Klettergarten</desc></wpt>
<wpt lat="47.83002" lon="16.047411"><name>MAREBITO</name><desc>Hohe Wand | OeTK-Klettergarten</desc></wpt>
<wpt lat="47.83002" lon="16.047411"><name>MENTAL FUNERAL</name><desc>Hohe Wand | OeTK-Klettergarten</desc></wpt>
<wpt lat="47.83002" lon="16.047411"><name>MERKAPTHAN</name><desc>Hohe Wand | OeTK-Klettergarten</desc></wpt>
<wpt lat="47.83002" lon="16.047411"><name>MILUPPA</name><desc>Hohe Wand | OeTK-Klettergarten</desc></wpt>
<wpt lat="47.83002" lon="16.047411"><name>NEBELGRAUEN</name><desc>Hohe Wand | OeTK-Klettergarten</desc></wpt>
<wpt lat="47.83002" lon="16.047411"><name>NEBELREISSEN</name><desc>Hohe Wand | OeTK-Klettergarten</desc></wpt>
<wpt lat="47.83002" lon="16.047411"><name>NEUE SONNE</name><desc>Hohe Wand | OeTK-Klettergarten</desc></wpt>
<wpt lat="47.83002" lon="16.047411"><name>ROTES DREIECK</name><desc>Hohe Wand | OeTK-Klettergarten</desc></wpt>
<wpt lat="47.83002" lon="16.047411"><name>RUCKZUCK</name><desc>Hohe Wand | OeTK-Klettergarten</desc></wpt>
<wpt lat="47.83002" lon="16.047411"><name>SACRAMENTO</name><desc>Hohe Wand | OeTK-Klettergarten</desc></wpt>
<wpt lat="47.83002" lon="16.047411"><name>SANTA FEE</name><desc>Hohe Wand | OeTK-Klettergarten</desc></wpt>
<wpt lat="47.83002" lon="16.047411"><name>SONNENFINSTERNIS</name><desc>Hohe Wand | OeTK-Klettergarten</desc></wpt>
<wpt lat="47.83002" lon="16.047411"><name>UNTERM PFAFFENROCK</name><desc>Hohe Wand | OeTK-Klettergarten</desc></wpt>
<wpt lat="47.83002" lon="16.047411"><name>VATER MOND</name><desc>Hohe Wand | OeTK-Klettergarten</desc></wpt>
<wpt lat="47.83002" lon="16.047411"><name>VÖLLERINPFEILER</name><desc>Hohe Wand | OeTK-Klettergarten</desc></wpt>
<wpt lat="47.83002" lon="16.047411"><name>WILDE VÖLLERIN</name><desc>Hohe Wand | OeTK-Klettergarten</desc></wpt>
<wpt lat="47.83002" lon="16.047411"><name>WILDESTE VÖLLERIN</name><desc>Hohe Wand | OeTK-Klettergarten</desc></wpt>
</gpx>
