<?xml version="1.0" encoding="UTF-8"?>
<gpx version="1.1" creator="Vertical Moment" xmlns="http://www.topografix.com/GPX/1/1">
<metadata><name>Hohe Wand | Hohe Wand</name><desc>GPS data for Vertical Moment master v4. Coordinates derived from OSM (OpenStreetMap, (c) OSM contributors, ODbL 1.0), theCrag, climb.sk, outdooractive, Nominatim and legacy master coords.</desc></metadata>
<wpt lat="47.8373475" lon="16.0609337"><name>Teufelsgrat</name><desc>Hohe Wand | Hohe Wand</desc></wpt>
<wpt lat="47.8373475" lon="16.0609337"><name>Betty &amp; Paul</name><desc>Hohe Wand | Hohe Wand</desc></wpt>
<wpt lat="47.8373475" lon="16.0609337"><name>Postlsteig</name><desc>Hohe Wand | Hohe Wand</desc></wpt>
<wpt lat="47.8373475" lon="16.0609337"><name>Tirolersteig</name><desc>Hohe Wand | Hohe Wand</desc></wpt>
<wpt lat="47.8373475" lon="16.0609337"><name>Danglweg</name><desc>Hohe Wand | Hohe Wand</desc></wpt>
<wpt lat="47.8373475" lon="16.0609337"><name>Draschgrat light</name><desc>Hohe Wand | Hohe Wand</desc></wpt>
<wpt lat="47.8373475" lon="16.0609337"><name>Wienersteig</name><desc>Hohe Wand | Hohe Wand</desc></wpt>
</gpx>
