<?xml version="1.0" encoding="UTF-8"?>
<gpx version="1.1" creator="Vertical Moment" xmlns="http://www.topografix.com/GPX/1/1">
<metadata><name>Hohe Wand | Gamswand</name><desc>GPS data for Vertical Moment master v4. Coordinates derived from OSM (OpenStreetMap, (c) OSM contributors, ODbL 1.0), theCrag, climb.sk, outdooractive, Nominatim and legacy master coords.</desc></metadata>
<wpt lat="47.851605" lon="16.040184"><name>ABTRITT</name><desc>Hohe Wand | Gamswand</desc></wpt>
<wpt lat="47.851605" lon="16.040184"><name>DAS SCHWARZE SCHAF</name><desc>Hohe Wand | Gamswand</desc></wpt>
<wpt lat="47.851605" lon="16.040184"><name>DEUTSCH NEPAL</name><desc>Hohe Wand | Gamswand</desc></wpt>
<wpt lat="47.851605" lon="16.040184"><name>DIE HOHE STUBE</name><desc>Hohe Wand | Gamswand</desc></wpt>
<wpt lat="47.851605" lon="16.040184"><name>DOPPELWITZ</name><desc>Hohe Wand | Gamswand</desc></wpt>
<wpt lat="47.851605" lon="16.040184"><name>EINHEITSFUSS</name><desc>Hohe Wand | Gamswand</desc></wpt>
<wpt lat="47.851605" lon="16.040184"><name>GOTTLOS</name><desc>Hohe Wand | Gamswand</desc></wpt>
<wpt lat="47.851605" lon="16.040184"><name>MARSCH DER WAMPELREITER</name><desc>Hohe Wand | Gamswand</desc></wpt>
<wpt lat="47.851605" lon="16.040184"><name>MC DRECK</name><desc>Hohe Wand | Gamswand</desc></wpt>
<wpt lat="47.851605" lon="16.040184"><name>NAMENLOS</name><desc>Hohe Wand | Gamswand</desc></wpt>
<wpt lat="47.851605" lon="16.040184"><name>NEMESIS</name><desc>Hohe Wand | Gamswand</desc></wpt>
<wpt lat="47.851605" lon="16.040184"><name>PAOLO PINKEL</name><desc>Hohe Wand | Gamswand</desc></wpt>
<wpt lat="47.851605" lon="16.040184"><name>RABENKAMPF</name><desc>Hohe Wand | Gamswand</desc></wpt>
<wpt lat="47.851605" lon="16.040184"><name>SPREU UND WEIZEN</name><desc>Hohe Wand | Gamswand</desc></wpt>
<wpt lat="47.851605" lon="16.040184"><name>STUBENREIN</name><desc>Hohe Wand | Gamswand</desc></wpt>
<wpt lat="47.851605" lon="16.040184"><name>STURMPERCHT</name><desc>Hohe Wand | Gamswand</desc></wpt>
<wpt lat="47.851605" lon="16.040184"><name>VOGELFREI</name><desc>Hohe Wand | Gamswand</desc></wpt>
<wpt lat="47.851605" lon="16.040184"><name>WALDTEUFEL</name><desc>Hohe Wand | Gamswand</desc></wpt>
</gpx>
