<?xml version="1.0" encoding="UTF-8"?>
<gpx version="1.1" creator="Vertical Moment" xmlns="http://www.topografix.com/GPX/1/1">
<metadata><name>Hohe Wand | Zentrale/Obere Thalhoferwand</name><desc>GPS data for Vertical Moment master v4. Coordinates derived from OSM (OpenStreetMap, (c) OSM contributors, ODbL 1.0), theCrag, climb.sk, outdooractive, Nominatim and legacy master coords.</desc></metadata>
<wpt lat="48.0076" lon="16.0368"><name>JUPITER</name><desc>Hohe Wand | Zentrale/Obere Thalhoferwand</desc></wpt>
<wpt lat="48.0076" lon="16.0368"><name>ALPIN AKTUELL</name><desc>Hohe Wand | Zentrale/Obere Thalhoferwand</desc></wpt>
<wpt lat="48.0076" lon="16.0368"><name>DAMOKLES</name><desc>Hohe Wand | Zentrale/Obere Thalhoferwand</desc></wpt>
<wpt lat="48.0076" lon="16.0368"><name>ENGPASS SYNDROM</name><desc>Hohe Wand | Zentrale/Obere Thalhoferwand</desc></wpt>
<wpt lat="48.0076" lon="16.0368"><name>FIVE FINGER EXERCISE</name><desc>Hohe Wand | Zentrale/Obere Thalhoferwand</desc></wpt>
<wpt lat="48.0076" lon="16.0368"><name>FULMEN EX MENTE</name><desc>Hohe Wand | Zentrale/Obere Thalhoferwand</desc></wpt>
<wpt lat="48.0076" lon="16.0368"><name>FÜR DICH KLAUS'</name><desc>Hohe Wand | Zentrale/Obere Thalhoferwand</desc></wpt>
<wpt lat="48.0076" lon="16.0368"><name>FÜR KLEINE MÄDCHEN</name><desc>Hohe Wand | Zentrale/Obere Thalhoferwand</desc></wpt>
<wpt lat="48.0076" lon="16.0368"><name>GLÜHWÜRMCHEN</name><desc>Hohe Wand | Zentrale/Obere Thalhoferwand</desc></wpt>
<wpt lat="48.0076" lon="16.0368"><name>HACKERUNG</name><desc>Hohe Wand | Zentrale/Obere Thalhoferwand</desc></wpt>
<wpt lat="48.0076" lon="16.0368"><name>HNMACHT IN MIR</name><desc>Hohe Wand | Zentrale/Obere Thalhoferwand</desc></wpt>
<wpt lat="48.0076" lon="16.0368"><name>IM WINTER VERBLÖDET</name><desc>Hohe Wand | Zentrale/Obere Thalhoferwand</desc></wpt>
<wpt lat="48.0076" lon="16.0368"><name>KLETTERN LIGHT</name><desc>Hohe Wand | Zentrale/Obere Thalhoferwand</desc></wpt>
<wpt lat="48.0076" lon="16.0368"><name>KRAMPFHAFT</name><desc>Hohe Wand | Zentrale/Obere Thalhoferwand</desc></wpt>
<wpt lat="48.0076" lon="16.0368"><name>KURZE GAUDE</name><desc>Hohe Wand | Zentrale/Obere Thalhoferwand</desc></wpt>
<wpt lat="48.0076" lon="16.0368"><name>MÄNNER!</name><desc>Hohe Wand | Zentrale/Obere Thalhoferwand</desc></wpt>
<wpt lat="48.0076" lon="16.0368"><name>PAPAGENO</name><desc>Hohe Wand | Zentrale/Obere Thalhoferwand</desc></wpt>
<wpt lat="48.0076" lon="16.0368"><name>PLATZANGST</name><desc>Hohe Wand | Zentrale/Obere Thalhoferwand</desc></wpt>
<wpt lat="48.0076" lon="16.0368"><name>SAUSTRO</name><desc>Hohe Wand | Zentrale/Obere Thalhoferwand</desc></wpt>
<wpt lat="48.0076" lon="16.0368"><name>STARTBAHN</name><desc>Hohe Wand | Zentrale/Obere Thalhoferwand</desc></wpt>
<wpt lat="48.0076" lon="16.0368"><name>STERNSCHNUPPE</name><desc>Hohe Wand | Zentrale/Obere Thalhoferwand</desc></wpt>
<wpt lat="48.0076" lon="16.0368"><name>UMORGENSTERN</name><desc>Hohe Wand | Zentrale/Obere Thalhoferwand</desc></wpt>
<wpt lat="48.0076" lon="16.0368"><name>VENUS</name><desc>Hohe Wand | Zentrale/Obere Thalhoferwand</desc></wpt>
<wpt lat="48.0076" lon="16.0368"><name>VOGELSTIMMEN</name><desc>Hohe Wand | Zentrale/Obere Thalhoferwand</desc></wpt>
<wpt lat="48.0076" lon="16.0368"><name>VOM STURM VERWEHT</name><desc>Hohe Wand | Zentrale/Obere Thalhoferwand</desc></wpt>
<wpt lat="48.0076" lon="16.0368"><name>WANDERBARE HEIMAT</name><desc>Hohe Wand | Zentrale/Obere Thalhoferwand</desc></wpt>
<wpt lat="48.0076" lon="16.0368"><name>Z@FRÜHJAHRSMÜDIGKEIT</name><desc>Hohe Wand | Zentrale/Obere Thalhoferwand</desc></wpt>
<wpt lat="48.0076" lon="16.0368"><name>ZAUBERFLÖTE</name><desc>Hohe Wand | Zentrale/Obere Thalhoferwand</desc></wpt>
</gpx>
