<?xml version="1.0" encoding="UTF-8"?>
<gpx version="1.1" creator="Vertical Moment" xmlns="http://www.topografix.com/GPX/1/1">
<metadata><name>Hohe Wand | Suedwestwand</name><desc>GPS data for Vertical Moment master v4. Coordinates derived from OSM (OpenStreetMap, (c) OSM contributors, ODbL 1.0), theCrag, climb.sk, outdooractive, Nominatim and legacy master coords.</desc></metadata>
<wpt lat="48.006779" lon="16.036057"><name>MALARIA</name><desc>Hohe Wand | Suedwestwand</desc></wpt>
<wpt lat="48.006779" lon="16.036057"><name>ANNYSTEIG</name><desc>Hohe Wand | Suedwestwand</desc></wpt>
<wpt lat="48.006779" lon="16.036057"><name>AUFI MUASSI</name><desc>Hohe Wand | Suedwestwand</desc></wpt>
<wpt lat="48.006779" lon="16.036057"><name>BACHELOR ARBEIT</name><desc>Hohe Wand | Suedwestwand</desc></wpt>
<wpt lat="48.006779" lon="16.036057"><name>CDIREKTER ANNYSTEIG</name><desc>Hohe Wand | Suedwestwand</desc></wpt>
<wpt lat="48.006779" lon="16.036057"><name>CHOLERA</name><desc>Hohe Wand | Suedwestwand</desc></wpt>
<wpt lat="48.006779" lon="16.036057"><name>CHRISTASTEIG</name><desc>Hohe Wand | Suedwestwand</desc></wpt>
<wpt lat="48.006779" lon="16.036057"><name>COMPLEMENT FOU</name><desc>Hohe Wand | Suedwestwand</desc></wpt>
<wpt lat="48.006779" lon="16.036057"><name>DER SAUSTALL</name><desc>Hohe Wand | Suedwestwand</desc></wpt>
<wpt lat="48.006779" lon="16.036057"><name>DIREKTER ANNYSTEIG ZLänge</name><desc>Hohe Wand | Suedwestwand</desc></wpt>
<wpt lat="48.006779" lon="16.036057"><name>FASTEN SEAT BELTS</name><desc>Hohe Wand | Suedwestwand</desc></wpt>
<wpt lat="48.006779" lon="16.036057"><name>HERBSTTRAI.JM</name><desc>Hohe Wand | Suedwestwand</desc></wpt>
<wpt lat="48.006779" lon="16.036057"><name>HÖHENLUFT</name><desc>Hohe Wand | Suedwestwand</desc></wpt>
<wpt lat="48.006779" lon="16.036057"><name>KEIN HÖHEPUNKT</name><desc>Hohe Wand | Suedwestwand</desc></wpt>
<wpt lat="48.006779" lon="16.036057"><name>KINDERZIMMER</name><desc>Hohe Wand | Suedwestwand</desc></wpt>
<wpt lat="48.006779" lon="16.036057"><name>LOGICO</name><desc>Hohe Wand | Suedwestwand</desc></wpt>
<wpt lat="48.006779" lon="16.036057"><name>MATURAPRÜFUNG</name><desc>Hohe Wand | Suedwestwand</desc></wpt>
<wpt lat="48.006779" lon="16.036057"><name>MATURAVORBEREITUNG</name><desc>Hohe Wand | Suedwestwand</desc></wpt>
<wpt lat="48.006779" lon="16.036057"><name>MATURAVORBEREITUNG DIREKT</name><desc>Hohe Wand | Suedwestwand</desc></wpt>
<wpt lat="48.006779" lon="16.036057"><name>MAULWURF</name><desc>Hohe Wand | Suedwestwand</desc></wpt>
<wpt lat="48.006779" lon="16.036057"><name>QUICKY</name><desc>Hohe Wand | Suedwestwand</desc></wpt>
<wpt lat="48.006779" lon="16.036057"><name>SAXIFRAGA</name><desc>Hohe Wand | Suedwestwand</desc></wpt>
<wpt lat="48.006779" lon="16.036057"><name>SOIT, SOIT</name><desc>Hohe Wand | Suedwestwand</desc></wpt>
<wpt lat="48.006779" lon="16.036057"><name>STRUMA ADE</name><desc>Hohe Wand | Suedwestwand</desc></wpt>
<wpt lat="48.006779" lon="16.036057"><name>THYPHUS</name><desc>Hohe Wand | Suedwestwand</desc></wpt>
<wpt lat="48.006779" lon="16.036057"><name>TOMMY BE NICE</name><desc>Hohe Wand | Suedwestwand</desc></wpt>
<wpt lat="48.006779" lon="16.036057"><name>TROUBADOUR</name><desc>Hohe Wand | Suedwestwand</desc></wpt>
<wpt lat="48.006779" lon="16.036057"><name>UM EIN HAAR</name><desc>Hohe Wand | Suedwestwand</desc></wpt>
<wpt lat="48.006779" lon="16.036057"><name>UNGEDULD DES HERZENS</name><desc>Hohe Wand | Suedwestwand</desc></wpt>
<wpt lat="48.006779" lon="16.036057"><name>WELCOME TO THALIGUT</name><desc>Hohe Wand | Suedwestwand</desc></wpt>
<wpt lat="48.006779" lon="16.036057"><name>WÜHLMAUS</name><desc>Hohe Wand | Suedwestwand</desc></wpt>
<wpt lat="48.006779" lon="16.036057"><name>ZEN UGHT</name><desc>Hohe Wand | Suedwestwand</desc></wpt>
<wpt lat="48.006779" lon="16.036057"><name>ZU KURZ GERATEN</name><desc>Hohe Wand | Suedwestwand</desc></wpt>
</gpx>
