<?xml version="1.0" encoding="UTF-8"?>
<gpx version="1.1" creator="Vertical Moment" xmlns="http://www.topografix.com/GPX/1/1">
<metadata><name>Hohe Wand | Haussteinmugl</name><desc>GPS data for Vertical Moment master v4. Coordinates derived from OSM (OpenStreetMap, (c) OSM contributors, ODbL 1.0), theCrag, climb.sk, outdooractive, Nominatim and legacy master coords.</desc></metadata>
<wpt lat="47.917665" lon="15.93254"><name>AUSSTIEG</name><desc>Hohe Wand | Haussteinmugl</desc></wpt>
<wpt lat="47.917665" lon="15.93254"><name>BRUTAL</name><desc>Hohe Wand | Haussteinmugl</desc></wpt>
<wpt lat="47.917665" lon="15.93254"><name>DEPPAL</name><desc>Hohe Wand | Haussteinmugl</desc></wpt>
<wpt lat="47.917665" lon="15.93254"><name>DER BILLIGE JAKOB</name><desc>Hohe Wand | Haussteinmugl</desc></wpt>
<wpt lat="47.917665" lon="15.93254"><name>DIAGONAL</name><desc>Hohe Wand | Haussteinmugl</desc></wpt>
<wpt lat="47.917665" lon="15.93254"><name>ENDUCH HOCKNSTAD</name><desc>Hohe Wand | Haussteinmugl</desc></wpt>
<wpt lat="47.917665" lon="15.93254"><name>FLUCHTBURG</name><desc>Hohe Wand | Haussteinmugl</desc></wpt>
<wpt lat="47.917665" lon="15.93254"><name>GENIAL</name><desc>Hohe Wand | Haussteinmugl</desc></wpt>
<wpt lat="47.917665" lon="15.93254"><name>HALAL</name><desc>Hohe Wand | Haussteinmugl</desc></wpt>
<wpt lat="47.917665" lon="15.93254"><name>KARNERGEIST</name><desc>Hohe Wand | Haussteinmugl</desc></wpt>
<wpt lat="47.917665" lon="15.93254"><name>KATASTROPHAL</name><desc>Hohe Wand | Haussteinmugl</desc></wpt>
<wpt lat="47.917665" lon="15.93254"><name>KAUSAL</name><desc>Hohe Wand | Haussteinmugl</desc></wpt>
<wpt lat="47.917665" lon="15.93254"><name>KINDERVERSTECK</name><desc>Hohe Wand | Haussteinmugl</desc></wpt>
<wpt lat="47.917665" lon="15.93254"><name>LETHAL</name><desc>Hohe Wand | Haussteinmugl</desc></wpt>
<wpt lat="47.917665" lon="15.93254"><name>LW0ber in -ANARCHISTS</name><desc>Hohe Wand | Haussteinmugl</desc></wpt>
<wpt lat="47.917665" lon="15.93254"><name>MENTAL</name><desc>Hohe Wand | Haussteinmugl</desc></wpt>
<wpt lat="47.917665" lon="15.93254"><name>MIRAPLATTE</name><desc>Hohe Wand | Haussteinmugl</desc></wpt>
<wpt lat="47.917665" lon="15.93254"><name>MIRAVERSCHNEIDUNG</name><desc>Hohe Wand | Haussteinmugl</desc></wpt>
<wpt lat="47.917665" lon="15.93254"><name>RISSAL</name><desc>Hohe Wand | Haussteinmugl</desc></wpt>
<wpt lat="47.917665" lon="15.93254"><name>RUNSE</name><desc>Hohe Wand | Haussteinmugl</desc></wpt>
<wpt lat="47.917665" lon="15.93254"><name>SCHNAPPAL</name><desc>Hohe Wand | Haussteinmugl</desc></wpt>
<wpt lat="47.917665" lon="15.93254"><name>SONNENBRAND</name><desc>Hohe Wand | Haussteinmugl</desc></wpt>
<wpt lat="47.917665" lon="15.93254"><name>STILLE WASSER</name><desc>Hohe Wand | Haussteinmugl</desc></wpt>
<wpt lat="47.917665" lon="15.93254"><name>SUBOPTIMAL</name><desc>Hohe Wand | Haussteinmugl</desc></wpt>
<wpt lat="47.917665" lon="15.93254"><name>UNDERCOVER RAXFREAKS</name><desc>Hohe Wand | Haussteinmugl</desc></wpt>
<wpt lat="47.917665" lon="15.93254"><name>WACHABLÖSE</name><desc>Hohe Wand | Haussteinmugl</desc></wpt>
</gpx>
