<?xml version="1.0" encoding="UTF-8"?>
<gpx version="1.1" creator="Vertical Moment" xmlns="http://www.topografix.com/GPX/1/1">
<metadata><name>Hohe Wand | Hochfallbasis</name><desc>GPS data for Vertical Moment master v4. Coordinates derived from OSM (OpenStreetMap, (c) OSM contributors, ODbL 1.0), theCrag, climb.sk, outdooractive, Nominatim and legacy master coords.</desc></metadata>
<wpt lat="47.811081" lon="16.022969"><name>ELDORADO</name><desc>Hohe Wand | Hochfallbasis</desc></wpt>
<wpt lat="47.811081" lon="16.022969"><name>FÜR IMMER UND SELIG</name><desc>Hohe Wand | Hochfallbasis</desc></wpt>
<wpt lat="47.811081" lon="16.022969"><name>GET AGRIP</name><desc>Hohe Wand | Hochfallbasis</desc></wpt>
<wpt lat="47.811081" lon="16.022969"><name>HAKUNA MATATA</name><desc>Hohe Wand | Hochfallbasis</desc></wpt>
<wpt lat="47.811081" lon="16.022969"><name>HOCHFALLPFEILER</name><desc>Hohe Wand | Hochfallbasis</desc></wpt>
<wpt lat="47.811081" lon="16.022969"><name>INUENDO</name><desc>Hohe Wand | Hochfallbasis</desc></wpt>
<wpt lat="47.811081" lon="16.022969"><name>JUBILÄUMSFÜHRE</name><desc>Hohe Wand | Hochfallbasis</desc></wpt>
<wpt lat="47.811081" lon="16.022969"><name>KEIN KAFFEE KEIN KUCHEN 'HARTER AUFRISS</name><desc>Hohe Wand | Hochfallbasis</desc></wpt>
<wpt lat="47.811081" lon="16.022969"><name>KNUSPERSTILZCHEN</name><desc>Hohe Wand | Hochfallbasis</desc></wpt>
<wpt lat="47.811081" lon="16.022969"><name>KURZER PROZESS</name><desc>Hohe Wand | Hochfallbasis</desc></wpt>
<wpt lat="47.811081" lon="16.022969"><name>LAND DER HÄMMER</name><desc>Hohe Wand | Hochfallbasis</desc></wpt>
<wpt lat="47.811081" lon="16.022969"><name>MICHLWEG</name><desc>Hohe Wand | Hochfallbasis</desc></wpt>
<wpt lat="47.811081" lon="16.022969"><name>NAMENLOS</name><desc>Hohe Wand | Hochfallbasis</desc></wpt>
<wpt lat="47.811081" lon="16.022969"><name>NIAGARA</name><desc>Hohe Wand | Hochfallbasis</desc></wpt>
<wpt lat="47.811081" lon="16.022969"><name>NOCH EIN ÜBERHANG</name><desc>Hohe Wand | Hochfallbasis</desc></wpt>
<wpt lat="47.811081" lon="16.022969"><name>NULLKOMMAJOSEF</name><desc>Hohe Wand | Hochfallbasis</desc></wpt>
<wpt lat="47.811081" lon="16.022969"><name>PFEILERHARMONIE</name><desc>Hohe Wand | Hochfallbasis</desc></wpt>
<wpt lat="47.811081" lon="16.022969"><name>POTATOE FIELD</name><desc>Hohe Wand | Hochfallbasis</desc></wpt>
<wpt lat="47.811081" lon="16.022969"><name>RGASMUS DES TEUFELS</name><desc>Hohe Wand | Hochfallbasis</desc></wpt>
<wpt lat="47.811081" lon="16.022969"><name>SCHILDDRUSENGENEUTOR</name><desc>Hohe Wand | Hochfallbasis</desc></wpt>
<wpt lat="47.811081" lon="16.022969"><name>SENIORENGYMNASTIK</name><desc>Hohe Wand | Hochfallbasis</desc></wpt>
<wpt lat="47.811081" lon="16.022969"><name>TAKE A TRIP</name><desc>Hohe Wand | Hochfallbasis</desc></wpt>
<wpt lat="47.811081" lon="16.022969"><name>TANZ DEN MUSSOLINI</name><desc>Hohe Wand | Hochfallbasis</desc></wpt>
<wpt lat="47.811081" lon="16.022969"><name>THAR</name><desc>Hohe Wand | Hochfallbasis</desc></wpt>
<wpt lat="47.811081" lon="16.022969"><name>jUMBONlC ART</name><desc>Hohe Wand | Hochfallbasis</desc></wpt>
</gpx>
