<?xml version="1.0" encoding="UTF-8"?>
<gpx version="1.1" creator="Vertical Moment" xmlns="http://www.topografix.com/GPX/1/1">
<metadata><name>Hohe Wand | Obere Westwand</name><desc>GPS data for Vertical Moment master v4. Coordinates derived from OSM (OpenStreetMap, (c) OSM contributors, ODbL 1.0), theCrag, climb.sk, outdooractive, Nominatim and legacy master coords.</desc></metadata>
<wpt lat="48.007092" lon="16.036584"><name>"ABSEITS ALLER ÄNGSTE</name><desc>Hohe Wand | Obere Westwand</desc></wpt>
<wpt lat="48.007092" lon="16.036584"><name>BIERWAMPE</name><desc>Hohe Wand | Obere Westwand</desc></wpt>
<wpt lat="48.007092" lon="16.036584"><name>BRAUHAUSUNTE</name><desc>Hohe Wand | Obere Westwand</desc></wpt>
<wpt lat="48.007092" lon="16.036584"><name>C) TAKTIKER</name><desc>Hohe Wand | Obere Westwand</desc></wpt>
<wpt lat="48.007092" lon="16.036584"><name>C)MEISTER</name><desc>Hohe Wand | Obere Westwand</desc></wpt>
<wpt lat="48.007092" lon="16.036584"><name>CAIOLOS</name><desc>Hohe Wand | Obere Westwand</desc></wpt>
<wpt lat="48.007092" lon="16.036584"><name>CAÖLSHARFEN</name><desc>Hohe Wand | Obere Westwand</desc></wpt>
<wpt lat="48.007092" lon="16.036584"><name>CLOVE THE WIND</name><desc>Hohe Wand | Obere Westwand</desc></wpt>
<wpt lat="48.007092" lon="16.036584"><name>GECKO</name><desc>Hohe Wand | Obere Westwand</desc></wpt>
<wpt lat="48.007092" lon="16.036584"><name>GESELLE</name><desc>Hohe Wand | Obere Westwand</desc></wpt>
<wpt lat="48.007092" lon="16.036584"><name>GLÜCKSTAG</name><desc>Hohe Wand | Obere Westwand</desc></wpt>
<wpt lat="48.007092" lon="16.036584"><name>KLETTERSARDINE</name><desc>Hohe Wand | Obere Westwand</desc></wpt>
<wpt lat="48.007092" lon="16.036584"><name>LEHRUNG</name><desc>Hohe Wand | Obere Westwand</desc></wpt>
<wpt lat="48.007092" lon="16.036584"><name>LOVE ME TENDER</name><desc>Hohe Wand | Obere Westwand</desc></wpt>
<wpt lat="48.007092" lon="16.036584"><name>MAUERLÄUFER</name><desc>Hohe Wand | Obere Westwand</desc></wpt>
<wpt lat="48.007092" lon="16.036584"><name>MAURIS</name><desc>Hohe Wand | Obere Westwand</desc></wpt>
<wpt lat="48.007092" lon="16.036584"><name>SCHABERNACK</name><desc>Hohe Wand | Obere Westwand</desc></wpt>
<wpt lat="48.007092" lon="16.036584"><name>SCHRECKSEKUNDE</name><desc>Hohe Wand | Obere Westwand</desc></wpt>
<wpt lat="48.007092" lon="16.036584"><name>SOULTIME</name><desc>Hohe Wand | Obere Westwand</desc></wpt>
<wpt lat="48.007092" lon="16.036584"><name>STURMWARNUNG</name><desc>Hohe Wand | Obere Westwand</desc></wpt>
<wpt lat="48.007092" lon="16.036584"><name>TECHNIKER</name><desc>Hohe Wand | Obere Westwand</desc></wpt>
<wpt lat="48.007092" lon="16.036584"><name>WINDHOSE</name><desc>Hohe Wand | Obere Westwand</desc></wpt>
</gpx>
