<?xml version="1.0" encoding="UTF-8"?>
<gpx version="1.1" creator="Vertical Moment" xmlns="http://www.topografix.com/GPX/1/1">
<metadata><name>Höllental-Rax | Preinerwandplatte</name><desc>GPS data for Vertical Moment master v4. Coordinates derived from OSM (OpenStreetMap, (c) OSM contributors, ODbL 1.0), theCrag, climb.sk, outdooractive, Nominatim and legacy master coords.</desc></metadata>
<wpt lat="47.701485" lon="15.733116"><name>Direkte Preinerwandplatte</name><desc>Höllental-Rax | Preinerwandplatte</desc></wpt>
<wpt lat="47.701431" lon="15.733121"><name>Ostweg</name><desc>Höllental-Rax | Preinerwandplatte</desc></wpt>
</gpx>
