<?xml version="1.0" encoding="UTF-8"?>
<gpx version="1.1" creator="Vertical Moment" xmlns="http://www.topografix.com/GPX/1/1">
<metadata><name>Höllental-Rax | Krottenseemauern</name><desc>GPS data for Vertical Moment master v4. Coordinates derived from OSM (OpenStreetMap, (c) OSM contributors, ODbL 1.0), theCrag, climb.sk, outdooractive, Nominatim and legacy master coords.</desc></metadata>
<wpt lat="47.762484" lon="15.786263"><name>Bügeleisenkante</name><desc>Höllental-Rax | Krottenseemauern</desc></wpt>
<wpt lat="47.762343" lon="15.786356"><name>Die gelbe Sau</name><desc>Höllental-Rax | Krottenseemauern</desc></wpt>
<wpt lat="47.762397" lon="15.786296"><name>Inschallah</name><desc>Höllental-Rax | Krottenseemauern</desc></wpt>
</gpx>
