<?xml version="1.0" encoding="UTF-8"?>
<gpx version="1.1" creator="Vertical Moment" xmlns="http://www.topografix.com/GPX/1/1">
<metadata><name>Höllental-Rax | Vordere Klobenwand</name><desc>GPS data for Vertical Moment master v4. Coordinates derived from OSM (OpenStreetMap, (c) OSM contributors, ODbL 1.0), theCrag, climb.sk, outdooractive, Nominatim and legacy master coords.</desc></metadata>
<wpt lat="47.744925" lon="15.75639"><name>D'oide Wurzn</name><desc>Höllental-Rax | Vordere Klobenwand</desc></wpt>
<wpt lat="47.745346" lon="15.756651"><name>Gaisbauer Jug Weg</name><desc>Höllental-Rax | Vordere Klobenwand</desc></wpt>
<wpt lat="47.745115" lon="15.756551"><name>John Wayne der Alpen</name><desc>Höllental-Rax | Vordere Klobenwand</desc></wpt>
<wpt lat="47.746036" lon="15.756806"><name>Nix für Suderer</name><desc>Höllental-Rax | Vordere Klobenwand</desc></wpt>
<wpt lat="47.745227" lon="15.756628"><name>Zwidawurzn</name><desc>Höllental-Rax | Vordere Klobenwand</desc></wpt>
</gpx>
