<?xml version="1.0" encoding="UTF-8"?>
<gpx version="1.1" creator="Vertical Moment" xmlns="http://www.topografix.com/GPX/1/1">
<metadata><name>Höllental-Rax | Klobenwand</name><desc>GPS data for Vertical Moment master v4. Coordinates derived from OSM (OpenStreetMap, (c) OSM contributors, ODbL 1.0), theCrag, climb.sk, outdooractive, Nominatim and legacy master coords.</desc></metadata>
<wpt lat="47.737344" lon="15.754095"><name>Gelber Pfeiler</name><desc>Höllental-Rax | Klobenwand</desc></wpt>
<wpt lat="47.731686" lon="15.749753"><name>Hocke-Felix-Steig</name><desc>Höllental-Rax | Klobenwand</desc></wpt>
</gpx>
