<?xml version="1.0" encoding="UTF-8"?>
<gpx version="1.1" creator="Vertical Moment" xmlns="http://www.topografix.com/GPX/1/1">
<metadata><name>Höllental-Rax | Wachthüttelturm</name><desc>GPS data for Vertical Moment master v4. Coordinates derived from OSM (OpenStreetMap, (c) OSM contributors, ODbL 1.0), theCrag, climb.sk, outdooractive, Nominatim and legacy master coords.</desc></metadata>
<wpt lat="47.746297" lon="15.764735"><name>Alte Westwand</name><desc>Höllental-Rax | Wachthüttelturm</desc></wpt>
<wpt lat="47.744298" lon="15.765549"><name>Nik&amp;Fred</name><desc>Höllental-Rax | Wachthüttelturm</desc></wpt>
<wpt lat="47.745995" lon="15.764379"><name>Via Helma</name><desc>Höllental-Rax | Wachthüttelturm</desc></wpt>
<wpt lat="47.746652" lon="15.764729"><name>Wachthüttelnord</name><desc>Höllental-Rax | Wachthüttelturm</desc></wpt>
<wpt lat="47.746269" lon="15.764628"><name>Weichtal Wichtel</name><desc>Höllental-Rax | Wachthüttelturm</desc></wpt>
</gpx>
