<?xml version="1.0" encoding="UTF-8"?>
<gpx version="1.1" creator="Vertical Moment" xmlns="http://www.topografix.com/GPX/1/1">
<metadata><name>Kaltenleutgebner Tal | Kaltenleutgebner Grat</name><desc>GPS data for Vertical Moment master v4. Coordinates derived from OSM (OpenStreetMap, (c) OSM contributors, ODbL 1.0), theCrag, climb.sk, outdooractive, Nominatim and legacy master coords.</desc></metadata>
<wpt lat="48.116353" lon="16.213972"><name>Aller Anfang ist Schwer</name><desc>Kaltenleutgebner Tal | Kaltenleutgebner Grat</desc></wpt>
<wpt lat="48.116353" lon="16.213972"><name>Annyplatte</name><desc>Kaltenleutgebner Tal | Kaltenleutgebner Grat</desc></wpt>
<wpt lat="48.116353" lon="16.213972"><name>Der Untergriff</name><desc>Kaltenleutgebner Tal | Kaltenleutgebner Grat</desc></wpt>
<wpt lat="48.116353" lon="16.213972"><name>Direkter Sombrero</name><desc>Kaltenleutgebner Tal | Kaltenleutgebner Grat</desc></wpt>
<wpt lat="48.116353" lon="16.213972"><name>Ecuador</name><desc>Kaltenleutgebner Tal | Kaltenleutgebner Grat</desc></wpt>
<wpt lat="48.116353" lon="16.213972"><name>Gipfelstürmer</name><desc>Kaltenleutgebner Tal | Kaltenleutgebner Grat</desc></wpt>
<wpt lat="48.116353" lon="16.213972"><name>Gratüberschreitung</name><desc>Kaltenleutgebner Tal | Kaltenleutgebner Grat</desc></wpt>
<wpt lat="48.116353" lon="16.213972"><name>Hess Riss</name><desc>Kaltenleutgebner Tal | Kaltenleutgebner Grat</desc></wpt>
<wpt lat="48.116353" lon="16.213972"><name>Kuhschelle</name><desc>Kaltenleutgebner Tal | Kaltenleutgebner Grat</desc></wpt>
<wpt lat="48.116353" lon="16.213972"><name>Norbertsteig</name><desc>Kaltenleutgebner Tal | Kaltenleutgebner Grat</desc></wpt>
<wpt lat="48.116353" lon="16.213972"><name>Potz Blitz</name><desc>Kaltenleutgebner Tal | Kaltenleutgebner Grat</desc></wpt>
<wpt lat="48.116353" lon="16.213972"><name>Rampe</name><desc>Kaltenleutgebner Tal | Kaltenleutgebner Grat</desc></wpt>
<wpt lat="48.116353" lon="16.213972"><name>Salome</name><desc>Kaltenleutgebner Tal | Kaltenleutgebner Grat</desc></wpt>
<wpt lat="48.116353" lon="16.213972"><name>Salvadore</name><desc>Kaltenleutgebner Tal | Kaltenleutgebner Grat</desc></wpt>
<wpt lat="48.116353" lon="16.213972"><name>Sepperl Überhang</name><desc>Kaltenleutgebner Tal | Kaltenleutgebner Grat</desc></wpt>
<wpt lat="48.116353" lon="16.213972"><name>Skottysteig</name><desc>Kaltenleutgebner Tal | Kaltenleutgebner Grat</desc></wpt>
<wpt lat="48.116353" lon="16.213972"><name>Steinnelke</name><desc>Kaltenleutgebner Tal | Kaltenleutgebner Grat</desc></wpt>
<wpt lat="48.116353" lon="16.213972"><name>Zeck</name><desc>Kaltenleutgebner Tal | Kaltenleutgebner Grat</desc></wpt>
</gpx>
