<?xml version="1.0" encoding="UTF-8"?>
<gpx version="1.1" creator="Vertical Moment" xmlns="http://www.topografix.com/GPX/1/1">
<metadata><name>Kaltenleutgebner Tal | Schöffelturm</name><desc>GPS data for Vertical Moment master v4. Coordinates derived from OSM (OpenStreetMap, (c) OSM contributors, ODbL 1.0), theCrag, climb.sk, outdooractive, Nominatim and legacy master coords.</desc></metadata>
<wpt lat="48.117947" lon="16.217209"><name>Eiserner Besen</name><desc>Kaltenleutgebner Tal | Schöffelturm</desc></wpt>
<wpt lat="48.117947" lon="16.217209"><name>Eiserner Pfad</name><desc>Kaltenleutgebner Tal | Schöffelturm</desc></wpt>
<wpt lat="48.117947" lon="16.217209"><name>Schöffel Sei Dank!</name><desc>Kaltenleutgebner Tal | Schöffelturm</desc></wpt>
<wpt lat="48.117947" lon="16.217209"><name>Turmkraft</name><desc>Kaltenleutgebner Tal | Schöffelturm</desc></wpt>
</gpx>
