<?xml version="1.0" encoding="UTF-8"?>
<gpx version="1.1" creator="Vertical Moment" xmlns="http://www.topografix.com/GPX/1/1">
<metadata><name>Kaltenleutgebner Tal | Jungkunststein</name><desc>GPS data for Vertical Moment master v4. Coordinates derived from OSM (OpenStreetMap, (c) OSM contributors, ODbL 1.0), theCrag, climb.sk, outdooractive, Nominatim and legacy master coords.</desc></metadata>
<wpt lat="48.109702" lon="16.204405"><name>Bärenfalle</name><desc>Kaltenleutgebner Tal | Jungkunststein</desc></wpt>
<wpt lat="48.109702" lon="16.204405"><name>Die Junge Bärin</name><desc>Kaltenleutgebner Tal | Jungkunststein</desc></wpt>
<wpt lat="48.109702" lon="16.204405"><name>Direkte Nord</name><desc>Kaltenleutgebner Tal | Jungkunststein</desc></wpt>
<wpt lat="48.109702" lon="16.204405"><name>Eierbär</name><desc>Kaltenleutgebner Tal | Jungkunststein</desc></wpt>
<wpt lat="48.109702" lon="16.204405"><name>Försterweg</name><desc>Kaltenleutgebner Tal | Jungkunststein</desc></wpt>
<wpt lat="48.109702" lon="16.204405"><name>Grosser Bär</name><desc>Kaltenleutgebner Tal | Jungkunststein</desc></wpt>
<wpt lat="48.109702" lon="16.204405"><name>Hacki Bär</name><desc>Kaltenleutgebner Tal | Jungkunststein</desc></wpt>
<wpt lat="48.109702" lon="16.204405"><name>Meister Petz</name><desc>Kaltenleutgebner Tal | Jungkunststein</desc></wpt>
<wpt lat="48.109702" lon="16.204405"><name>Nordwandriss</name><desc>Kaltenleutgebner Tal | Jungkunststein</desc></wpt>
<wpt lat="48.109702" lon="16.204405"><name>Problembär</name><desc>Kaltenleutgebner Tal | Jungkunststein</desc></wpt>
<wpt lat="48.109702" lon="16.204405"><name>Tanzbär</name><desc>Kaltenleutgebner Tal | Jungkunststein</desc></wpt>
<wpt lat="48.109702" lon="16.204405"><name>Verquerer Bär</name><desc>Kaltenleutgebner Tal | Jungkunststein</desc></wpt>
<wpt lat="48.109702" lon="16.204405"><name>Zottelbär</name><desc>Kaltenleutgebner Tal | Jungkunststein</desc></wpt>
</gpx>
