<?xml version="1.0" encoding="UTF-8"?>
<gpx version="1.1" creator="Vertical Moment" xmlns="http://www.topografix.com/GPX/1/1">
<metadata><name>Kaltenleutgebner Tal | Löwenkopf</name><desc>GPS data for Vertical Moment master v4. Coordinates derived from OSM (OpenStreetMap, (c) OSM contributors, ODbL 1.0), theCrag, climb.sk, outdooractive, Nominatim and legacy master coords.</desc></metadata>
<wpt lat="48.119135" lon="16.211473"><name>Donarit</name><desc>Kaltenleutgebner Tal | Löwenkopf</desc></wpt>
<wpt lat="48.119135" lon="16.211473"><name>Hyänenkiller</name><desc>Kaltenleutgebner Tal | Löwenkopf</desc></wpt>
<wpt lat="48.119135" lon="16.211473"><name>Junglöwe</name><desc>Kaltenleutgebner Tal | Löwenkopf</desc></wpt>
<wpt lat="48.119135" lon="16.211473"><name>Käptn Dynamit</name><desc>Kaltenleutgebner Tal | Löwenkopf</desc></wpt>
<wpt lat="48.119135" lon="16.211473"><name>König der Löwen</name><desc>Kaltenleutgebner Tal | Löwenkopf</desc></wpt>
<wpt lat="48.119135" lon="16.211473"><name>Königsetappe</name><desc>Kaltenleutgebner Tal | Löwenkopf</desc></wpt>
<wpt lat="48.119135" lon="16.211473"><name>Löwenbart</name><desc>Kaltenleutgebner Tal | Löwenkopf</desc></wpt>
</gpx>
