<?xml version="1.0" encoding="UTF-8"?>
<gpx version="1.1" creator="Vertical Moment" xmlns="http://www.topografix.com/GPX/1/1">
<metadata><name>Kaltenleutgebner Tal | Kalksburger Grat</name><desc>GPS data for Vertical Moment master v4. Coordinates derived from OSM (OpenStreetMap, (c) OSM contributors, ODbL 1.0), theCrag, climb.sk, outdooractive, Nominatim and legacy master coords.</desc></metadata>
<wpt lat="48.140476" lon="16.243628"><name>Höhlenbär</name><desc>Kaltenleutgebner Tal | Kalksburger Grat</desc></wpt>
<wpt lat="48.140476" lon="16.243628"><name>Kante</name><desc>Kaltenleutgebner Tal | Kalksburger Grat</desc></wpt>
<wpt lat="48.140476" lon="16.243628"><name>Pfeiler</name><desc>Kaltenleutgebner Tal | Kalksburger Grat</desc></wpt>
<wpt lat="48.140476" lon="16.243628"><name>Rechte Flanke</name><desc>Kaltenleutgebner Tal | Kalksburger Grat</desc></wpt>
<wpt lat="48.140476" lon="16.243628"><name>Riss</name><desc>Kaltenleutgebner Tal | Kalksburger Grat</desc></wpt>
<wpt lat="48.140476" lon="16.243628"><name>Verschneidung</name><desc>Kaltenleutgebner Tal | Kalksburger Grat</desc></wpt>
</gpx>
