<?xml version="1.0" encoding="UTF-8"?>
<gpx version="1.1" creator="Vertical Moment" xmlns="http://www.topografix.com/GPX/1/1">
<metadata><name>Kaltenleutgebner Tal | Luckete Wand</name><desc>GPS data for Vertical Moment master v4. Coordinates derived from OSM (OpenStreetMap, (c) OSM contributors, ODbL 1.0), theCrag, climb.sk, outdooractive, Nominatim and legacy master coords.</desc></metadata>
<wpt lat="48.112115" lon="16.200473"><name>Athlet</name><desc>Kaltenleutgebner Tal | Luckete Wand</desc></wpt>
<wpt lat="48.112115" lon="16.200473"><name>Aus Alten Zeiten</name><desc>Kaltenleutgebner Tal | Luckete Wand</desc></wpt>
<wpt lat="48.112115" lon="16.200473"><name>Bananenföhre</name><desc>Kaltenleutgebner Tal | Luckete Wand</desc></wpt>
<wpt lat="48.112115" lon="16.200473"><name>Blätterrauschen</name><desc>Kaltenleutgebner Tal | Luckete Wand</desc></wpt>
<wpt lat="48.112115" lon="16.200473"><name>Buchenloch</name><desc>Kaltenleutgebner Tal | Luckete Wand</desc></wpt>
<wpt lat="48.112115" lon="16.200473"><name>Croatdance</name><desc>Kaltenleutgebner Tal | Luckete Wand</desc></wpt>
<wpt lat="48.112115" lon="16.200473"><name>Dachrinne</name><desc>Kaltenleutgebner Tal | Luckete Wand</desc></wpt>
<wpt lat="48.112115" lon="16.200473"><name>Dragon</name><desc>Kaltenleutgebner Tal | Luckete Wand</desc></wpt>
<wpt lat="48.112115" lon="16.200473"><name>Dreamer</name><desc>Kaltenleutgebner Tal | Luckete Wand</desc></wpt>
<wpt lat="48.112115" lon="16.200473"><name>Dreamer (Nr 39)</name><desc>Kaltenleutgebner Tal | Luckete Wand</desc></wpt>
<wpt lat="48.112115" lon="16.200473"><name>Dreieck</name><desc>Kaltenleutgebner Tal | Luckete Wand</desc></wpt>
<wpt lat="48.112115" lon="16.200473"><name>Dreieck (Nr 40)</name><desc>Kaltenleutgebner Tal | Luckete Wand</desc></wpt>
<wpt lat="48.112115" lon="16.200473"><name>Felszacken</name><desc>Kaltenleutgebner Tal | Luckete Wand</desc></wpt>
<wpt lat="48.112115" lon="16.200473"><name>Finale</name><desc>Kaltenleutgebner Tal | Luckete Wand</desc></wpt>
<wpt lat="48.112115" lon="16.200473"><name>Für Alle</name><desc>Kaltenleutgebner Tal | Luckete Wand</desc></wpt>
<wpt lat="48.112115" lon="16.200473"><name>Ganz Lustig</name><desc>Kaltenleutgebner Tal | Luckete Wand</desc></wpt>
<wpt lat="48.112115" lon="16.200473"><name>Gegenlicht</name><desc>Kaltenleutgebner Tal | Luckete Wand</desc></wpt>
<wpt lat="48.112115" lon="16.200473"><name>Henkers Dessert</name><desc>Kaltenleutgebner Tal | Luckete Wand</desc></wpt>
<wpt lat="48.112115" lon="16.200473"><name>Immer Mehr</name><desc>Kaltenleutgebner Tal | Luckete Wand</desc></wpt>
<wpt lat="48.112115" lon="16.200473"><name>Kantenreiter</name><desc>Kaltenleutgebner Tal | Luckete Wand</desc></wpt>
<wpt lat="48.112115" lon="16.200473"><name>Klarer Fall</name><desc>Kaltenleutgebner Tal | Luckete Wand</desc></wpt>
<wpt lat="48.112115" lon="16.200473"><name>Klassiker</name><desc>Kaltenleutgebner Tal | Luckete Wand</desc></wpt>
<wpt lat="48.112115" lon="16.200473"><name>Kleiner Pfeiler</name><desc>Kaltenleutgebner Tal | Luckete Wand</desc></wpt>
<wpt lat="48.112115" lon="16.200473"><name>Kleiner Riss</name><desc>Kaltenleutgebner Tal | Luckete Wand</desc></wpt>
<wpt lat="48.112115" lon="16.200473"><name>Kraftakt</name><desc>Kaltenleutgebner Tal | Luckete Wand</desc></wpt>
<wpt lat="48.112115" lon="16.200473"><name>Lange Rampe</name><desc>Kaltenleutgebner Tal | Luckete Wand</desc></wpt>
<wpt lat="48.112115" lon="16.200473"><name>Little Jumps</name><desc>Kaltenleutgebner Tal | Luckete Wand</desc></wpt>
<wpt lat="48.112115" lon="16.200473"><name>Luckete Wand Querung</name><desc>Kaltenleutgebner Tal | Luckete Wand</desc></wpt>
<wpt lat="48.112115" lon="16.200473"><name>Mach's Schwieriger</name><desc>Kaltenleutgebner Tal | Luckete Wand</desc></wpt>
<wpt lat="48.112115" lon="16.200473"><name>Mit Sanfter Kraft</name><desc>Kaltenleutgebner Tal | Luckete Wand</desc></wpt>
<wpt lat="48.112115" lon="16.200473"><name>Nase</name><desc>Kaltenleutgebner Tal | Luckete Wand</desc></wpt>
<wpt lat="48.112115" lon="16.200473"><name>Nicht Normal</name><desc>Kaltenleutgebner Tal | Luckete Wand</desc></wpt>
<wpt lat="48.112115" lon="16.200473"><name>Normalweg</name><desc>Kaltenleutgebner Tal | Luckete Wand</desc></wpt>
<wpt lat="48.112115" lon="16.200473"><name>Nur Zu</name><desc>Kaltenleutgebner Tal | Luckete Wand</desc></wpt>
<wpt lat="48.112115" lon="16.200473"><name>Oskar Steig</name><desc>Kaltenleutgebner Tal | Luckete Wand</desc></wpt>
<wpt lat="48.112115" lon="16.200473"><name>Polarisation</name><desc>Kaltenleutgebner Tal | Luckete Wand</desc></wpt>
<wpt lat="48.112115" lon="16.200473"><name>Riesenloch</name><desc>Kaltenleutgebner Tal | Luckete Wand</desc></wpt>
<wpt lat="48.112115" lon="16.200473"><name>Rote Punkte</name><desc>Kaltenleutgebner Tal | Luckete Wand</desc></wpt>
<wpt lat="48.112115" lon="16.200473"><name>Rote Punkte (Nr 41)</name><desc>Kaltenleutgebner Tal | Luckete Wand</desc></wpt>
<wpt lat="48.112115" lon="16.200473"><name>Roter Zeck</name><desc>Kaltenleutgebner Tal | Luckete Wand</desc></wpt>
<wpt lat="48.112115" lon="16.200473"><name>Ruachl</name><desc>Kaltenleutgebner Tal | Luckete Wand</desc></wpt>
<wpt lat="48.112115" lon="16.200473"><name>Schiefer Überhang</name><desc>Kaltenleutgebner Tal | Luckete Wand</desc></wpt>
<wpt lat="48.112115" lon="16.200473"><name>Serpentine</name><desc>Kaltenleutgebner Tal | Luckete Wand</desc></wpt>
<wpt lat="48.112115" lon="16.200473"><name>Soso</name><desc>Kaltenleutgebner Tal | Luckete Wand</desc></wpt>
<wpt lat="48.112115" lon="16.200473"><name>TP</name><desc>Kaltenleutgebner Tal | Luckete Wand</desc></wpt>
<wpt lat="48.112115" lon="16.200473"><name>Traum</name><desc>Kaltenleutgebner Tal | Luckete Wand</desc></wpt>
<wpt lat="48.112115" lon="16.200473"><name>Traverse Oben</name><desc>Kaltenleutgebner Tal | Luckete Wand</desc></wpt>
<wpt lat="48.112115" lon="16.200473"><name>Traverse Unten</name><desc>Kaltenleutgebner Tal | Luckete Wand</desc></wpt>
<wpt lat="48.112115" lon="16.200473"><name>Unschlüssig</name><desc>Kaltenleutgebner Tal | Luckete Wand</desc></wpt>
<wpt lat="48.112115" lon="16.200473"><name>Verschneidung</name><desc>Kaltenleutgebner Tal | Luckete Wand</desc></wpt>
<wpt lat="48.112115" lon="16.200473"><name>Wohin</name><desc>Kaltenleutgebner Tal | Luckete Wand</desc></wpt>
</gpx>
