<?xml version="1.0" encoding="UTF-8"?>
<gpx version="1.1" creator="Vertical Moment" xmlns="http://www.topografix.com/GPX/1/1">
<metadata><name>Kaltenleutgebner Tal | Höllenstein</name><desc>GPS data for Vertical Moment master v4. Coordinates derived from OSM (OpenStreetMap, (c) OSM contributors, ODbL 1.0), theCrag, climb.sk, outdooractive, Nominatim and legacy master coords.</desc></metadata>
<wpt lat="48.096515" lon="16.184047"><name>Aller Anfang ist Schwer</name><desc>Kaltenleutgebner Tal | Höllenstein</desc></wpt>
<wpt lat="48.096515" lon="16.184047"><name>Fanatics</name><desc>Kaltenleutgebner Tal | Höllenstein</desc></wpt>
<wpt lat="48.096515" lon="16.184047"><name>Holter di Boulder</name><desc>Kaltenleutgebner Tal | Höllenstein</desc></wpt>
<wpt lat="48.096515" lon="16.184047"><name>Hänsel</name><desc>Kaltenleutgebner Tal | Höllenstein</desc></wpt>
<wpt lat="48.096515" lon="16.184047"><name>Höllengeist</name><desc>Kaltenleutgebner Tal | Höllenstein</desc></wpt>
<wpt lat="48.096515" lon="16.184047"><name>Karinweg</name><desc>Kaltenleutgebner Tal | Höllenstein</desc></wpt>
<wpt lat="48.096515" lon="16.184047"><name>Karl Riss</name><desc>Kaltenleutgebner Tal | Höllenstein</desc></wpt>
<wpt lat="48.096515" lon="16.184047"><name>Lochgeist</name><desc>Kaltenleutgebner Tal | Höllenstein</desc></wpt>
<wpt lat="48.096515" lon="16.184047"><name>Nordwestkante</name><desc>Kaltenleutgebner Tal | Höllenstein</desc></wpt>
<wpt lat="48.096515" lon="16.184047"><name>Oh Teufel</name><desc>Kaltenleutgebner Tal | Höllenstein</desc></wpt>
<wpt lat="48.096515" lon="16.184047"><name>Quergang</name><desc>Kaltenleutgebner Tal | Höllenstein</desc></wpt>
<wpt lat="48.096515" lon="16.184047"><name>Südkante</name><desc>Kaltenleutgebner Tal | Höllenstein</desc></wpt>
<wpt lat="48.096515" lon="16.184047"><name>Südriss</name><desc>Kaltenleutgebner Tal | Höllenstein</desc></wpt>
<wpt lat="48.096515" lon="16.184047"><name>Warmer Teufel</name><desc>Kaltenleutgebner Tal | Höllenstein</desc></wpt>
</gpx>
