<?xml version="1.0" encoding="UTF-8"?>
<gpx version="1.1" creator="Vertical Moment" xmlns="http://www.topografix.com/GPX/1/1">
<metadata><name>Kaltenleutgebner Tal | Lutterwand</name><desc>GPS data for Vertical Moment master v4. Coordinates derived from OSM (OpenStreetMap, (c) OSM contributors, ODbL 1.0), theCrag, climb.sk, outdooractive, Nominatim and legacy master coords.</desc></metadata>
<wpt lat="48.128969" lon="16.250156"><name>Athleten Vortreten</name><desc>Kaltenleutgebner Tal | Lutterwand</desc></wpt>
<wpt lat="48.128969" lon="16.250156"><name>Der Urschrei</name><desc>Kaltenleutgebner Tal | Lutterwand</desc></wpt>
<wpt lat="48.128969" lon="16.250156"><name>Diagonale</name><desc>Kaltenleutgebner Tal | Lutterwand</desc></wpt>
<wpt lat="48.128969" lon="16.250156"><name>Dreieck Links</name><desc>Kaltenleutgebner Tal | Lutterwand</desc></wpt>
<wpt lat="48.128969" lon="16.250156"><name>Dreieck Rechts</name><desc>Kaltenleutgebner Tal | Lutterwand</desc></wpt>
<wpt lat="48.128969" lon="16.250156"><name>Friends</name><desc>Kaltenleutgebner Tal | Lutterwand</desc></wpt>
<wpt lat="48.128969" lon="16.250156"><name>Grosse Schuppe</name><desc>Kaltenleutgebner Tal | Lutterwand</desc></wpt>
<wpt lat="48.128969" lon="16.250156"><name>Höhlenüberhang</name><desc>Kaltenleutgebner Tal | Lutterwand</desc></wpt>
<wpt lat="48.128969" lon="16.250156"><name>Kamin</name><desc>Kaltenleutgebner Tal | Lutterwand</desc></wpt>
<wpt lat="48.128969" lon="16.250156"><name>Kleine Schuppe</name><desc>Kaltenleutgebner Tal | Lutterwand</desc></wpt>
<wpt lat="48.128969" lon="16.250156"><name>Lutter Platte</name><desc>Kaltenleutgebner Tal | Lutterwand</desc></wpt>
<wpt lat="48.128969" lon="16.250156"><name>Mauerblümchen</name><desc>Kaltenleutgebner Tal | Lutterwand</desc></wpt>
<wpt lat="48.128969" lon="16.250156"><name>Neue Welt</name><desc>Kaltenleutgebner Tal | Lutterwand</desc></wpt>
<wpt lat="48.128969" lon="16.250156"><name>Normalweg</name><desc>Kaltenleutgebner Tal | Lutterwand</desc></wpt>
<wpt lat="48.128969" lon="16.250156"><name>Nr 26</name><desc>Kaltenleutgebner Tal | Lutterwand</desc></wpt>
<wpt lat="48.128969" lon="16.250156"><name>Nr 27</name><desc>Kaltenleutgebner Tal | Lutterwand</desc></wpt>
<wpt lat="48.128969" lon="16.250156"><name>Nr 28</name><desc>Kaltenleutgebner Tal | Lutterwand</desc></wpt>
<wpt lat="48.128969" lon="16.250156"><name>Pfeilschnell</name><desc>Kaltenleutgebner Tal | Lutterwand</desc></wpt>
<wpt lat="48.128969" lon="16.250156"><name>Platte</name><desc>Kaltenleutgebner Tal | Lutterwand</desc></wpt>
<wpt lat="48.128969" lon="16.250156"><name>Plattenschleicher</name><desc>Kaltenleutgebner Tal | Lutterwand</desc></wpt>
<wpt lat="48.128969" lon="16.250156"><name>Sandplatte</name><desc>Kaltenleutgebner Tal | Lutterwand</desc></wpt>
<wpt lat="48.128969" lon="16.250156"><name>Sanduhrenparadies</name><desc>Kaltenleutgebner Tal | Lutterwand</desc></wpt>
<wpt lat="48.128969" lon="16.250156"><name>Sonnenwende</name><desc>Kaltenleutgebner Tal | Lutterwand</desc></wpt>
<wpt lat="48.128969" lon="16.250156"><name>Verschneidung</name><desc>Kaltenleutgebner Tal | Lutterwand</desc></wpt>
<wpt lat="48.128969" lon="16.250156"><name>Verschneidung (Nr 25)</name><desc>Kaltenleutgebner Tal | Lutterwand</desc></wpt>
<wpt lat="48.128969" lon="16.250156"><name>Vorbau</name><desc>Kaltenleutgebner Tal | Lutterwand</desc></wpt>
<wpt lat="48.128969" lon="16.250156"><name>Weg der Erstbesteiger</name><desc>Kaltenleutgebner Tal | Lutterwand</desc></wpt>
<wpt lat="48.128969" lon="16.250156"><name>Wild Entschlossen</name><desc>Kaltenleutgebner Tal | Lutterwand</desc></wpt>
</gpx>
