<?xml version="1.0" encoding="UTF-8"?>
<gpx version="1.1" creator="Vertical Moment" xmlns="http://www.topografix.com/GPX/1/1">
<metadata><name>Kaltenleutgebner Tal | Mizzi Langer Wand</name><desc>GPS data for Vertical Moment master v4. Coordinates derived from OSM (OpenStreetMap, (c) OSM contributors, ODbL 1.0), theCrag, climb.sk, outdooractive, Nominatim and legacy master coords.</desc></metadata>
<wpt lat="48.131243" lon="16.252346"><name>Ameisenplatte</name><desc>Kaltenleutgebner Tal | Mizzi Langer Wand</desc></wpt>
<wpt lat="48.131243" lon="16.252346"><name>Ferserlüberhang</name><desc>Kaltenleutgebner Tal | Mizzi Langer Wand</desc></wpt>
<wpt lat="48.131243" lon="16.252346"><name>Grosse Diagonale</name><desc>Kaltenleutgebner Tal | Mizzi Langer Wand</desc></wpt>
<wpt lat="48.131243" lon="16.252346"><name>Grosse Platte</name><desc>Kaltenleutgebner Tal | Mizzi Langer Wand</desc></wpt>
<wpt lat="48.131243" lon="16.252346"><name>Grosses Dreieck</name><desc>Kaltenleutgebner Tal | Mizzi Langer Wand</desc></wpt>
<wpt lat="48.131243" lon="16.252346"><name>Grosses Dreieck Links</name><desc>Kaltenleutgebner Tal | Mizzi Langer Wand</desc></wpt>
<wpt lat="48.131243" lon="16.252346"><name>Hangelriss</name><desc>Kaltenleutgebner Tal | Mizzi Langer Wand</desc></wpt>
<wpt lat="48.131243" lon="16.252346"><name>Innsbrucker</name><desc>Kaltenleutgebner Tal | Mizzi Langer Wand</desc></wpt>
<wpt lat="48.131243" lon="16.252346"><name>Kleines Dreieck</name><desc>Kaltenleutgebner Tal | Mizzi Langer Wand</desc></wpt>
<wpt lat="48.131243" lon="16.252346"><name>Kleines Dreieck Links</name><desc>Kaltenleutgebner Tal | Mizzi Langer Wand</desc></wpt>
<wpt lat="48.131243" lon="16.252346"><name>Langerwand Querung</name><desc>Kaltenleutgebner Tal | Mizzi Langer Wand</desc></wpt>
<wpt lat="48.131243" lon="16.252346"><name>Linke Sepp Bauer Platte</name><desc>Kaltenleutgebner Tal | Mizzi Langer Wand</desc></wpt>
<wpt lat="48.131243" lon="16.252346"><name>Linker Pfeilerweg</name><desc>Kaltenleutgebner Tal | Mizzi Langer Wand</desc></wpt>
<wpt lat="48.131243" lon="16.252346"><name>Linker Weg</name><desc>Kaltenleutgebner Tal | Mizzi Langer Wand</desc></wpt>
<wpt lat="48.131243" lon="16.252346"><name>Neue Ameisenplatte</name><desc>Kaltenleutgebner Tal | Mizzi Langer Wand</desc></wpt>
<wpt lat="48.131243" lon="16.252346"><name>Nr 14</name><desc>Kaltenleutgebner Tal | Mizzi Langer Wand</desc></wpt>
<wpt lat="48.131243" lon="16.252346"><name>Pfeilerweg</name><desc>Kaltenleutgebner Tal | Mizzi Langer Wand</desc></wpt>
<wpt lat="48.131243" lon="16.252346"><name>Rampe</name><desc>Kaltenleutgebner Tal | Mizzi Langer Wand</desc></wpt>
<wpt lat="48.131243" lon="16.252346"><name>Rechter Pfeilerweg</name><desc>Kaltenleutgebner Tal | Mizzi Langer Wand</desc></wpt>
<wpt lat="48.131243" lon="16.252346"><name>Rhinozeros</name><desc>Kaltenleutgebner Tal | Mizzi Langer Wand</desc></wpt>
<wpt lat="48.131243" lon="16.252346"><name>Rinne</name><desc>Kaltenleutgebner Tal | Mizzi Langer Wand</desc></wpt>
<wpt lat="48.131243" lon="16.252346"><name>SKK Platte</name><desc>Kaltenleutgebner Tal | Mizzi Langer Wand</desc></wpt>
<wpt lat="48.131243" lon="16.252346"><name>Schwarze Platte Direkt</name><desc>Kaltenleutgebner Tal | Mizzi Langer Wand</desc></wpt>
<wpt lat="48.131243" lon="16.252346"><name>Schwarze Platte Links</name><desc>Kaltenleutgebner Tal | Mizzi Langer Wand</desc></wpt>
<wpt lat="48.131243" lon="16.252346"><name>Sepp Bauer Platte</name><desc>Kaltenleutgebner Tal | Mizzi Langer Wand</desc></wpt>
<wpt lat="48.131243" lon="16.252346"><name>Sichel</name><desc>Kaltenleutgebner Tal | Mizzi Langer Wand</desc></wpt>
</gpx>
