<?xml version="1.0" encoding="UTF-8"?>
<gpx version="1.1" creator="Vertical Moment" xmlns="http://www.topografix.com/GPX/1/1">
<metadata><name>Kaltenleutgebner Tal | Streberwände</name><desc>GPS data for Vertical Moment master v4. Coordinates derived from OSM (OpenStreetMap, (c) OSM contributors, ODbL 1.0), theCrag, climb.sk, outdooractive, Nominatim and legacy master coords.</desc></metadata>
<wpt lat="48.11711" lon="16.215608"><name>Aller Anfang ist Schwer</name><desc>Kaltenleutgebner Tal | Streberwände</desc></wpt>
<wpt lat="48.11711" lon="16.215608"><name>Alter Weg</name><desc>Kaltenleutgebner Tal | Streberwände</desc></wpt>
<wpt lat="48.11711" lon="16.215608"><name>Ameisenweg</name><desc>Kaltenleutgebner Tal | Streberwände</desc></wpt>
<wpt lat="48.11711" lon="16.215608"><name>Aqui Aqua</name><desc>Kaltenleutgebner Tal | Streberwände</desc></wpt>
<wpt lat="48.11711" lon="16.215608"><name>Breakfast Tea</name><desc>Kaltenleutgebner Tal | Streberwände</desc></wpt>
<wpt lat="48.11711" lon="16.215608"><name>Chiqita</name><desc>Kaltenleutgebner Tal | Streberwände</desc></wpt>
<wpt lat="48.11711" lon="16.215608"><name>Diagonale</name><desc>Kaltenleutgebner Tal | Streberwände</desc></wpt>
<wpt lat="48.11711" lon="16.215608"><name>Ein Echter Wiener Fällt Nicht Runter</name><desc>Kaltenleutgebner Tal | Streberwände</desc></wpt>
<wpt lat="48.11711" lon="16.215608"><name>Fasslkante</name><desc>Kaltenleutgebner Tal | Streberwände</desc></wpt>
<wpt lat="48.11711" lon="16.215608"><name>Für Streber</name><desc>Kaltenleutgebner Tal | Streberwände</desc></wpt>
<wpt lat="48.11711" lon="16.215608"><name>Ganz Rechter Quergang</name><desc>Kaltenleutgebner Tal | Streberwände</desc></wpt>
<wpt lat="48.11711" lon="16.215608"><name>Gute Alte Zeiten</name><desc>Kaltenleutgebner Tal | Streberwände</desc></wpt>
<wpt lat="48.11711" lon="16.215608"><name>Jähr</name><desc>Kaltenleutgebner Tal | Streberwände</desc></wpt>
<wpt lat="48.11711" lon="16.215608"><name>Kein Saft</name><desc>Kaltenleutgebner Tal | Streberwände</desc></wpt>
<wpt lat="48.11711" lon="16.215608"><name>Keine Kraft</name><desc>Kaltenleutgebner Tal | Streberwände</desc></wpt>
<wpt lat="48.11711" lon="16.215608"><name>Kleine Monster Zeigen Muskeln</name><desc>Kaltenleutgebner Tal | Streberwände</desc></wpt>
<wpt lat="48.11711" lon="16.215608"><name>Linker Riss</name><desc>Kaltenleutgebner Tal | Streberwände</desc></wpt>
<wpt lat="48.11711" lon="16.215608"><name>Nicht Meckern</name><desc>Kaltenleutgebner Tal | Streberwände</desc></wpt>
<wpt lat="48.11711" lon="16.215608"><name>Plattiger Riss</name><desc>Kaltenleutgebner Tal | Streberwände</desc></wpt>
<wpt lat="48.11711" lon="16.215608"><name>Rechter Quergang</name><desc>Kaltenleutgebner Tal | Streberwände</desc></wpt>
<wpt lat="48.11711" lon="16.215608"><name>Schlechte Zeiten</name><desc>Kaltenleutgebner Tal | Streberwände</desc></wpt>
<wpt lat="48.11711" lon="16.215608"><name>Schlucht</name><desc>Kaltenleutgebner Tal | Streberwände</desc></wpt>
<wpt lat="48.11711" lon="16.215608"><name>Schrei der Angst</name><desc>Kaltenleutgebner Tal | Streberwände</desc></wpt>
<wpt lat="48.11711" lon="16.215608"><name>Schwarze Wand</name><desc>Kaltenleutgebner Tal | Streberwände</desc></wpt>
<wpt lat="48.11711" lon="16.215608"><name>Seifenquergang</name><desc>Kaltenleutgebner Tal | Streberwände</desc></wpt>
<wpt lat="48.11711" lon="16.215608"><name>Steiler Weg</name><desc>Kaltenleutgebner Tal | Streberwände</desc></wpt>
<wpt lat="48.11711" lon="16.215608"><name>Streberkante</name><desc>Kaltenleutgebner Tal | Streberwände</desc></wpt>
<wpt lat="48.11711" lon="16.215608"><name>Streberweg</name><desc>Kaltenleutgebner Tal | Streberwände</desc></wpt>
<wpt lat="48.11711" lon="16.215608"><name>Teatime</name><desc>Kaltenleutgebner Tal | Streberwände</desc></wpt>
<wpt lat="48.11711" lon="16.215608"><name>Wind</name><desc>Kaltenleutgebner Tal | Streberwände</desc></wpt>
<wpt lat="48.11711" lon="16.215608"><name>Zebrariss</name><desc>Kaltenleutgebner Tal | Streberwände</desc></wpt>
</gpx>
