<?xml version="1.0" encoding="UTF-8"?>
<gpx version="1.1" creator="Vertical Moment" xmlns="http://www.topografix.com/GPX/1/1">
<metadata><name>Kaltenleutgebner Tal | Kirchengrat</name><desc>GPS data for Vertical Moment master v4. Coordinates derived from OSM (OpenStreetMap, (c) OSM contributors, ODbL 1.0), theCrag, climb.sk, outdooractive, Nominatim and legacy master coords.</desc></metadata>
<wpt lat="48.113728" lon="16.197626"><name>Alter Fuchs</name><desc>Kaltenleutgebner Tal | Kirchengrat</desc></wpt>
<wpt lat="48.113728" lon="16.197626"><name>Buntspecht</name><desc>Kaltenleutgebner Tal | Kirchengrat</desc></wpt>
<wpt lat="48.113728" lon="16.197626"><name>Kleiner Fuchs</name><desc>Kaltenleutgebner Tal | Kirchengrat</desc></wpt>
<wpt lat="48.113728" lon="16.197626"><name>Ruf des Kolkraben</name><desc>Kaltenleutgebner Tal | Kirchengrat</desc></wpt>
<wpt lat="48.113728" lon="16.197626"><name>Waldmaus</name><desc>Kaltenleutgebner Tal | Kirchengrat</desc></wpt>
</gpx>
