<?xml version="1.0" encoding="UTF-8"?>
<gpx version="1.1" creator="Vertical Moment" xmlns="http://www.topografix.com/GPX/1/1">
<metadata><name>Kaltenleutgebner Tal | Waldmühle</name><desc>GPS data for Vertical Moment master v4. Coordinates derived from OSM (OpenStreetMap, (c) OSM contributors, ODbL 1.0), theCrag, climb.sk, outdooractive, Nominatim and legacy master coords.</desc></metadata>
<wpt lat="48.118374" lon="16.221751"><name>18er Kante</name><desc>Kaltenleutgebner Tal | Waldmühle</desc></wpt>
<wpt lat="48.118374" lon="16.221751"><name>A - Killer</name><desc>Kaltenleutgebner Tal | Waldmühle</desc></wpt>
<wpt lat="48.118374" lon="16.221751"><name>Alles im Lot</name><desc>Kaltenleutgebner Tal | Waldmühle</desc></wpt>
<wpt lat="48.118374" lon="16.221751"><name>Bauchpinsler</name><desc>Kaltenleutgebner Tal | Waldmühle</desc></wpt>
<wpt lat="48.118374" lon="16.221751"><name>Baumsteig</name><desc>Kaltenleutgebner Tal | Waldmühle</desc></wpt>
<wpt lat="48.118374" lon="16.221751"><name>Baumsteig 2</name><desc>Kaltenleutgebner Tal | Waldmühle</desc></wpt>
<wpt lat="48.118374" lon="16.221751"><name>Berger</name><desc>Kaltenleutgebner Tal | Waldmühle</desc></wpt>
<wpt lat="48.118374" lon="16.221751"><name>Boris Risse</name><desc>Kaltenleutgebner Tal | Waldmühle</desc></wpt>
<wpt lat="48.118374" lon="16.221751"><name>Direkte Ro Kante</name><desc>Kaltenleutgebner Tal | Waldmühle</desc></wpt>
<wpt lat="48.118374" lon="16.221751"><name>Direkter Berger</name><desc>Kaltenleutgebner Tal | Waldmühle</desc></wpt>
<wpt lat="48.118374" lon="16.221751"><name>Direttissima</name><desc>Kaltenleutgebner Tal | Waldmühle</desc></wpt>
<wpt lat="48.118374" lon="16.221751"><name>Drückeberger</name><desc>Kaltenleutgebner Tal | Waldmühle</desc></wpt>
<wpt lat="48.118374" lon="16.221751"><name>Fight Gravity</name><desc>Kaltenleutgebner Tal | Waldmühle</desc></wpt>
<wpt lat="48.118374" lon="16.221751"><name>Herzweg</name><desc>Kaltenleutgebner Tal | Waldmühle</desc></wpt>
<wpt lat="48.118374" lon="16.221751"><name>Hoppala</name><desc>Kaltenleutgebner Tal | Waldmühle</desc></wpt>
<wpt lat="48.118374" lon="16.221751"><name>Idealist</name><desc>Kaltenleutgebner Tal | Waldmühle</desc></wpt>
<wpt lat="48.118374" lon="16.221751"><name>Idealistenwahn</name><desc>Kaltenleutgebner Tal | Waldmühle</desc></wpt>
<wpt lat="48.118374" lon="16.221751"><name>Kamin</name><desc>Kaltenleutgebner Tal | Waldmühle</desc></wpt>
<wpt lat="48.118374" lon="16.221751"><name>König</name><desc>Kaltenleutgebner Tal | Waldmühle</desc></wpt>
<wpt lat="48.118374" lon="16.221751"><name>Magnesiaschrei</name><desc>Kaltenleutgebner Tal | Waldmühle</desc></wpt>
<wpt lat="48.118374" lon="16.221751"><name>Mephisto</name><desc>Kaltenleutgebner Tal | Waldmühle</desc></wpt>
<wpt lat="48.118374" lon="16.221751"><name>Mittelweg</name><desc>Kaltenleutgebner Tal | Waldmühle</desc></wpt>
<wpt lat="48.118374" lon="16.221751"><name>Neue Direttissima</name><desc>Kaltenleutgebner Tal | Waldmühle</desc></wpt>
<wpt lat="48.118374" lon="16.221751"><name>Oberlehrer</name><desc>Kaltenleutgebner Tal | Waldmühle</desc></wpt>
<wpt lat="48.118374" lon="16.221751"><name>Othmar</name><desc>Kaltenleutgebner Tal | Waldmühle</desc></wpt>
<wpt lat="48.118374" lon="16.221751"><name>Polyp</name><desc>Kaltenleutgebner Tal | Waldmühle</desc></wpt>
<wpt lat="48.118374" lon="16.221751"><name>Pongo</name><desc>Kaltenleutgebner Tal | Waldmühle</desc></wpt>
<wpt lat="48.118374" lon="16.221751"><name>Prima Ballerina</name><desc>Kaltenleutgebner Tal | Waldmühle</desc></wpt>
<wpt lat="48.118374" lon="16.221751"><name>Rabbit Run</name><desc>Kaltenleutgebner Tal | Waldmühle</desc></wpt>
<wpt lat="48.118374" lon="16.221751"><name>Ro Kante</name><desc>Kaltenleutgebner Tal | Waldmühle</desc></wpt>
<wpt lat="48.118374" lon="16.221751"><name>Rohling</name><desc>Kaltenleutgebner Tal | Waldmühle</desc></wpt>
<wpt lat="48.118374" lon="16.221751"><name>Rolle Rückwärts</name><desc>Kaltenleutgebner Tal | Waldmühle</desc></wpt>
<wpt lat="48.118374" lon="16.221751"><name>Rote Punkte</name><desc>Kaltenleutgebner Tal | Waldmühle</desc></wpt>
<wpt lat="48.118374" lon="16.221751"><name>Satan</name><desc>Kaltenleutgebner Tal | Waldmühle</desc></wpt>
<wpt lat="48.118374" lon="16.221751"><name>Schau, Schau</name><desc>Kaltenleutgebner Tal | Waldmühle</desc></wpt>
<wpt lat="48.118374" lon="16.221751"><name>Schmierseifenverschneidung</name><desc>Kaltenleutgebner Tal | Waldmühle</desc></wpt>
<wpt lat="48.118374" lon="16.221751"><name>Schwarzer Adler</name><desc>Kaltenleutgebner Tal | Waldmühle</desc></wpt>
<wpt lat="48.118374" lon="16.221751"><name>Sehr Schlau</name><desc>Kaltenleutgebner Tal | Waldmühle</desc></wpt>
<wpt lat="48.118374" lon="16.221751"><name>Speckloch</name><desc>Kaltenleutgebner Tal | Waldmühle</desc></wpt>
<wpt lat="48.118374" lon="16.221751"><name>Speed</name><desc>Kaltenleutgebner Tal | Waldmühle</desc></wpt>
<wpt lat="48.118374" lon="16.221751"><name>Steinmühle</name><desc>Kaltenleutgebner Tal | Waldmühle</desc></wpt>
<wpt lat="48.118374" lon="16.221751"><name>Strenger Lehrer</name><desc>Kaltenleutgebner Tal | Waldmühle</desc></wpt>
<wpt lat="48.118374" lon="16.221751"><name>Toni / Wo die Teufel Wohnen</name><desc>Kaltenleutgebner Tal | Waldmühle</desc></wpt>
<wpt lat="48.118374" lon="16.221751"><name>Triglav</name><desc>Kaltenleutgebner Tal | Waldmühle</desc></wpt>
<wpt lat="48.118374" lon="16.221751"><name>Verschneidung</name><desc>Kaltenleutgebner Tal | Waldmühle</desc></wpt>
<wpt lat="48.118374" lon="16.221751"><name>Via Frama</name><desc>Kaltenleutgebner Tal | Waldmühle</desc></wpt>
<wpt lat="48.118374" lon="16.221751"><name>Waldknecht</name><desc>Kaltenleutgebner Tal | Waldmühle</desc></wpt>
<wpt lat="48.118374" lon="16.221751"><name>Westweg</name><desc>Kaltenleutgebner Tal | Waldmühle</desc></wpt>
<wpt lat="48.118374" lon="16.221751"><name>Wiener Lehrer</name><desc>Kaltenleutgebner Tal | Waldmühle</desc></wpt>
<wpt lat="48.118374" lon="16.221751"><name>Wilde Wuchtl</name><desc>Kaltenleutgebner Tal | Waldmühle</desc></wpt>
</gpx>
