<?xml version="1.0" encoding="UTF-8"?>
<gpx version="1.1" creator="Vertical Moment" xmlns="http://www.topografix.com/GPX/1/1">
<metadata><name>Kaltenleutgebner Tal | Meije</name><desc>GPS data for Vertical Moment master v4. Coordinates derived from OSM (OpenStreetMap, (c) OSM contributors, ODbL 1.0), theCrag, climb.sk, outdooractive, Nominatim and legacy master coords.</desc></metadata>
<wpt lat="48.117436" lon="16.223987"><name>Grat</name><desc>Kaltenleutgebner Tal | Meije</desc></wpt>
<wpt lat="48.117436" lon="16.223987"><name>Oststurm</name><desc>Kaltenleutgebner Tal | Meije</desc></wpt>
<wpt lat="48.117436" lon="16.223987"><name>Schichtplatte</name><desc>Kaltenleutgebner Tal | Meije</desc></wpt>
<wpt lat="48.117436" lon="16.223987"><name>Schlitzwand</name><desc>Kaltenleutgebner Tal | Meije</desc></wpt>
<wpt lat="48.117436" lon="16.223987"><name>Teufelsstiege</name><desc>Kaltenleutgebner Tal | Meije</desc></wpt>
<wpt lat="48.117436" lon="16.223987"><name>Vera</name><desc>Kaltenleutgebner Tal | Meije</desc></wpt>
<wpt lat="48.117436" lon="16.223987"><name>Verenasteig</name><desc>Kaltenleutgebner Tal | Meije</desc></wpt>
<wpt lat="48.117436" lon="16.223987"><name>Verschneidung</name><desc>Kaltenleutgebner Tal | Meije</desc></wpt>
</gpx>
