<?xml version="1.0" encoding="UTF-8"?>
<gpx version="1.1" creator="Vertical Moment" xmlns="http://www.topografix.com/GPX/1/1">
<metadata><name>Lindkogel | Roter Ofen</name><desc>GPS data for Vertical Moment master v4. Coordinates derived from OSM (OpenStreetMap, (c) OSM contributors, ODbL 1.0), theCrag, climb.sk, outdooractive, Nominatim and legacy master coords.</desc></metadata>
<wpt lat="48.090026" lon="16.238521"><name>1936er Steig</name><desc>Lindkogel | Roter Ofen</desc></wpt>
<wpt lat="48.090026" lon="16.238521"><name>Alpenvereinssteig</name><desc>Lindkogel | Roter Ofen</desc></wpt>
<wpt lat="48.090026" lon="16.238521"><name>Alte Verschneidung</name><desc>Lindkogel | Roter Ofen</desc></wpt>
<wpt lat="48.090026" lon="16.238521"><name>Autobahn</name><desc>Lindkogel | Roter Ofen</desc></wpt>
<wpt lat="48.090026" lon="16.238521"><name>Bergmilch</name><desc>Lindkogel | Roter Ofen</desc></wpt>
<wpt lat="48.090026" lon="16.238521"><name>Besenhüpfer</name><desc>Lindkogel | Roter Ofen</desc></wpt>
<wpt lat="48.090026" lon="16.238521"><name>Dornröschen</name><desc>Lindkogel | Roter Ofen</desc></wpt>
<wpt lat="48.090026" lon="16.238521"><name>Gecko Zwerg</name><desc>Lindkogel | Roter Ofen</desc></wpt>
<wpt lat="48.090026" lon="16.238521"><name>Gemeindeweg</name><desc>Lindkogel | Roter Ofen</desc></wpt>
<wpt lat="48.090026" lon="16.238521"><name>Gleitflug</name><desc>Lindkogel | Roter Ofen</desc></wpt>
<wpt lat="48.090026" lon="16.238521"><name>Guckloch</name><desc>Lindkogel | Roter Ofen</desc></wpt>
<wpt lat="48.090026" lon="16.238521"><name>Kraftriss</name><desc>Lindkogel | Roter Ofen</desc></wpt>
<wpt lat="48.090026" lon="16.238521"><name>Mürbteig</name><desc>Lindkogel | Roter Ofen</desc></wpt>
<wpt lat="48.090026" lon="16.238521"><name>Nr 3</name><desc>Lindkogel | Roter Ofen</desc></wpt>
<wpt lat="48.090026" lon="16.238521"><name>Nr 5</name><desc>Lindkogel | Roter Ofen</desc></wpt>
<wpt lat="48.090026" lon="16.238521"><name>Nr 6</name><desc>Lindkogel | Roter Ofen</desc></wpt>
<wpt lat="48.090026" lon="16.238521"><name>Nr 7</name><desc>Lindkogel | Roter Ofen</desc></wpt>
<wpt lat="48.090026" lon="16.238521"><name>Plattenkante</name><desc>Lindkogel | Roter Ofen</desc></wpt>
<wpt lat="48.090026" lon="16.238521"><name>Plattentanz</name><desc>Lindkogel | Roter Ofen</desc></wpt>
<wpt lat="48.090026" lon="16.238521"><name>Projekt (Nr 1)</name><desc>Lindkogel | Roter Ofen</desc></wpt>
<wpt lat="48.090026" lon="16.238521"><name>Projekt (Nr 2)</name><desc>Lindkogel | Roter Ofen</desc></wpt>
<wpt lat="48.090026" lon="16.238521"><name>Projekt (Nr 4)</name><desc>Lindkogel | Roter Ofen</desc></wpt>
<wpt lat="48.090026" lon="16.238521"><name>Putzteufel</name><desc>Lindkogel | Roter Ofen</desc></wpt>
<wpt lat="48.090026" lon="16.238521"><name>Rucki Zucki</name><desc>Lindkogel | Roter Ofen</desc></wpt>
<wpt lat="48.090026" lon="16.238521"><name>Schwanensee</name><desc>Lindkogel | Roter Ofen</desc></wpt>
<wpt lat="48.090026" lon="16.238521"><name>Silbervogel</name><desc>Lindkogel | Roter Ofen</desc></wpt>
<wpt lat="48.090026" lon="16.238521"><name>Sonderzug</name><desc>Lindkogel | Roter Ofen</desc></wpt>
<wpt lat="48.090026" lon="16.238521"><name>Sonnenkind</name><desc>Lindkogel | Roter Ofen</desc></wpt>
<wpt lat="48.090026" lon="16.238521"><name>Sportlocke</name><desc>Lindkogel | Roter Ofen</desc></wpt>
<wpt lat="48.090026" lon="16.238521"><name>Sprengmeister</name><desc>Lindkogel | Roter Ofen</desc></wpt>
<wpt lat="48.090026" lon="16.238521"><name>Steinerdiagonale</name><desc>Lindkogel | Roter Ofen</desc></wpt>
<wpt lat="48.090026" lon="16.238521"><name>Südwestkante</name><desc>Lindkogel | Roter Ofen</desc></wpt>
<wpt lat="48.090026" lon="16.238521"><name>Terrassensteig</name><desc>Lindkogel | Roter Ofen</desc></wpt>
<wpt lat="48.090026" lon="16.238521"><name>Variante</name><desc>Lindkogel | Roter Ofen</desc></wpt>
<wpt lat="48.090026" lon="16.238521"><name>Wasserlauf</name><desc>Lindkogel | Roter Ofen</desc></wpt>
<wpt lat="48.090026" lon="16.238521"><name>Wespenriss</name><desc>Lindkogel | Roter Ofen</desc></wpt>
<wpt lat="48.090026" lon="16.238521"><name>Wespentanz</name><desc>Lindkogel | Roter Ofen</desc></wpt>
<wpt lat="48.090026" lon="16.238521"><name>Zwerg Hinkebein</name><desc>Lindkogel | Roter Ofen</desc></wpt>
<wpt lat="48.090026" lon="16.238521"><name>Zwerg Nase</name><desc>Lindkogel | Roter Ofen</desc></wpt>
<wpt lat="48.090026" lon="16.238521"><name>Zwergeneck</name><desc>Lindkogel | Roter Ofen</desc></wpt>
<wpt lat="48.090026" lon="16.238521"><name>Zwergensprung</name><desc>Lindkogel | Roter Ofen</desc></wpt>
</gpx>
