<?xml version="1.0" encoding="UTF-8"?>
<gpx version="1.1" creator="Vertical Moment" xmlns="http://www.topografix.com/GPX/1/1">
<metadata><name>Lindkogel | Siegenfelder Steinbruch - Platte</name><desc>GPS data for Vertical Moment master v4. Coordinates derived from OSM (OpenStreetMap, (c) OSM contributors, ODbL 1.0), theCrag, climb.sk, outdooractive, Nominatim and legacy master coords.</desc></metadata>
<wpt lat="48.022673" lon="16.191538"><name>Blaupunkt</name><desc>Lindkogel | Siegenfelder Steinbruch - Platte</desc></wpt>
<wpt lat="48.022673" lon="16.191507"><name>Kurz u. bündig</name><desc>Lindkogel | Siegenfelder Steinbruch - Platte</desc></wpt>
<wpt lat="48.022717" lon="16.191401"><name>Numb</name><desc>Lindkogel | Siegenfelder Steinbruch - Platte</desc></wpt>
<wpt lat="48.022653" lon="16.191452"><name>Plattiger Riss</name><desc>Lindkogel | Siegenfelder Steinbruch - Platte</desc></wpt>
<wpt lat="48.022674" lon="16.191521"><name>Prinz</name><desc>Lindkogel | Siegenfelder Steinbruch - Platte</desc></wpt>
<wpt lat="48.022668" lon="16.191495"><name>Rozario</name><desc>Lindkogel | Siegenfelder Steinbruch - Platte</desc></wpt>
<wpt lat="48.022659" lon="16.191468"><name>Streitspur</name><desc>Lindkogel | Siegenfelder Steinbruch - Platte</desc></wpt>
<wpt lat="48.022665" lon="16.191481"><name>The Fox</name><desc>Lindkogel | Siegenfelder Steinbruch - Platte</desc></wpt>
<wpt lat="48.022638" lon="16.191427"><name>Vergessener Grat</name><desc>Lindkogel | Siegenfelder Steinbruch - Platte</desc></wpt>
<wpt lat="48.022673" lon="16.191554"><name>Waiting</name><desc>Lindkogel | Siegenfelder Steinbruch - Platte</desc></wpt>
<wpt lat="48.022645" lon="16.19144"><name>Weisser Pfeiler</name><desc>Lindkogel | Siegenfelder Steinbruch - Platte</desc></wpt>
<wpt lat="48.022744" lon="16.191419"><name>Zooropa</name><desc>Lindkogel | Siegenfelder Steinbruch - Platte</desc></wpt>
</gpx>
