<?xml version="1.0" encoding="UTF-8"?>
<gpx version="1.1" creator="Vertical Moment" xmlns="http://www.topografix.com/GPX/1/1">
<metadata><name>Lindkogel | Weisses Kreuz</name><desc>GPS data for Vertical Moment master v4. Coordinates derived from OSM (OpenStreetMap, (c) OSM contributors, ODbL 1.0), theCrag, climb.sk, outdooractive, Nominatim and legacy master coords.</desc></metadata>
<wpt lat="47.991785" lon="16.135226"><name>Arbeitslosensteig</name><desc>Lindkogel | Weisses Kreuz</desc></wpt>
<wpt lat="47.991785" lon="16.135226"><name>Backyard</name><desc>Lindkogel | Weisses Kreuz</desc></wpt>
<wpt lat="47.991785" lon="16.135226"><name>Cafemungo</name><desc>Lindkogel | Weisses Kreuz</desc></wpt>
<wpt lat="47.991785" lon="16.135226"><name>Diagonale</name><desc>Lindkogel | Weisses Kreuz</desc></wpt>
<wpt lat="47.991785" lon="16.135226"><name>Edelweiss Steig</name><desc>Lindkogel | Weisses Kreuz</desc></wpt>
<wpt lat="47.991785" lon="16.135226"><name>Glatte Platte</name><desc>Lindkogel | Weisses Kreuz</desc></wpt>
<wpt lat="47.991785" lon="16.135226"><name>Nr 1</name><desc>Lindkogel | Weisses Kreuz</desc></wpt>
<wpt lat="47.991785" lon="16.135226"><name>Nr 2</name><desc>Lindkogel | Weisses Kreuz</desc></wpt>
<wpt lat="47.991785" lon="16.135226"><name>Pfeilerverschneidung</name><desc>Lindkogel | Weisses Kreuz</desc></wpt>
<wpt lat="47.991785" lon="16.135226"><name>Quartettsteig (1a)</name><desc>Lindkogel | Weisses Kreuz</desc></wpt>
<wpt lat="47.991785" lon="16.135226"><name>Wandl mit Riss</name><desc>Lindkogel | Weisses Kreuz</desc></wpt>
<wpt lat="47.991785" lon="16.135226"><name>Weg der Überhänge</name><desc>Lindkogel | Weisses Kreuz</desc></wpt>
<wpt lat="47.991785" lon="16.135226"><name>Weisser Pfeiler</name><desc>Lindkogel | Weisses Kreuz</desc></wpt>
<wpt lat="47.991785" lon="16.135226"><name>White Crack</name><desc>Lindkogel | Weisses Kreuz</desc></wpt>
<wpt lat="47.991785" lon="16.135226"><name>White Reality</name><desc>Lindkogel | Weisses Kreuz</desc></wpt>
</gpx>
