<?xml version="1.0" encoding="UTF-8"?>
<gpx version="1.1" creator="Vertical Moment" xmlns="http://www.topografix.com/GPX/1/1">
<metadata><name>Lindkogel | Fraaanz</name><desc>GPS data for Vertical Moment master v4. Coordinates derived from OSM (OpenStreetMap, (c) OSM contributors, ODbL 1.0), theCrag, climb.sk, outdooractive, Nominatim and legacy master coords.</desc></metadata>
<wpt lat="48.020467" lon="16.193003"><name>Fraaanz</name><desc>Lindkogel | Fraaanz</desc></wpt>
<wpt lat="48.020511" lon="16.192916"><name>Löchlis</name><desc>Lindkogel | Fraaanz</desc></wpt>
</gpx>
