<?xml version="1.0" encoding="UTF-8"?>
<gpx version="1.1" creator="Vertical Moment" xmlns="http://www.topografix.com/GPX/1/1">
<metadata><name>Lindkogel | Friedrichswand</name><desc>GPS data for Vertical Moment master v4. Coordinates derived from OSM (OpenStreetMap, (c) OSM contributors, ODbL 1.0), theCrag, climb.sk, outdooractive, Nominatim and legacy master coords.</desc></metadata>
<wpt lat="48.071995" lon="16.277497"><name>70er Variante</name><desc>Lindkogel | Friedrichswand</desc></wpt>
<wpt lat="48.071995" lon="16.277497"><name>Ab durch die Mitte</name><desc>Lindkogel | Friedrichswand</desc></wpt>
<wpt lat="48.071995" lon="16.277497"><name>Direkte Schwibbogenplatte</name><desc>Lindkogel | Friedrichswand</desc></wpt>
<wpt lat="48.071995" lon="16.277497"><name>Direkter Onkel Karl</name><desc>Lindkogel | Friedrichswand</desc></wpt>
<wpt lat="48.071995" lon="16.277497"><name>Einstiegsvariante</name><desc>Lindkogel | Friedrichswand</desc></wpt>
<wpt lat="48.071995" lon="16.277497"><name>Günther</name><desc>Lindkogel | Friedrichswand</desc></wpt>
<wpt lat="48.071995" lon="16.277497"><name>Hauptriss</name><desc>Lindkogel | Friedrichswand</desc></wpt>
<wpt lat="48.071995" lon="16.277497"><name>Im Herzen Jung - Maria</name><desc>Lindkogel | Friedrichswand</desc></wpt>
<wpt lat="48.071995" lon="16.277497"><name>Karwendelpfeiler</name><desc>Lindkogel | Friedrichswand</desc></wpt>
<wpt lat="48.071995" lon="16.277497"><name>Kobaltkobolde</name><desc>Lindkogel | Friedrichswand</desc></wpt>
<wpt lat="48.071995" lon="16.277497"><name>Kuhschelle</name><desc>Lindkogel | Friedrichswand</desc></wpt>
<wpt lat="48.071995" lon="16.277497"><name>Neue Schwibbogenplatte</name><desc>Lindkogel | Friedrichswand</desc></wpt>
<wpt lat="48.071995" lon="16.277497"><name>Neue Westliche Platte</name><desc>Lindkogel | Friedrichswand</desc></wpt>
<wpt lat="48.071995" lon="16.277497"><name>Onkel Karl</name><desc>Lindkogel | Friedrichswand</desc></wpt>
<wpt lat="48.071995" lon="16.277497"><name>Plattiger Pfeiler</name><desc>Lindkogel | Friedrichswand</desc></wpt>
<wpt lat="48.071995" lon="16.277497"><name>Rechter Anstieg</name><desc>Lindkogel | Friedrichswand</desc></wpt>
<wpt lat="48.071995" lon="16.277497"><name>Rinne</name><desc>Lindkogel | Friedrichswand</desc></wpt>
<wpt lat="48.071995" lon="16.277497"><name>Schwarze Verschneidung</name><desc>Lindkogel | Friedrichswand</desc></wpt>
<wpt lat="48.071995" lon="16.277497"><name>Simonaplatte</name><desc>Lindkogel | Friedrichswand</desc></wpt>
<wpt lat="48.071995" lon="16.277497"><name>Statikmischerpuster</name><desc>Lindkogel | Friedrichswand</desc></wpt>
<wpt lat="48.071995" lon="16.277497"><name>Teils - Teils</name><desc>Lindkogel | Friedrichswand</desc></wpt>
<wpt lat="48.071995" lon="16.277497"><name>Terrassendiagonale</name><desc>Lindkogel | Friedrichswand</desc></wpt>
<wpt lat="48.071995" lon="16.277497"><name>Via Dimenticata</name><desc>Lindkogel | Friedrichswand</desc></wpt>
<wpt lat="48.071995" lon="16.277497"><name>Via Fratelli Kammlander</name><desc>Lindkogel | Friedrichswand</desc></wpt>
<wpt lat="48.071995" lon="16.277497"><name>Weg der Jugend</name><desc>Lindkogel | Friedrichswand</desc></wpt>
<wpt lat="48.071995" lon="16.277497"><name>Westliche Verschneidung</name><desc>Lindkogel | Friedrichswand</desc></wpt>
<wpt lat="48.071995" lon="16.277497"><name>Wilderersteig</name><desc>Lindkogel | Friedrichswand</desc></wpt>
</gpx>
