<?xml version="1.0" encoding="UTF-8"?>
<gpx version="1.1" creator="Vertical Moment" xmlns="http://www.topografix.com/GPX/1/1">
<metadata><name>Mödling | Promenadenfels</name><desc>GPS data for Vertical Moment master v4. Coordinates derived from OSM (OpenStreetMap, (c) OSM contributors, ODbL 1.0), theCrag, climb.sk, outdooractive, Nominatim and legacy master coords.</desc></metadata>
<wpt lat="48.083002" lon="16.276885"><name>Boulder Me</name><desc>Mödling | Promenadenfels</desc></wpt>
<wpt lat="48.083002" lon="16.276885"><name>Erdloch</name><desc>Mödling | Promenadenfels</desc></wpt>
<wpt lat="48.083002" lon="16.276885"><name>Night Bolts</name><desc>Mödling | Promenadenfels</desc></wpt>
<wpt lat="48.083002" lon="16.276885"><name>Nr 3</name><desc>Mödling | Promenadenfels</desc></wpt>
<wpt lat="48.083002" lon="16.276885"><name>Painkiller</name><desc>Mödling | Promenadenfels</desc></wpt>
<wpt lat="48.083002" lon="16.276885"><name>Promenadengrat</name><desc>Mödling | Promenadenfels</desc></wpt>
<wpt lat="48.083002" lon="16.276885"><name>Torture Garden</name><desc>Mödling | Promenadenfels</desc></wpt>
</gpx>
