<?xml version="1.0" encoding="UTF-8"?>
<gpx version="1.1" creator="Vertical Moment" xmlns="http://www.topografix.com/GPX/1/1">
<metadata><name>Mödling | Efeugrat</name><desc>GPS data for Vertical Moment master v4. Coordinates derived from OSM (OpenStreetMap, (c) OSM contributors, ODbL 1.0), theCrag, climb.sk, outdooractive, Nominatim and legacy master coords.</desc></metadata>
<wpt lat="48.080646" lon="16.270495"><name>Bier fia'n Hias</name><desc>Mödling | Efeugrat</desc></wpt>
<wpt lat="48.080646" lon="16.270495"><name>Black Shadow on the Wall</name><desc>Mödling | Efeugrat</desc></wpt>
<wpt lat="48.080646" lon="16.270495"><name>Co - KG</name><desc>Mödling | Efeugrat</desc></wpt>
<wpt lat="48.080646" lon="16.270495"><name>Dechant Müller</name><desc>Mödling | Efeugrat</desc></wpt>
<wpt lat="48.080646" lon="16.270495"><name>Der Galgen</name><desc>Mödling | Efeugrat</desc></wpt>
<wpt lat="48.080646" lon="16.270495"><name>Diagonalriss</name><desc>Mödling | Efeugrat</desc></wpt>
<wpt lat="48.080646" lon="16.270495"><name>Diagonalverschneidung</name><desc>Mödling | Efeugrat</desc></wpt>
<wpt lat="48.080646" lon="16.270495"><name>Direkter Galgen</name><desc>Mödling | Efeugrat</desc></wpt>
<wpt lat="48.080646" lon="16.270495"><name>Direkter Hias</name><desc>Mödling | Efeugrat</desc></wpt>
<wpt lat="48.080646" lon="16.270495"><name>Dornröschen</name><desc>Mödling | Efeugrat</desc></wpt>
<wpt lat="48.080646" lon="16.270495"><name>Efeu Ade</name><desc>Mödling | Efeugrat</desc></wpt>
<wpt lat="48.080646" lon="16.270495"><name>Eiertanz</name><desc>Mödling | Efeugrat</desc></wpt>
<wpt lat="48.080646" lon="16.270495"><name>Ein Herz für Anfänger</name><desc>Mödling | Efeugrat</desc></wpt>
<wpt lat="48.080646" lon="16.270495"><name>Ernas Angst</name><desc>Mödling | Efeugrat</desc></wpt>
<wpt lat="48.080646" lon="16.270495"><name>Federnelkenweg</name><desc>Mödling | Efeugrat</desc></wpt>
<wpt lat="48.080646" lon="16.270495"><name>Fingerbeisser</name><desc>Mödling | Efeugrat</desc></wpt>
<wpt lat="48.080646" lon="16.270495"><name>Fuck Head</name><desc>Mödling | Efeugrat</desc></wpt>
<wpt lat="48.080646" lon="16.270495"><name>Kamin</name><desc>Mödling | Efeugrat</desc></wpt>
<wpt lat="48.080646" lon="16.270495"><name>Kantenflug</name><desc>Mödling | Efeugrat</desc></wpt>
<wpt lat="48.080646" lon="16.270495"><name>Luis</name><desc>Mödling | Efeugrat</desc></wpt>
<wpt lat="48.080646" lon="16.270495"><name>Mashiwo</name><desc>Mödling | Efeugrat</desc></wpt>
<wpt lat="48.080646" lon="16.270495"><name>Nr 3</name><desc>Mödling | Efeugrat</desc></wpt>
<wpt lat="48.080646" lon="16.270495"><name>Nr 37</name><desc>Mödling | Efeugrat</desc></wpt>
<wpt lat="48.080646" lon="16.270495"><name>Nähmaschine</name><desc>Mödling | Efeugrat</desc></wpt>
<wpt lat="48.080646" lon="16.270495"><name>Nähmaschinenfusserl</name><desc>Mödling | Efeugrat</desc></wpt>
<wpt lat="48.080646" lon="16.270495"><name>Play</name><desc>Mödling | Efeugrat</desc></wpt>
<wpt lat="48.080646" lon="16.270495"><name>Rampe</name><desc>Mödling | Efeugrat</desc></wpt>
<wpt lat="48.080646" lon="16.270495"><name>Rechtsdrall</name><desc>Mödling | Efeugrat</desc></wpt>
<wpt lat="48.080646" lon="16.270495"><name>Sarkas Prüfung</name><desc>Mödling | Efeugrat</desc></wpt>
<wpt lat="48.080646" lon="16.270495"><name>Schlange</name><desc>Mödling | Efeugrat</desc></wpt>
<wpt lat="48.080646" lon="16.270495"><name>Schroffenweg</name><desc>Mödling | Efeugrat</desc></wpt>
<wpt lat="48.080646" lon="16.270495"><name>Schweisstreiber</name><desc>Mödling | Efeugrat</desc></wpt>
<wpt lat="48.080646" lon="16.270495"><name>Snöf</name><desc>Mödling | Efeugrat</desc></wpt>
<wpt lat="48.080646" lon="16.270495"><name>Sondereinsatz</name><desc>Mödling | Efeugrat</desc></wpt>
<wpt lat="48.080646" lon="16.270495"><name>Variante</name><desc>Mödling | Efeugrat</desc></wpt>
<wpt lat="48.080646" lon="16.270495"><name>Verschneidung</name><desc>Mödling | Efeugrat</desc></wpt>
<wpt lat="48.080646" lon="16.270495"><name>Winkler Empor</name><desc>Mödling | Efeugrat</desc></wpt>
<wpt lat="48.080517" lon="16.270155"><name>Namenlos</name><desc>Mödling | Efeugrat</desc></wpt>
</gpx>
