<?xml version="1.0" encoding="UTF-8"?>
<gpx version="1.1" creator="Vertical Moment" xmlns="http://www.topografix.com/GPX/1/1">
<metadata><name>Mödling | Lausbubenwand</name><desc>GPS data for Vertical Moment master v4. Coordinates derived from OSM (OpenStreetMap, (c) OSM contributors, ODbL 1.0), theCrag, climb.sk, outdooractive, Nominatim and legacy master coords.</desc></metadata>
<wpt lat="48.080381" lon="16.272178"><name>Abendsonne</name><desc>Mödling | Lausbubenwand</desc></wpt>
<wpt lat="48.080381" lon="16.272178"><name>Alfis Übung</name><desc>Mödling | Lausbubenwand</desc></wpt>
<wpt lat="48.080381" lon="16.272178"><name>Asterix</name><desc>Mödling | Lausbubenwand</desc></wpt>
<wpt lat="48.080381" lon="16.272178"><name>Au So Rauh</name><desc>Mödling | Lausbubenwand</desc></wpt>
<wpt lat="48.080381" lon="16.272178"><name>Bergbaron</name><desc>Mödling | Lausbubenwand</desc></wpt>
<wpt lat="48.080381" lon="16.272178"><name>Bergführerriss</name><desc>Mödling | Lausbubenwand</desc></wpt>
<wpt lat="48.080381" lon="16.272178"><name>Beyond the Edge</name><desc>Mödling | Lausbubenwand</desc></wpt>
<wpt lat="48.080381" lon="16.272178"><name>Das Omen</name><desc>Mödling | Lausbubenwand</desc></wpt>
<wpt lat="48.080381" lon="16.272178"><name>Die Letzten Beissen die Hunde</name><desc>Mödling | Lausbubenwand</desc></wpt>
<wpt lat="48.080381" lon="16.272178"><name>Erstiegener</name><desc>Mödling | Lausbubenwand</desc></wpt>
<wpt lat="48.080381" lon="16.272178"><name>Excitation</name><desc>Mödling | Lausbubenwand</desc></wpt>
<wpt lat="48.080381" lon="16.272178"><name>Falten und Strecken</name><desc>Mödling | Lausbubenwand</desc></wpt>
<wpt lat="48.080381" lon="16.272178"><name>Gipfelausstieg</name><desc>Mödling | Lausbubenwand</desc></wpt>
<wpt lat="48.080381" lon="16.272178"><name>Hansisteig</name><desc>Mödling | Lausbubenwand</desc></wpt>
<wpt lat="48.080381" lon="16.272178"><name>Hidden Hole</name><desc>Mödling | Lausbubenwand</desc></wpt>
<wpt lat="48.080381" lon="16.272178"><name>Hin und Her</name><desc>Mödling | Lausbubenwand</desc></wpt>
<wpt lat="48.080381" lon="16.272178"><name>Horror</name><desc>Mödling | Lausbubenwand</desc></wpt>
<wpt lat="48.080381" lon="16.272178"><name>Idefix</name><desc>Mödling | Lausbubenwand</desc></wpt>
<wpt lat="48.080381" lon="16.272178"><name>Kamin</name><desc>Mödling | Lausbubenwand</desc></wpt>
<wpt lat="48.080381" lon="16.272178"><name>Klassiker</name><desc>Mödling | Lausbubenwand</desc></wpt>
<wpt lat="48.080381" lon="16.272178"><name>Lausbubengrat</name><desc>Mödling | Lausbubenwand</desc></wpt>
<wpt lat="48.080381" lon="16.272178"><name>Lausbubenkante</name><desc>Mödling | Lausbubenwand</desc></wpt>
<wpt lat="48.080381" lon="16.272178"><name>Lausbubenverschneidung</name><desc>Mödling | Lausbubenwand</desc></wpt>
<wpt lat="48.080381" lon="16.272178"><name>Machs Doch Schwer</name><desc>Mödling | Lausbubenwand</desc></wpt>
<wpt lat="48.080381" lon="16.272178"><name>Miraculix</name><desc>Mödling | Lausbubenwand</desc></wpt>
<wpt lat="48.080381" lon="16.272178"><name>Mist</name><desc>Mödling | Lausbubenwand</desc></wpt>
<wpt lat="48.080381" lon="16.272178"><name>Moralist</name><desc>Mödling | Lausbubenwand</desc></wpt>
<wpt lat="48.080381" lon="16.272178"><name>Nr 14</name><desc>Mödling | Lausbubenwand</desc></wpt>
<wpt lat="48.080381" lon="16.272178"><name>Nr 6</name><desc>Mödling | Lausbubenwand</desc></wpt>
<wpt lat="48.080381" lon="16.272178"><name>Obelix</name><desc>Mödling | Lausbubenwand</desc></wpt>
<wpt lat="48.080381" lon="16.272178"><name>Oho</name><desc>Mödling | Lausbubenwand</desc></wpt>
<wpt lat="48.080381" lon="16.272178"><name>Pfeiler</name><desc>Mödling | Lausbubenwand</desc></wpt>
<wpt lat="48.080381" lon="16.272178"><name>Projekt (Nr 2)</name><desc>Mödling | Lausbubenwand</desc></wpt>
<wpt lat="48.080381" lon="16.272178"><name>Prolo</name><desc>Mödling | Lausbubenwand</desc></wpt>
<wpt lat="48.080381" lon="16.272178"><name>Psycho I</name><desc>Mödling | Lausbubenwand</desc></wpt>
<wpt lat="48.080381" lon="16.272178"><name>Reichtvariante</name><desc>Mödling | Lausbubenwand</desc></wpt>
<wpt lat="48.080381" lon="16.272178"><name>Rheumatic Fever</name><desc>Mödling | Lausbubenwand</desc></wpt>
<wpt lat="48.080381" lon="16.272178"><name>Riss</name><desc>Mödling | Lausbubenwand</desc></wpt>
<wpt lat="48.080381" lon="16.272178"><name>Riss (Nr 42)</name><desc>Mödling | Lausbubenwand</desc></wpt>
<wpt lat="48.080381" lon="16.272178"><name>Riss (Nr 48)</name><desc>Mödling | Lausbubenwand</desc></wpt>
<wpt lat="48.080381" lon="16.272178"><name>Steinzeit</name><desc>Mödling | Lausbubenwand</desc></wpt>
<wpt lat="48.080381" lon="16.272178"><name>Streck Dich</name><desc>Mödling | Lausbubenwand</desc></wpt>
<wpt lat="48.080381" lon="16.272178"><name>Sturmtag</name><desc>Mödling | Lausbubenwand</desc></wpt>
<wpt lat="48.080381" lon="16.272178"><name>Tape Dich</name><desc>Mödling | Lausbubenwand</desc></wpt>
<wpt lat="48.080381" lon="16.272178"><name>Tape Dich Direkt</name><desc>Mödling | Lausbubenwand</desc></wpt>
<wpt lat="48.080381" lon="16.272178"><name>Tränen für Irene</name><desc>Mödling | Lausbubenwand</desc></wpt>
<wpt lat="48.080381" lon="16.272178"><name>Uknudel</name><desc>Mödling | Lausbubenwand</desc></wpt>
<wpt lat="48.080381" lon="16.272178"><name>Verlängerung</name><desc>Mödling | Lausbubenwand</desc></wpt>
<wpt lat="48.080381" lon="16.272178"><name>Via Ente</name><desc>Mödling | Lausbubenwand</desc></wpt>
<wpt lat="48.080381" lon="16.272178"><name>Vollmond</name><desc>Mödling | Lausbubenwand</desc></wpt>
<wpt lat="48.080381" lon="16.272178"><name>Zwerg</name><desc>Mödling | Lausbubenwand</desc></wpt>
<wpt lat="48.080381" lon="16.272178"><name>Öha</name><desc>Mödling | Lausbubenwand</desc></wpt>
</gpx>
