<?xml version="1.0" encoding="UTF-8"?>
<gpx version="1.1" creator="Vertical Moment" xmlns="http://www.topografix.com/GPX/1/1">
<metadata><name>Mödling | Erikagrat</name><desc>GPS data for Vertical Moment master v4. Coordinates derived from OSM (OpenStreetMap, (c) OSM contributors, ODbL 1.0), theCrag, climb.sk, outdooractive, Nominatim and legacy master coords.</desc></metadata>
<wpt lat="48.081424" lon="16.275497"><name>Die Helden Sind Müde</name><desc>Mödling | Erikagrat</desc></wpt>
<wpt lat="48.081424" lon="16.275497"><name>Erika Aktuell</name><desc>Mödling | Erikagrat</desc></wpt>
<wpt lat="48.081424" lon="16.275497"><name>Erika Verschneidung</name><desc>Mödling | Erikagrat</desc></wpt>
<wpt lat="48.081424" lon="16.275497"><name>Gratüberschreitung</name><desc>Mödling | Erikagrat</desc></wpt>
<wpt lat="48.081424" lon="16.275497"><name>Hausmeisterehepaar I.R.</name><desc>Mödling | Erikagrat</desc></wpt>
<wpt lat="48.081424" lon="16.275497"><name>I Am Solo</name><desc>Mödling | Erikagrat</desc></wpt>
<wpt lat="48.081424" lon="16.275497"><name>Kaltfronterl</name><desc>Mödling | Erikagrat</desc></wpt>
<wpt lat="48.081424" lon="16.275497"><name>Kamin</name><desc>Mödling | Erikagrat</desc></wpt>
<wpt lat="48.081424" lon="16.275497"><name>Listig</name><desc>Mödling | Erikagrat</desc></wpt>
<wpt lat="48.081424" lon="16.275497"><name>Ozon Go Home</name><desc>Mödling | Erikagrat</desc></wpt>
<wpt lat="48.081424" lon="16.275497"><name>Pater Quirin Steig</name><desc>Mödling | Erikagrat</desc></wpt>
<wpt lat="48.081424" lon="16.275497"><name>Rennschnecke</name><desc>Mödling | Erikagrat</desc></wpt>
<wpt lat="48.081424" lon="16.275497"><name>Rolfisteig</name><desc>Mödling | Erikagrat</desc></wpt>
<wpt lat="48.081424" lon="16.275497"><name>Salzstangerl</name><desc>Mödling | Erikagrat</desc></wpt>
<wpt lat="48.081424" lon="16.275497"><name>Steig Genau</name><desc>Mödling | Erikagrat</desc></wpt>
<wpt lat="48.081424" lon="16.275497"><name>Steirerbua</name><desc>Mödling | Erikagrat</desc></wpt>
<wpt lat="48.081424" lon="16.275497"><name>Sunshine</name><desc>Mödling | Erikagrat</desc></wpt>
<wpt lat="48.081424" lon="16.275497"><name>Tiroler Bua</name><desc>Mödling | Erikagrat</desc></wpt>
<wpt lat="48.081424" lon="16.275497"><name>Wotan Wartet Nicht</name><desc>Mödling | Erikagrat</desc></wpt>
<wpt lat="48.081424" lon="16.275497"><name>Übung mit Erika</name><desc>Mödling | Erikagrat</desc></wpt>
</gpx>
