<?xml version="1.0" encoding="UTF-8"?>
<gpx version="1.1" creator="Vertical Moment" xmlns="http://www.topografix.com/GPX/1/1">
<metadata><name>Mödling | Rauhe Platte</name><desc>GPS data for Vertical Moment master v4. Coordinates derived from OSM (OpenStreetMap, (c) OSM contributors, ODbL 1.0), theCrag, climb.sk, outdooractive, Nominatim and legacy master coords.</desc></metadata>
<wpt lat="48.078912" lon="16.277024"><name>Andrea the Croat</name><desc>Mödling | Rauhe Platte</desc></wpt>
<wpt lat="48.078912" lon="16.277024"><name>Black Hole</name><desc>Mödling | Rauhe Platte</desc></wpt>
<wpt lat="48.078912" lon="16.277024"><name>Captain Kirk</name><desc>Mödling | Rauhe Platte</desc></wpt>
<wpt lat="48.078912" lon="16.277024"><name>Direkte Südwand</name><desc>Mödling | Rauhe Platte</desc></wpt>
<wpt lat="48.078912" lon="16.277024"><name>Enterprise</name><desc>Mödling | Rauhe Platte</desc></wpt>
<wpt lat="48.078912" lon="16.277024"><name>Mr Spock</name><desc>Mödling | Rauhe Platte</desc></wpt>
<wpt lat="48.078912" lon="16.277024"><name>Pille</name><desc>Mödling | Rauhe Platte</desc></wpt>
<wpt lat="48.078912" lon="16.277024"><name>Sauerkraut Extrem</name><desc>Mödling | Rauhe Platte</desc></wpt>
<wpt lat="48.078912" lon="16.277024"><name>Silicon Valley</name><desc>Mödling | Rauhe Platte</desc></wpt>
</gpx>
