<?xml version="1.0" encoding="UTF-8"?>
<gpx version="1.1" creator="Vertical Moment" xmlns="http://www.topografix.com/GPX/1/1">
<metadata><name>Mödling | Glocknergrat</name><desc>GPS data for Vertical Moment master v4. Coordinates derived from OSM (OpenStreetMap, (c) OSM contributors, ODbL 1.0), theCrag, climb.sk, outdooractive, Nominatim and legacy master coords.</desc></metadata>
<wpt lat="48.082238" lon="16.276261"><name>Aids oder Geht's</name><desc>Mödling | Glocknergrat</desc></wpt>
<wpt lat="48.082238" lon="16.276261"><name>Blauer Portugieser</name><desc>Mödling | Glocknergrat</desc></wpt>
<wpt lat="48.082238" lon="16.276261"><name>Dornröschen</name><desc>Mödling | Glocknergrat</desc></wpt>
<wpt lat="48.082238" lon="16.276261"><name>Duo Links</name><desc>Mödling | Glocknergrat</desc></wpt>
<wpt lat="48.082238" lon="16.276261"><name>Duo Rechts</name><desc>Mödling | Glocknergrat</desc></wpt>
<wpt lat="48.082238" lon="16.276261"><name>Fiaker</name><desc>Mödling | Glocknergrat</desc></wpt>
<wpt lat="48.082238" lon="16.276261"><name>Frühling</name><desc>Mödling | Glocknergrat</desc></wpt>
<wpt lat="48.082238" lon="16.276261"><name>Frühschoppen</name><desc>Mödling | Glocknergrat</desc></wpt>
<wpt lat="48.082238" lon="16.276261"><name>Gratüberschreitung</name><desc>Mödling | Glocknergrat</desc></wpt>
<wpt lat="48.082238" lon="16.276261"><name>Kleiner Gerhard</name><desc>Mödling | Glocknergrat</desc></wpt>
<wpt lat="48.082238" lon="16.276261"><name>Kleiner Hansi</name><desc>Mödling | Glocknergrat</desc></wpt>
<wpt lat="48.082238" lon="16.276261"><name>Kleiner Kurti</name><desc>Mödling | Glocknergrat</desc></wpt>
<wpt lat="48.082238" lon="16.276261"><name>Locker vom Hocker</name><desc>Mödling | Glocknergrat</desc></wpt>
<wpt lat="48.082238" lon="16.276261"><name>Neue Schreams'n</name><desc>Mödling | Glocknergrat</desc></wpt>
<wpt lat="48.082238" lon="16.276261"><name>Noch Einfacher</name><desc>Mödling | Glocknergrat</desc></wpt>
<wpt lat="48.082238" lon="16.276261"><name>Nr 20</name><desc>Mödling | Glocknergrat</desc></wpt>
<wpt lat="48.082238" lon="16.276261"><name>Nr 21 (keine Haken)</name><desc>Mödling | Glocknergrat</desc></wpt>
<wpt lat="48.082238" lon="16.276261"><name>Nr 26</name><desc>Mödling | Glocknergrat</desc></wpt>
<wpt lat="48.082238" lon="16.276261"><name>Nr 29</name><desc>Mödling | Glocknergrat</desc></wpt>
<wpt lat="48.082238" lon="16.276261"><name>Nr 8</name><desc>Mödling | Glocknergrat</desc></wpt>
<wpt lat="48.082238" lon="16.276261"><name>Pferdehölle</name><desc>Mödling | Glocknergrat</desc></wpt>
<wpt lat="48.082238" lon="16.276261"><name>Rote Spur</name><desc>Mödling | Glocknergrat</desc></wpt>
<wpt lat="48.082238" lon="16.276261"><name>Sommer</name><desc>Mödling | Glocknergrat</desc></wpt>
<wpt lat="48.082238" lon="16.276261"><name>The Edge</name><desc>Mödling | Glocknergrat</desc></wpt>
<wpt lat="48.082238" lon="16.276261"><name>Variante</name><desc>Mödling | Glocknergrat</desc></wpt>
<wpt lat="48.082238" lon="16.276261"><name>Westwandplatte</name><desc>Mödling | Glocknergrat</desc></wpt>
<wpt lat="48.082238" lon="16.276261"><name>Winter</name><desc>Mödling | Glocknergrat</desc></wpt>
<wpt lat="48.082238" lon="16.276261"><name>Winterriss</name><desc>Mödling | Glocknergrat</desc></wpt>
<wpt lat="48.082238" lon="16.276261"><name>Zeitgeisterfahrer</name><desc>Mödling | Glocknergrat</desc></wpt>
<wpt lat="48.082238" lon="16.276261"><name>Zu Einfach</name><desc>Mödling | Glocknergrat</desc></wpt>
</gpx>
