<?xml version="1.0" encoding="UTF-8"?>
<gpx version="1.1" creator="Vertical Moment" xmlns="http://www.topografix.com/GPX/1/1">
<metadata><name>Mödling | Matterhörndl</name><desc>GPS data for Vertical Moment master v4. Coordinates derived from OSM (OpenStreetMap, (c) OSM contributors, ODbL 1.0), theCrag, climb.sk, outdooractive, Nominatim and legacy master coords.</desc></metadata>
<wpt lat="48.0717616" lon="16.2514685"><name>Nordkante</name><desc>Mödling | Matterhörndl</desc></wpt>
<wpt lat="48.0717616" lon="16.2514685"><name>Nordwand</name><desc>Mödling | Matterhörndl</desc></wpt>
<wpt lat="48.0717616" lon="16.2514685"><name>Nordwestwand</name><desc>Mödling | Matterhörndl</desc></wpt>
<wpt lat="48.0717616" lon="16.2514685"><name>Normalweg</name><desc>Mödling | Matterhörndl</desc></wpt>
<wpt lat="48.0717616" lon="16.2514685"><name>Ostkamin</name><desc>Mödling | Matterhörndl</desc></wpt>
<wpt lat="48.0717616" lon="16.2514685"><name>Ostkante</name><desc>Mödling | Matterhörndl</desc></wpt>
<wpt lat="48.0717616" lon="16.2514685"><name>Rampe</name><desc>Mödling | Matterhörndl</desc></wpt>
<wpt lat="48.0717616" lon="16.2514685"><name>Rechte Südkante</name><desc>Mödling | Matterhörndl</desc></wpt>
<wpt lat="48.0717616" lon="16.2514685"><name>Südostriss</name><desc>Mödling | Matterhörndl</desc></wpt>
<wpt lat="48.0717616" lon="16.2514685"><name>Südwestriss</name><desc>Mödling | Matterhörndl</desc></wpt>
<wpt lat="48.0717616" lon="16.2514685"><name>Westkamin</name><desc>Mödling | Matterhörndl</desc></wpt>
<wpt lat="48.0717616" lon="16.2514685"><name>Westriss</name><desc>Mödling | Matterhörndl</desc></wpt>
</gpx>
