<?xml version="1.0" encoding="UTF-8"?>
<gpx version="1.1" creator="Vertical Moment" xmlns="http://www.topografix.com/GPX/1/1">
<metadata><name>Mödling | Gumpoldskirchen</name><desc>GPS data for Vertical Moment master v4. Coordinates derived from OSM (OpenStreetMap, (c) OSM contributors, ODbL 1.0), theCrag, climb.sk, outdooractive, Nominatim and legacy master coords.</desc></metadata>
<wpt lat="48.046052" lon="16.269666"><name>Andi los mi owa</name><desc>Mödling | Gumpoldskirchen</desc></wpt>
<wpt lat="48.046052" lon="16.269666"><name>Blaubarschbubi</name><desc>Mödling | Gumpoldskirchen</desc></wpt>
<wpt lat="48.046052" lon="16.269666"><name>Dancing Susi</name><desc>Mödling | Gumpoldskirchen</desc></wpt>
<wpt lat="48.046052" lon="16.269666"><name>Ferdis Thron</name><desc>Mödling | Gumpoldskirchen</desc></wpt>
<wpt lat="48.046052" lon="16.269666"><name>Flitzer</name><desc>Mödling | Gumpoldskirchen</desc></wpt>
<wpt lat="48.046052" lon="16.269666"><name>Flummi</name><desc>Mödling | Gumpoldskirchen</desc></wpt>
<wpt lat="48.046052" lon="16.269666"><name>Klettersteigrunde B</name><desc>Mödling | Gumpoldskirchen</desc></wpt>
<wpt lat="48.046052" lon="16.269666"><name>Nr 10</name><desc>Mödling | Gumpoldskirchen</desc></wpt>
<wpt lat="48.046052" lon="16.269666"><name>Nr 7</name><desc>Mödling | Gumpoldskirchen</desc></wpt>
<wpt lat="48.046052" lon="16.269666"><name>Olé</name><desc>Mödling | Gumpoldskirchen</desc></wpt>
<wpt lat="48.046052" lon="16.269666"><name>Prutschurdl</name><desc>Mödling | Gumpoldskirchen</desc></wpt>
</gpx>
