<?xml version="1.0" encoding="UTF-8"?>
<gpx version="1.1" creator="Vertical Moment" xmlns="http://www.topografix.com/GPX/1/1">
<metadata><name>Neunkirchen | Sieding Pekwandl</name><desc>GPS data for Vertical Moment master v4. Coordinates derived from OSM (OpenStreetMap, (c) OSM contributors, ODbL 1.0), theCrag, climb.sk, outdooractive, Nominatim and legacy master coords.</desc></metadata>
<wpt lat="47.7345" lon="15.983"><name>ABSEITS DER PROMENADE</name><desc>Neunkirchen | Sieding Pekwandl</desc></wpt>
<wpt lat="47.7345" lon="15.983"><name>ARIZONA PFEILER</name><desc>Neunkirchen | Sieding Pekwandl</desc></wpt>
<wpt lat="47.7345" lon="15.983"><name>BRUNI</name><desc>Neunkirchen | Sieding Pekwandl</desc></wpt>
<wpt lat="47.7345" lon="15.983"><name>CRUISING</name><desc>Neunkirchen | Sieding Pekwandl</desc></wpt>
<wpt lat="47.7345" lon="15.983"><name>DIE GLÜCKLICHEN</name><desc>Neunkirchen | Sieding Pekwandl</desc></wpt>
<wpt lat="47.7345" lon="15.983"><name>DIE ZWEI AUGEN</name><desc>Neunkirchen | Sieding Pekwandl</desc></wpt>
<wpt lat="47.7345" lon="15.983"><name>DIREKTVARIANTE</name><desc>Neunkirchen | Sieding Pekwandl</desc></wpt>
<wpt lat="47.7345" lon="15.983"><name>HAMMERLMAN</name><desc>Neunkirchen | Sieding Pekwandl</desc></wpt>
<wpt lat="47.7345" lon="15.983"><name>KIUAN IS WAITING</name><desc>Neunkirchen | Sieding Pekwandl</desc></wpt>
<wpt lat="47.7345" lon="15.983"><name>SCHLEIFEN IST SCHÖN</name><desc>Neunkirchen | Sieding Pekwandl</desc></wpt>
<wpt lat="47.7345" lon="15.983"><name>SEKTOR 1</name><desc>Neunkirchen | Sieding Pekwandl</desc></wpt>
<wpt lat="47.7345" lon="15.983"><name>SHARPNESS AT NOON</name><desc>Neunkirchen | Sieding Pekwandl</desc></wpt>
<wpt lat="47.7345" lon="15.983"><name>SIEDINGER PECHERSTEIGERL</name><desc>Neunkirchen | Sieding Pekwandl</desc></wpt>
<wpt lat="47.7345" lon="15.983"><name>STREICHEN IST SCHÖNER OZUWNFT IN SCHLUCHTEN</name><desc>Neunkirchen | Sieding Pekwandl</desc></wpt>
</gpx>
