<?xml version="1.0" encoding="UTF-8"?>
<gpx version="1.1" creator="Vertical Moment" xmlns="http://www.topografix.com/GPX/1/1">
<metadata><name>Neunkirchen | Flatzer Wand</name><desc>GPS data for Vertical Moment master v4. Coordinates derived from OSM (OpenStreetMap, (c) OSM contributors, ODbL 1.0), theCrag, climb.sk, outdooractive, Nominatim and legacy master coords.</desc></metadata>
<wpt lat="47.7295776" lon="16.0312489"><name>&amp;JENSEITS VON FLATZ</name><desc>Neunkirchen | Flatzer Wand</desc></wpt>
<wpt lat="47.7295776" lon="16.0312489"><name>7.HlMMEL</name><desc>Neunkirchen | Flatzer Wand</desc></wpt>
<wpt lat="47.7295776" lon="16.0312489"><name>A@BAUMBLATT</name><desc>Neunkirchen | Flatzer Wand</desc></wpt>
<wpt lat="47.7295776" lon="16.0312489"><name>AGRARIER</name><desc>Neunkirchen | Flatzer Wand</desc></wpt>
<wpt lat="47.7295776" lon="16.0312489"><name>ARMER SÜNDER</name><desc>Neunkirchen | Flatzer Wand</desc></wpt>
<wpt lat="47.7295776" lon="16.0312489"><name>ASCHKRÄULN</name><desc>Neunkirchen | Flatzer Wand</desc></wpt>
<wpt lat="47.7295776" lon="16.0312489"><name>AUSN LETZTN LOCH</name><desc>Neunkirchen | Flatzer Wand</desc></wpt>
<wpt lat="47.7295776" lon="16.0312489"><name>BEHIND BLUE EYES</name><desc>Neunkirchen | Flatzer Wand</desc></wpt>
<wpt lat="47.7295776" lon="16.0312489"><name>BERGE OHNE NAMEN</name><desc>Neunkirchen | Flatzer Wand</desc></wpt>
<wpt lat="47.7295776" lon="16.0312489"><name>BIERRISS</name><desc>Neunkirchen | Flatzer Wand</desc></wpt>
<wpt lat="47.7295776" lon="16.0312489"><name>BIR TEGERU DAS</name><desc>Neunkirchen | Flatzer Wand</desc></wpt>
<wpt lat="47.7295776" lon="16.0312489"><name>BLUT AUS NORD</name><desc>Neunkirchen | Flatzer Wand</desc></wpt>
<wpt lat="47.7295776" lon="16.0312489"><name>BOEING 747</name><desc>Neunkirchen | Flatzer Wand</desc></wpt>
<wpt lat="47.7295776" lon="16.0312489"><name>BRAUNE VERSCHNEIDUNG</name><desc>Neunkirchen | Flatzer Wand</desc></wpt>
<wpt lat="47.7295776" lon="16.0312489"><name>CHARAKTER Im rechten Teil der OZUM GENIALEN AUSBLICK ORECONQUlSTA</name><desc>Neunkirchen | Flatzer Wand</desc></wpt>
<wpt lat="47.7295776" lon="16.0312489"><name>CHARAKTER: Der alte Sektor OSCHMUTZLI</name><desc>Neunkirchen | Flatzer Wand</desc></wpt>
<wpt lat="47.7295776" lon="16.0312489"><name>DACHL</name><desc>Neunkirchen | Flatzer Wand</desc></wpt>
<wpt lat="47.7295776" lon="16.0312489"><name>DER LETZTE GOTE</name><desc>Neunkirchen | Flatzer Wand</desc></wpt>
<wpt lat="47.7295776" lon="16.0312489"><name>DIE BUCHE</name><desc>Neunkirchen | Flatzer Wand</desc></wpt>
<wpt lat="47.7295776" lon="16.0312489"><name>DIREKTER AUSSTIEG</name><desc>Neunkirchen | Flatzer Wand</desc></wpt>
<wpt lat="47.7295776" lon="16.0312489"><name>DIREKTER PFEILER</name><desc>Neunkirchen | Flatzer Wand</desc></wpt>
<wpt lat="47.7295776" lon="16.0312489"><name>DUNTENRENNEN</name><desc>Neunkirchen | Flatzer Wand</desc></wpt>
<wpt lat="47.7295776" lon="16.0312489"><name>EIN GESCHENK</name><desc>Neunkirchen | Flatzer Wand</desc></wpt>
<wpt lat="47.7295776" lon="16.0312489"><name>EKHNATON</name><desc>Neunkirchen | Flatzer Wand</desc></wpt>
<wpt lat="47.7295776" lon="16.0312489"><name>ELF UHR SPREITZGRABNER</name><desc>Neunkirchen | Flatzer Wand</desc></wpt>
<wpt lat="47.7295776" lon="16.0312489"><name>EVERLONG</name><desc>Neunkirchen | Flatzer Wand</desc></wpt>
<wpt lat="47.7295776" lon="16.0312489"><name>FEDERLOSER STURZPILOT</name><desc>Neunkirchen | Flatzer Wand</desc></wpt>
<wpt lat="47.7295776" lon="16.0312489"><name>FIVE A DAY</name><desc>Neunkirchen | Flatzer Wand</desc></wpt>
<wpt lat="47.7295776" lon="16.0312489"><name>FLATZER U-BAHN</name><desc>Neunkirchen | Flatzer Wand</desc></wpt>
<wpt lat="47.7295776" lon="16.0312489"><name>GEDENKWEG</name><desc>Neunkirchen | Flatzer Wand</desc></wpt>
<wpt lat="47.7295776" lon="16.0312489"><name>GEILE PLATTE</name><desc>Neunkirchen | Flatzer Wand</desc></wpt>
<wpt lat="47.7295776" lon="16.0312489"><name>GRAU UND RAU</name><desc>Neunkirchen | Flatzer Wand</desc></wpt>
<wpt lat="47.7295776" lon="16.0312489"><name>HANSISTEIG</name><desc>Neunkirchen | Flatzer Wand</desc></wpt>
<wpt lat="47.7295776" lon="16.0312489"><name>HARTLWEG</name><desc>Neunkirchen | Flatzer Wand</desc></wpt>
<wpt lat="47.7295776" lon="16.0312489"><name>HARTLWEG UNKE VARIANTE</name><desc>Neunkirchen | Flatzer Wand</desc></wpt>
<wpt lat="47.7295776" lon="16.0312489"><name>HEANAKRÄULN</name><desc>Neunkirchen | Flatzer Wand</desc></wpt>
<wpt lat="47.7295776" lon="16.0312489"><name>HERZ</name><desc>Neunkirchen | Flatzer Wand</desc></wpt>
<wpt lat="47.7295776" lon="16.0312489"><name>HOW A MAN LOVES</name><desc>Neunkirchen | Flatzer Wand</desc></wpt>
<wpt lat="47.7295776" lon="16.0312489"><name>IA@WESTKANTE</name><desc>Neunkirchen | Flatzer Wand</desc></wpt>
<wpt lat="47.7295776" lon="16.0312489"><name>IDEALLINIE</name><desc>Neunkirchen | Flatzer Wand</desc></wpt>
<wpt lat="47.7295776" lon="16.0312489"><name>KARUS TRAUM</name><desc>Neunkirchen | Flatzer Wand</desc></wpt>
<wpt lat="47.7295776" lon="16.0312489"><name>KLAPSMÜHLE</name><desc>Neunkirchen | Flatzer Wand</desc></wpt>
<wpt lat="47.7295776" lon="16.0312489"><name>KOORDINATOR IS DA GRUABA</name><desc>Neunkirchen | Flatzer Wand</desc></wpt>
<wpt lat="47.7295776" lon="16.0312489"><name>LARIFARI</name><desc>Neunkirchen | Flatzer Wand</desc></wpt>
<wpt lat="47.7295776" lon="16.0312489"><name>MACHEINER</name><desc>Neunkirchen | Flatzer Wand</desc></wpt>
<wpt lat="47.7295776" lon="16.0312489"><name>MAGISCHER SCHIMMER</name><desc>Neunkirchen | Flatzer Wand</desc></wpt>
<wpt lat="47.7295776" lon="16.0312489"><name>MANCHILD</name><desc>Neunkirchen | Flatzer Wand</desc></wpt>
<wpt lat="47.7295776" lon="16.0312489"><name>MANTLE ZUR WUCHTL</name><desc>Neunkirchen | Flatzer Wand</desc></wpt>
<wpt lat="47.7295776" lon="16.0312489"><name>MAXSTEIG</name><desc>Neunkirchen | Flatzer Wand</desc></wpt>
<wpt lat="47.7295776" lon="16.0312489"><name>MUNDLAUSSTIEG</name><desc>Neunkirchen | Flatzer Wand</desc></wpt>
<wpt lat="47.7295776" lon="16.0312489"><name>MUNDLPFEILER</name><desc>Neunkirchen | Flatzer Wand</desc></wpt>
<wpt lat="47.7295776" lon="16.0312489"><name>MUSTAFA MANNESMANN</name><desc>Neunkirchen | Flatzer Wand</desc></wpt>
<wpt lat="47.7295776" lon="16.0312489"><name>NAMENLOS</name><desc>Neunkirchen | Flatzer Wand</desc></wpt>
<wpt lat="47.7295776" lon="16.0312489"><name>NEUES RENNEN</name><desc>Neunkirchen | Flatzer Wand</desc></wpt>
<wpt lat="47.7295776" lon="16.0312489"><name>PEN-SCHWEIN</name><desc>Neunkirchen | Flatzer Wand</desc></wpt>
<wpt lat="47.7295776" lon="16.0312489"><name>PFEILER</name><desc>Neunkirchen | Flatzer Wand</desc></wpt>
<wpt lat="47.7295776" lon="16.0312489"><name>PHÖNIX EDELFELS</name><desc>Neunkirchen | Flatzer Wand</desc></wpt>
<wpt lat="47.7295776" lon="16.0312489"><name>PLATTENVARIANTE</name><desc>Neunkirchen | Flatzer Wand</desc></wpt>
<wpt lat="47.7295776" lon="16.0312489"><name>PRAETORIANER</name><desc>Neunkirchen | Flatzer Wand</desc></wpt>
<wpt lat="47.7295776" lon="16.0312489"><name>PRIMARSTUFE</name><desc>Neunkirchen | Flatzer Wand</desc></wpt>
<wpt lat="47.7295776" lon="16.0312489"><name>QOElNHERJER</name><desc>Neunkirchen | Flatzer Wand</desc></wpt>
<wpt lat="47.7295776" lon="16.0312489"><name>REISEFROSCH</name><desc>Neunkirchen | Flatzer Wand</desc></wpt>
<wpt lat="47.7295776" lon="16.0312489"><name>RIGINALEINSTIEG</name><desc>Neunkirchen | Flatzer Wand</desc></wpt>
<wpt lat="47.7295776" lon="16.0312489"><name>RISS</name><desc>Neunkirchen | Flatzer Wand</desc></wpt>
<wpt lat="47.7295776" lon="16.0312489"><name>ROSTGITTER</name><desc>Neunkirchen | Flatzer Wand</desc></wpt>
<wpt lat="47.7295776" lon="16.0312489"><name>RUMPELSTILZCHEN</name><desc>Neunkirchen | Flatzer Wand</desc></wpt>
<wpt lat="47.7295776" lon="16.0312489"><name>RUSSKI</name><desc>Neunkirchen | Flatzer Wand</desc></wpt>
<wpt lat="47.7295776" lon="16.0312489"><name>SCHINDERHANNES</name><desc>Neunkirchen | Flatzer Wand</desc></wpt>
<wpt lat="47.7295776" lon="16.0312489"><name>SCHWERMETALL</name><desc>Neunkirchen | Flatzer Wand</desc></wpt>
<wpt lat="47.7295776" lon="16.0312489"><name>SCHÜTZIRISS</name><desc>Neunkirchen | Flatzer Wand</desc></wpt>
<wpt lat="47.7295776" lon="16.0312489"><name>SEPPLKAMIN</name><desc>Neunkirchen | Flatzer Wand</desc></wpt>
<wpt lat="47.7295776" lon="16.0312489"><name>SILBERSCHLÜSSEL</name><desc>Neunkirchen | Flatzer Wand</desc></wpt>
<wpt lat="47.7295776" lon="16.0312489"><name>SINTERSÄULE</name><desc>Neunkirchen | Flatzer Wand</desc></wpt>
<wpt lat="47.7295776" lon="16.0312489"><name>SONNTAGSAUSFLÜG</name><desc>Neunkirchen | Flatzer Wand</desc></wpt>
<wpt lat="47.7295776" lon="16.0312489"><name>STAHLROMANTIK</name><desc>Neunkirchen | Flatzer Wand</desc></wpt>
<wpt lat="47.7295776" lon="16.0312489"><name>STICKY</name><desc>Neunkirchen | Flatzer Wand</desc></wpt>
<wpt lat="47.7295776" lon="16.0312489"><name>SUNSHINE DIREKT</name><desc>Neunkirchen | Flatzer Wand</desc></wpt>
<wpt lat="47.7295776" lon="16.0312489"><name>SÖLDNER</name><desc>Neunkirchen | Flatzer Wand</desc></wpt>
<wpt lat="47.7295776" lon="16.0312489"><name>SÜDKANTE</name><desc>Neunkirchen | Flatzer Wand</desc></wpt>
<wpt lat="47.7295776" lon="16.0312489"><name>SÜSSMOST ORIGINAL</name><desc>Neunkirchen | Flatzer Wand</desc></wpt>
<wpt lat="47.7295776" lon="16.0312489"><name>THERAPIE</name><desc>Neunkirchen | Flatzer Wand</desc></wpt>
<wpt lat="47.7295776" lon="16.0312489"><name>THIS WHAT I REALLY UKE</name><desc>Neunkirchen | Flatzer Wand</desc></wpt>
<wpt lat="47.7295776" lon="16.0312489"><name>TOMASIO</name><desc>Neunkirchen | Flatzer Wand</desc></wpt>
<wpt lat="47.7295776" lon="16.0312489"><name>VERSCHNEIDUNG</name><desc>Neunkirchen | Flatzer Wand</desc></wpt>
<wpt lat="47.7295776" lon="16.0312489"><name>VORRElTER</name><desc>Neunkirchen | Flatzer Wand</desc></wpt>
<wpt lat="47.7295776" lon="16.0312489"><name>WALDGANG</name><desc>Neunkirchen | Flatzer Wand</desc></wpt>
<wpt lat="47.7295776" lon="16.0312489"><name>WELTAUFSICHTSRAT</name><desc>Neunkirchen | Flatzer Wand</desc></wpt>
<wpt lat="47.7295776" lon="16.0312489"><name>WILBUR</name><desc>Neunkirchen | Flatzer Wand</desc></wpt>
<wpt lat="47.7295776" lon="16.0312489"><name>WILDGARTEN</name><desc>Neunkirchen | Flatzer Wand</desc></wpt>
<wpt lat="47.7295776" lon="16.0312489"><name>YETI</name><desc>Neunkirchen | Flatzer Wand</desc></wpt>
<wpt lat="47.7295776" lon="16.0312489"><name>ZUMPFERLROMANTIK</name><desc>Neunkirchen | Flatzer Wand</desc></wpt>
<wpt lat="47.7295776" lon="16.0312489"><name>mtß@PlNUS NIGRA</name><desc>Neunkirchen | Flatzer Wand</desc></wpt>
<wpt lat="47.7295776" lon="16.0312489"><name>rtODÜLFERRlSS</name><desc>Neunkirchen | Flatzer Wand</desc></wpt>
<wpt lat="47.7295776" lon="16.0312489"><name>ÜOFUEGENDRECK</name><desc>Neunkirchen | Flatzer Wand</desc></wpt>
</gpx>
