<?xml version="1.0" encoding="UTF-8"?>
<gpx version="1.1" creator="Vertical Moment" xmlns="http://www.topografix.com/GPX/1/1">
<metadata><name>Nowe rejony alpejskie (Odkryte w procesie redakcji) | —</name><desc>GPS data for Vertical Moment master v4. Coordinates derived from OSM (OpenStreetMap, (c) OSM contributors, ODbL 1.0), theCrag, climb.sk, outdooractive, Nominatim and legacy master coords.</desc></metadata>
<wpt lat="47.6069243" lon="15.1156722"><name>Stangenwand Südwand</name><desc>Nowe rejony alpejskie (Odkryte w procesie redakcji) | —</desc></wpt>
<wpt lat="47.0802326" lon="11.6543606"><name>Lärmstange Nordkante</name><desc>Nowe rejony alpejskie (Odkryte w procesie redakcji) | —</desc></wpt>
<wpt lat="47.6480977" lon="11.9472618"><name>*Ruchenköpfe Westgrat*</name><desc>Nowe rejony alpejskie (Odkryte w procesie redakcji) | —</desc></wpt>
</gpx>
