<?xml version="1.0" encoding="UTF-8"?>
<gpx version="1.1" creator="Vertical Moment" xmlns="http://www.topografix.com/GPX/1/1">
<metadata><name>Nowe rejony alpejskie (Odkryte w procesie redakcji) | Plankenstein</name><desc>GPS data for Vertical Moment master v4. Coordinates derived from OSM (OpenStreetMap, (c) OSM contributors, ODbL 1.0), theCrag, climb.sk, outdooractive, Nominatim and legacy master coords.</desc></metadata>
<wpt lat="48.0381184" lon="15.2783773"><name>Direkter Ostgrat</name><desc>Nowe rejony alpejskie (Odkryte w procesie redakcji) | Plankenstein</desc></wpt>
</gpx>
