<?xml version="1.0" encoding="UTF-8"?>
<gpx version="1.1" creator="Vertical Moment" xmlns="http://www.topografix.com/GPX/1/1">
<metadata><name>Nowe rejony alpejskie (Odkryte w procesie redakcji) | Festkogel</name><desc>GPS data for Vertical Moment master v4. Coordinates derived from OSM (OpenStreetMap, (c) OSM contributors, ODbL 1.0), theCrag, climb.sk, outdooractive, Nominatim and legacy master coords.</desc></metadata>
<wpt lat="46.8521363" lon="11.0510882"><name>Anfängerglück</name><desc>Nowe rejony alpejskie (Odkryte w procesie redakcji) | Festkogel</desc></wpt>
</gpx>
