<?xml version="1.0" encoding="UTF-8"?>
<gpx version="1.1" creator="Vertical Moment" xmlns="http://www.topografix.com/GPX/1/1">
<metadata><name>Peilstein | Nebelgipfel Boulder</name><desc>GPS data for Vertical Moment master v4. Coordinates derived from OSM (OpenStreetMap, (c) OSM contributors, ODbL 1.0), theCrag, climb.sk, outdooractive, Nominatim and legacy master coords.</desc></metadata>
<wpt lat="48.0075" lon="16.0364"><name>HANSI BITTE SAFT</name><desc>Peilstein | Nebelgipfel Boulder</desc></wpt>
</gpx>
