<?xml version="1.0" encoding="UTF-8"?>
<gpx version="1.1" creator="Vertical Moment" xmlns="http://www.topografix.com/GPX/1/1">
<metadata><name>Peilstein | Thalhofergrat</name><desc>GPS data for Vertical Moment master v4. Coordinates derived from OSM (OpenStreetMap, (c) OSM contributors, ODbL 1.0), theCrag, climb.sk, outdooractive, Nominatim and legacy master coords.</desc></metadata>
<wpt lat="48.0067581" lon="16.0361074"><name>ASFINAG</name><desc>Peilstein | Thalhofergrat</desc></wpt>
<wpt lat="48.0067581" lon="16.0361074"><name>AUSLAGE</name><desc>Peilstein | Thalhofergrat</desc></wpt>
<wpt lat="48.0067581" lon="16.0361074"><name>AUTOSTOPPER</name><desc>Peilstein | Thalhofergrat</desc></wpt>
<wpt lat="48.0067581" lon="16.0361074"><name>BACH MÜCKE</name><desc>Peilstein | Thalhofergrat</desc></wpt>
<wpt lat="48.0067581" lon="16.0361074"><name>BACHSTELZE</name><desc>Peilstein | Thalhofergrat</desc></wpt>
<wpt lat="48.0067581" lon="16.0361074"><name>BLECHSCHADEN</name><desc>Peilstein | Thalhofergrat</desc></wpt>
<wpt lat="48.0067581" lon="16.0361074"><name>BUNDSCHLElCHE</name><desc>Peilstein | Thalhofergrat</desc></wpt>
<wpt lat="48.0067581" lon="16.0361074"><name>CUSH</name><desc>Peilstein | Thalhofergrat</desc></wpt>
<wpt lat="48.0067581" lon="16.0361074"><name>DIE WILDE HETZ</name><desc>Peilstein | Thalhofergrat</desc></wpt>
<wpt lat="48.0067581" lon="16.0361074"><name>ERBSENSUPPE</name><desc>Peilstein | Thalhofergrat</desc></wpt>
<wpt lat="48.0067581" lon="16.0361074"><name>FAULENZER</name><desc>Peilstein | Thalhofergrat</desc></wpt>
<wpt lat="48.0067581" lon="16.0361074"><name>HEUSCHRECKE</name><desc>Peilstein | Thalhofergrat</desc></wpt>
<wpt lat="48.0067581" lon="16.0361074"><name>LAUBFROSCH</name><desc>Peilstein | Thalhofergrat</desc></wpt>
<wpt lat="48.0067581" lon="16.0361074"><name>NORMALWEG</name><desc>Peilstein | Thalhofergrat</desc></wpt>
<wpt lat="48.0067581" lon="16.0361074"><name>NOSE</name><desc>Peilstein | Thalhofergrat</desc></wpt>
<wpt lat="48.0067581" lon="16.0361074"><name>SCHEISSWIND</name><desc>Peilstein | Thalhofergrat</desc></wpt>
</gpx>
