<?xml version="1.0" encoding="UTF-8"?>
<gpx version="1.1" creator="Vertical Moment" xmlns="http://www.topografix.com/GPX/1/1">
<metadata><name>Piestingtal | Sonnenuhrwand</name><desc>GPS data for Vertical Moment master v4. Coordinates derived from OSM (OpenStreetMap, (c) OSM contributors, ODbL 1.0), theCrag, climb.sk, outdooractive, Nominatim and legacy master coords.</desc></metadata>
<wpt lat="47.829903" lon="16.049398"><name>Puzzle für Fortgeschrittene</name><desc>Piestingtal | Sonnenuhrwand</desc></wpt>
<wpt lat="47.830051" lon="16.049278"><name>Sonnenuhrpfeiler</name><desc>Piestingtal | Sonnenuhrwand</desc></wpt>
</gpx>
