<?xml version="1.0" encoding="UTF-8"?>
<gpx version="1.1" creator="Vertical Moment" xmlns="http://www.topografix.com/GPX/1/1">
<metadata><name>Piestingtal | Große Postlwand</name><desc>GPS data for Vertical Moment master v4. Coordinates derived from OSM (OpenStreetMap, (c) OSM contributors, ODbL 1.0), theCrag, climb.sk, outdooractive, Nominatim and legacy master coords.</desc></metadata>
<wpt lat="47.830642" lon="16.051277"><name>Legoland</name><desc>Piestingtal | Große Postlwand</desc></wpt>
<wpt lat="47.829945" lon="16.050002"><name>Melancholia</name><desc>Piestingtal | Große Postlwand</desc></wpt>
<wpt lat="47.831449" lon="16.052396"><name>Osterhasi</name><desc>Piestingtal | Große Postlwand</desc></wpt>
<wpt lat="47.830276" lon="16.050077"><name>Postlrippe</name><desc>Piestingtal | Große Postlwand</desc></wpt>
<wpt lat="47.829799" lon="16.049678"><name>Smoky joki</name><desc>Piestingtal | Große Postlwand</desc></wpt>
</gpx>
