<?xml version="1.0" encoding="UTF-8"?>
<gpx version="1.1" creator="Vertical Moment" xmlns="http://www.topografix.com/GPX/1/1">
<metadata><name>Piestingtal | Milak Klettergarten</name><desc>GPS data for Vertical Moment master v4. Coordinates derived from OSM (OpenStreetMap, (c) OSM contributors, ODbL 1.0), theCrag, climb.sk, outdooractive, Nominatim and legacy master coords.</desc></metadata>
<wpt lat="47.828432" lon="16.047187"><name>Blaue Marken</name><desc>Piestingtal | Milak Klettergarten</desc></wpt>
<wpt lat="47.828769" lon="16.047745"><name>Gelbe Marken</name><desc>Piestingtal | Milak Klettergarten</desc></wpt>
<wpt lat="47.828655" lon="16.047572"><name>Varientenachter</name><desc>Piestingtal | Milak Klettergarten</desc></wpt>
<wpt lat="47.828402" lon="16.047275"><name>Weg zum Kreuz</name><desc>Piestingtal | Milak Klettergarten</desc></wpt>
</gpx>
