<?xml version="1.0" encoding="UTF-8"?>
<gpx version="1.1" creator="Vertical Moment" xmlns="http://www.topografix.com/GPX/1/1">
<metadata><name>Piestingtal | Almfriedenwände</name><desc>GPS data for Vertical Moment master v4. Coordinates derived from OSM (OpenStreetMap, (c) OSM contributors, ODbL 1.0), theCrag, climb.sk, outdooractive, Nominatim and legacy master coords.</desc></metadata>
<wpt lat="47.838108" lon="16.061976"><name>Autoput</name><desc>Piestingtal | Almfriedenwände</desc></wpt>
<wpt lat="47.832498" lon="16.053825"><name>Betty &amp; Paul</name><desc>Piestingtal | Almfriedenwände</desc></wpt>
<wpt lat="47.832478" lon="16.053727"><name>Beuteösterreichersteig</name><desc>Piestingtal | Almfriedenwände</desc></wpt>
<wpt lat="47.833043" lon="16.054652"><name>Draschgrat (leicht)</name><desc>Piestingtal | Almfriedenwände</desc></wpt>
<wpt lat="47.833144" lon="16.054976"><name>Draschgrat (schwer)</name><desc>Piestingtal | Almfriedenwände</desc></wpt>
<wpt lat="47.83297" lon="16.05441"><name>Duettsteig</name><desc>Piestingtal | Almfriedenwände</desc></wpt>
<wpt lat="47.83297" lon="16.05389"><name>Hochempor Verschneidung</name><desc>Piestingtal | Almfriedenwände</desc></wpt>
<wpt lat="47.833374" lon="16.055123"><name>Neuer DG</name><desc>Piestingtal | Almfriedenwände</desc></wpt>
<wpt lat="47.837747" lon="16.061906"><name>Panorama Put</name><desc>Piestingtal | Almfriedenwände</desc></wpt>
<wpt lat="47.832197" lon="16.053462"><name>Poppitz</name><desc>Piestingtal | Almfriedenwände</desc></wpt>
<wpt lat="47.833017" lon="16.054572"><name>Traum &amp; Wirklichkeit</name><desc>Piestingtal | Almfriedenwände</desc></wpt>
<wpt lat="47.83252" lon="16.053854"><name>Vierdörfersteig</name><desc>Piestingtal | Almfriedenwände</desc></wpt>
</gpx>
