<?xml version="1.0" encoding="UTF-8"?>
<gpx version="1.1" creator="Vertical Moment" xmlns="http://www.topografix.com/GPX/1/1">
<metadata><name>Piestingtal | ÖTK-Klettergarten</name><desc>GPS data for Vertical Moment master v4. Coordinates derived from OSM (OpenStreetMap, (c) OSM contributors, ODbL 1.0), theCrag, climb.sk, outdooractive, Nominatim and legacy master coords.</desc></metadata>
<wpt lat="47.83" lon="16.047526"><name>14</name><desc>Piestingtal | ÖTK-Klettergarten</desc></wpt>
<wpt lat="47.829995" lon="16.047541"><name>15</name><desc>Piestingtal | ÖTK-Klettergarten</desc></wpt>
<wpt lat="47.829949" lon="16.047692"><name>26</name><desc>Piestingtal | ÖTK-Klettergarten</desc></wpt>
<wpt lat="47.829963" lon="16.047714"><name>27</name><desc>Piestingtal | ÖTK-Klettergarten</desc></wpt>
<wpt lat="47.829958" lon="16.047728"><name>28</name><desc>Piestingtal | ÖTK-Klettergarten</desc></wpt>
<wpt lat="47.829984" lon="16.047704"><name>29</name><desc>Piestingtal | ÖTK-Klettergarten</desc></wpt>
<wpt lat="47.830057" lon="16.047286"><name>3</name><desc>Piestingtal | ÖTK-Klettergarten</desc></wpt>
<wpt lat="47.829952" lon="16.047743"><name>30</name><desc>Piestingtal | ÖTK-Klettergarten</desc></wpt>
<wpt lat="47.829971" lon="16.047761"><name>31</name><desc>Piestingtal | ÖTK-Klettergarten</desc></wpt>
<wpt lat="47.829929" lon="16.047753"><name>32</name><desc>Piestingtal | ÖTK-Klettergarten</desc></wpt>
<wpt lat="47.830069" lon="16.047309"><name>4</name><desc>Piestingtal | ÖTK-Klettergarten</desc></wpt>
<wpt lat="47.830073" lon="16.047327"><name>5</name><desc>Piestingtal | ÖTK-Klettergarten</desc></wpt>
<wpt lat="47.83007" lon="16.047353"><name>6</name><desc>Piestingtal | ÖTK-Klettergarten</desc></wpt>
<wpt lat="47.830062" lon="16.047373"><name>7</name><desc>Piestingtal | ÖTK-Klettergarten</desc></wpt>
<wpt lat="47.830033" lon="16.047455"><name>9</name><desc>Piestingtal | ÖTK-Klettergarten</desc></wpt>
<wpt lat="47.830056" lon="16.047402"><name>Mental Funeral</name><desc>Piestingtal | ÖTK-Klettergarten</desc></wpt>
<wpt lat="47.830073" lon="16.047253"><name>Sonne</name><desc>Piestingtal | ÖTK-Klettergarten</desc></wpt>
<wpt lat="47.830081" lon="16.047241"><name>Vater Mond</name><desc>Piestingtal | ÖTK-Klettergarten</desc></wpt>
<wpt lat="47.82997" lon="16.047545"><name>Wilde Völlerin</name><desc>Piestingtal | ÖTK-Klettergarten</desc></wpt>
</gpx>
