<?xml version="1.0" encoding="UTF-8"?>
<gpx version="1.1" creator="Vertical Moment" xmlns="http://www.topografix.com/GPX/1/1">
<metadata><name>Puchberg | Schrattenstein</name><desc>GPS data for Vertical Moment master v4. Coordinates derived from OSM (OpenStreetMap, (c) OSM contributors, ODbL 1.0), theCrag, climb.sk, outdooractive, Nominatim and legacy master coords.</desc></metadata>
<wpt lat="47.776825" lon="15.998445"><name>*WASSERFALLKANTE</name><desc>Puchberg | Schrattenstein</desc></wpt>
<wpt lat="47.776825" lon="15.998445"><name>A BLEDE GSCHICHT</name><desc>Puchberg | Schrattenstein</desc></wpt>
<wpt lat="47.776825" lon="15.998445"><name>ANNA G. GEDÄCHTNISWEG</name><desc>Puchberg | Schrattenstein</desc></wpt>
<wpt lat="47.776825" lon="15.998445"><name>ASCH DAHAM</name><desc>Puchberg | Schrattenstein</desc></wpt>
<wpt lat="47.776825" lon="15.998445"><name>BALKANRUTE</name><desc>Puchberg | Schrattenstein</desc></wpt>
<wpt lat="47.776825" lon="15.998445"><name>BIBELHURE</name><desc>Puchberg | Schrattenstein</desc></wpt>
<wpt lat="47.776825" lon="15.998445"><name>CAMOUFLAGE IN BLACK</name><desc>Puchberg | Schrattenstein</desc></wpt>
<wpt lat="47.776825" lon="15.998445"><name>DER TURMWURM</name><desc>Puchberg | Schrattenstein</desc></wpt>
<wpt lat="47.776825" lon="15.998445"><name>DIE KALTE SOPHIE</name><desc>Puchberg | Schrattenstein</desc></wpt>
<wpt lat="47.776825" lon="15.998445"><name>DIE RACI-E—</name><desc>Puchberg | Schrattenstein</desc></wpt>
<wpt lat="47.776825" lon="15.998445"><name>EDELSTAHLNUTTE</name><desc>Puchberg | Schrattenstein</desc></wpt>
<wpt lat="47.776825" lon="15.998445"><name>EWIG RANDSTÄNDIG</name><desc>Puchberg | Schrattenstein</desc></wpt>
<wpt lat="47.776825" lon="15.998445"><name>FEGEFEUER</name><desc>Puchberg | Schrattenstein</desc></wpt>
<wpt lat="47.776825" lon="15.998445"><name>FEGEFEUER ZU GOTT</name><desc>Puchberg | Schrattenstein</desc></wpt>
<wpt lat="47.776825" lon="15.998445"><name>FUTLAPPERL</name><desc>Puchberg | Schrattenstein</desc></wpt>
<wpt lat="47.776825" lon="15.998445"><name>GOTTESFINSTERNIS</name><desc>Puchberg | Schrattenstein</desc></wpt>
<wpt lat="47.776825" lon="15.998445"><name>HELREID</name><desc>Puchberg | Schrattenstein</desc></wpt>
<wpt lat="47.776825" lon="15.998445"><name>HEXENTOR</name><desc>Puchberg | Schrattenstein</desc></wpt>
<wpt lat="47.776825" lon="15.998445"><name>HEXENTURM NORMALWEG</name><desc>Puchberg | Schrattenstein</desc></wpt>
<wpt lat="47.776825" lon="15.998445"><name>HOLY PUR</name><desc>Puchberg | Schrattenstein</desc></wpt>
<wpt lat="47.776825" lon="15.998445"><name>HOLY SUPERFURCHE</name><desc>Puchberg | Schrattenstein</desc></wpt>
<wpt lat="47.776825" lon="15.998445"><name>HOLYS SPIRIT</name><desc>Puchberg | Schrattenstein</desc></wpt>
<wpt lat="47.776825" lon="15.998445"><name>HUBERT MAIER GEDENKWEG</name><desc>Puchberg | Schrattenstein</desc></wpt>
<wpt lat="47.776825" lon="15.998445"><name>IONECRODAEMON</name><desc>Puchberg | Schrattenstein</desc></wpt>
<wpt lat="47.776825" lon="15.998445"><name>LAMMBORGHINI</name><desc>Puchberg | Schrattenstein</desc></wpt>
<wpt lat="47.776825" lon="15.998445"><name>NATURFEINDSTEIG</name><desc>Puchberg | Schrattenstein</desc></wpt>
<wpt lat="47.776825" lon="15.998445"><name>PANKRATIUS</name><desc>Puchberg | Schrattenstein</desc></wpt>
<wpt lat="47.776825" lon="15.998445"><name>PUTIN DER ALPEN</name><desc>Puchberg | Schrattenstein</desc></wpt>
<wpt lat="47.776825" lon="15.998445"><name>SANKT SEBASTIAN</name><desc>Puchberg | Schrattenstein</desc></wpt>
<wpt lat="47.776825" lon="15.998445"><name>SCHRATTENSCHATTEN</name><desc>Puchberg | Schrattenstein</desc></wpt>
<wpt lat="47.776825" lon="15.998445"><name>SCHUPPENTIERES</name><desc>Puchberg | Schrattenstein</desc></wpt>
<wpt lat="47.776825" lon="15.998445"><name>SEUCHENTEPPICH</name><desc>Puchberg | Schrattenstein</desc></wpt>
<wpt lat="47.776825" lon="15.998445"><name>STEINERNES MEER</name><desc>Puchberg | Schrattenstein</desc></wpt>
<wpt lat="47.776825" lon="15.998445"><name>TON STEINE SCHERBEN</name><desc>Puchberg | Schrattenstein</desc></wpt>
<wpt lat="47.776825" lon="15.998445"><name>TOTES GEBIRGE</name><desc>Puchberg | Schrattenstein</desc></wpt>
<wpt lat="47.776825" lon="15.998445"><name>TUSSITURNEN</name><desc>Puchberg | Schrattenstein</desc></wpt>
<wpt lat="47.776825" lon="15.998445"><name>WIDERSPENSTIG</name><desc>Puchberg | Schrattenstein</desc></wpt>
<wpt lat="47.776825" lon="15.998445"><name>WILDER WILDERER</name><desc>Puchberg | Schrattenstein</desc></wpt>
<wpt lat="47.776825" lon="15.998445"><name>sich hier an die 30 bestens abge- ODER DADAISTISCHE TEUFEL @EISHEIUG</name><desc>Puchberg | Schrattenstein</desc></wpt>
</gpx>
