<?xml version="1.0" encoding="UTF-8"?>
<gpx version="1.1" creator="Vertical Moment" xmlns="http://www.topografix.com/GPX/1/1">
<metadata><name>Puchberg | Wasserfall Klettergarten</name><desc>GPS data for Vertical Moment master v4. Coordinates derived from OSM (OpenStreetMap, (c) OSM contributors, ODbL 1.0), theCrag, climb.sk, outdooractive, Nominatim and legacy master coords.</desc></metadata>
<wpt lat="47.7951639" lon="15.8562983"><name>DACH DIREKT</name><desc>Puchberg | Wasserfall Klettergarten</desc></wpt>
<wpt lat="47.7951639" lon="15.8562983"><name>DEM NETZ</name><desc>Puchberg | Wasserfall Klettergarten</desc></wpt>
<wpt lat="47.7951639" lon="15.8562983"><name>DUCHE DER SPINNE</name><desc>Puchberg | Wasserfall Klettergarten</desc></wpt>
<wpt lat="47.7951639" lon="15.8562983"><name>DURCH DAS NETZ</name><desc>Puchberg | Wasserfall Klettergarten</desc></wpt>
<wpt lat="47.7951639" lon="15.8562983"><name>EINSZUNUUTIROL</name><desc>Puchberg | Wasserfall Klettergarten</desc></wpt>
<wpt lat="47.7951639" lon="15.8562983"><name>HENKELPARTIE</name><desc>Puchberg | Wasserfall Klettergarten</desc></wpt>
<wpt lat="47.7951639" lon="15.8562983"><name>UNTERGRIFF</name><desc>Puchberg | Wasserfall Klettergarten</desc></wpt>
<wpt lat="47.7951639" lon="15.8562983"><name>UUH WIRD'S OBEN</name><desc>Puchberg | Wasserfall Klettergarten</desc></wpt>
<wpt lat="47.7951639" lon="15.8562983"><name>VERLÄNGERUNG</name><desc>Puchberg | Wasserfall Klettergarten</desc></wpt>
<wpt lat="47.7951639" lon="15.8562983"><name>VERSCHNEIDUNG</name><desc>Puchberg | Wasserfall Klettergarten</desc></wpt>
<wpt lat="47.7951639" lon="15.8562983"><name>WASSERFALL-KANTE</name><desc>Puchberg | Wasserfall Klettergarten</desc></wpt>
<wpt lat="47.7951639" lon="15.8562983"><name>WASSERFALLPLATTE</name><desc>Puchberg | Wasserfall Klettergarten</desc></wpt>
<wpt lat="47.7951639" lon="15.8562983"><name>WASSERRIUENPLATTE</name><desc>Puchberg | Wasserfall Klettergarten</desc></wpt>
<wpt lat="47.7951639" lon="15.8562983"><name>ZUFAHRT PKW: Über die A</name><desc>Puchberg | Wasserfall Klettergarten</desc></wpt>
<wpt lat="47.7951639" lon="15.8562983"><name>uNKE DACHVARIANTE</name><desc>Puchberg | Wasserfall Klettergarten</desc></wpt>
<wpt lat="47.7951639" lon="15.8562983"><name>ÜBER DIE UHR</name><desc>Puchberg | Wasserfall Klettergarten</desc></wpt>
</gpx>
