<?xml version="1.0" encoding="UTF-8"?>
<gpx version="1.1" creator="Vertical Moment" xmlns="http://www.topografix.com/GPX/1/1">
<metadata><name>Puchberg | Steinklause</name><desc>GPS data for Vertical Moment master v4. Coordinates derived from OSM (OpenStreetMap, (c) OSM contributors, ODbL 1.0), theCrag, climb.sk, outdooractive, Nominatim and legacy master coords.</desc></metadata>
<wpt lat="47.7951639" lon="15.8562983"><name>AGAMEMNON</name><desc>Puchberg | Steinklause</desc></wpt>
<wpt lat="47.7951639" lon="15.8562983"><name>BLACK VELVET</name><desc>Puchberg | Steinklause</desc></wpt>
<wpt lat="47.7951639" lon="15.8562983"><name>CHICKEN HEAD</name><desc>Puchberg | Steinklause</desc></wpt>
<wpt lat="47.7951639" lon="15.8562983"><name>HEIMATSCHOLLE</name><desc>Puchberg | Steinklause</desc></wpt>
<wpt lat="47.7951639" lon="15.8562983"><name>PROSIT 90</name><desc>Puchberg | Steinklause</desc></wpt>
<wpt lat="47.7951639" lon="15.8562983"><name>THIS EUROPE NOT OBLOODY SUNDAY</name><desc>Puchberg | Steinklause</desc></wpt>
<wpt lat="47.7951639" lon="15.8562983"><name>TRICK SIEBZEHN</name><desc>Puchberg | Steinklause</desc></wpt>
<wpt lat="47.7951639" lon="15.8562983"><name>UMPF UM DIE SONNE</name><desc>Puchberg | Steinklause</desc></wpt>
<wpt lat="47.7951639" lon="15.8562983"><name>ZUFAHRT PKW: Uber die A</name><desc>Puchberg | Steinklause</desc></wpt>
<wpt lat="47.7951639" lon="15.8562983"><name>ZWISCHEN LINKS UND RECHTS</name><desc>Puchberg | Steinklause</desc></wpt>
</gpx>
