<?xml version="1.0" encoding="UTF-8"?>
<gpx version="1.1" creator="Vertical Moment" xmlns="http://www.topografix.com/GPX/1/1">
<metadata><name>Puchberg | Gruenbacher Hausstein</name><desc>GPS data for Vertical Moment master v4. Coordinates derived from OSM (OpenStreetMap, (c) OSM contributors, ODbL 1.0), theCrag, climb.sk, outdooractive, Nominatim and legacy master coords.</desc></metadata>
<wpt lat="47.801825" lon="15.960955"><name>AOA-PFEILER</name><desc>Puchberg | Gruenbacher Hausstein</desc></wpt>
<wpt lat="47.801825" lon="15.960955"><name>BLACK ELDER</name><desc>Puchberg | Gruenbacher Hausstein</desc></wpt>
<wpt lat="47.801825" lon="15.960955"><name>BLACK THE WORLD</name><desc>Puchberg | Gruenbacher Hausstein</desc></wpt>
<wpt lat="47.801825" lon="15.960955"><name>BLANKER HASS</name><desc>Puchberg | Gruenbacher Hausstein</desc></wpt>
<wpt lat="47.801825" lon="15.960955"><name>DEVILS TREE</name><desc>Puchberg | Gruenbacher Hausstein</desc></wpt>
<wpt lat="47.801825" lon="15.960955"><name>DIVIDE ET</name><desc>Puchberg | Gruenbacher Hausstein</desc></wpt>
<wpt lat="47.801825" lon="15.960955"><name>FRITEUSE</name><desc>Puchberg | Gruenbacher Hausstein</desc></wpt>
<wpt lat="47.801825" lon="15.960955"><name>GEGENWIND</name><desc>Puchberg | Gruenbacher Hausstein</desc></wpt>
<wpt lat="47.801825" lon="15.960955"><name>HASCHBERG</name><desc>Puchberg | Gruenbacher Hausstein</desc></wpt>
<wpt lat="47.801825" lon="15.960955"><name>HULLAHOOP BITCHES</name><desc>Puchberg | Gruenbacher Hausstein</desc></wpt>
<wpt lat="47.801825" lon="15.960955"><name>JULZEIT</name><desc>Puchberg | Gruenbacher Hausstein</desc></wpt>
<wpt lat="47.801825" lon="15.960955"><name>KRABBLIGRATU</name><desc>Puchberg | Gruenbacher Hausstein</desc></wpt>
<wpt lat="47.801825" lon="15.960955"><name>NARRENKÅFIG</name><desc>Puchberg | Gruenbacher Hausstein</desc></wpt>
<wpt lat="47.801825" lon="15.960955"><name>NEBELFEE</name><desc>Puchberg | Gruenbacher Hausstein</desc></wpt>
<wpt lat="47.801825" lon="15.960955"><name>NEUHAUSKANTE</name><desc>Puchberg | Gruenbacher Hausstein</desc></wpt>
<wpt lat="47.801825" lon="15.960955"><name>PANIERTER HOLLER</name><desc>Puchberg | Gruenbacher Hausstein</desc></wpt>
<wpt lat="47.801825" lon="15.960955"><name>SCHNEEBERGE</name><desc>Puchberg | Gruenbacher Hausstein</desc></wpt>
<wpt lat="47.801825" lon="15.960955"><name>UNHAPPY END</name><desc>Puchberg | Gruenbacher Hausstein</desc></wpt>
<wpt lat="47.801825" lon="15.960955"><name>ZECORA</name><desc>Puchberg | Gruenbacher Hausstein</desc></wpt>
<wpt lat="47.801825" lon="15.960955"><name>ÖBLUTWINTER</name><desc>Puchberg | Gruenbacher Hausstein</desc></wpt>
</gpx>
