<?xml version="1.0" encoding="UTF-8"?>
<gpx version="1.1" creator="Vertical Moment" xmlns="http://www.topografix.com/GPX/1/1">
<metadata><name>Puchberg | Kuehlerstein</name><desc>GPS data for Vertical Moment master v4. Coordinates derived from OSM (OpenStreetMap, (c) OSM contributors, ODbL 1.0), theCrag, climb.sk, outdooractive, Nominatim and legacy master coords.</desc></metadata>
<wpt lat="47.7951639" lon="15.8562983"><name>AZRA</name><desc>Puchberg | Kuehlerstein</desc></wpt>
<wpt lat="47.7951639" lon="15.8562983"><name>BERGRETTERPLATTE</name><desc>Puchberg | Kuehlerstein</desc></wpt>
<wpt lat="47.7951639" lon="15.8562983"><name>BERGRETTERRISS</name><desc>Puchberg | Kuehlerstein</desc></wpt>
<wpt lat="47.7951639" lon="15.8562983"><name>BESOFFENER ONKEL</name><desc>Puchberg | Kuehlerstein</desc></wpt>
<wpt lat="47.7951639" lon="15.8562983"><name>BOMBING BASTARD</name><desc>Puchberg | Kuehlerstein</desc></wpt>
<wpt lat="47.7951639" lon="15.8562983"><name>CARANTÄNE</name><desc>Puchberg | Kuehlerstein</desc></wpt>
<wpt lat="47.7951639" lon="15.8562983"><name>DIETRICH</name><desc>Puchberg | Kuehlerstein</desc></wpt>
<wpt lat="47.7951639" lon="15.8562983"><name>DIREKTE BERGREITERPLATTE</name><desc>Puchberg | Kuehlerstein</desc></wpt>
<wpt lat="47.7951639" lon="15.8562983"><name>FIUBUSTER</name><desc>Puchberg | Kuehlerstein</desc></wpt>
<wpt lat="47.7951639" lon="15.8562983"><name>FUCK HER GENTLY</name><desc>Puchberg | Kuehlerstein</desc></wpt>
<wpt lat="47.7951639" lon="15.8562983"><name>GIERIGE SAU</name><desc>Puchberg | Kuehlerstein</desc></wpt>
<wpt lat="47.7951639" lon="15.8562983"><name>LA ENVERGADURA</name><desc>Puchberg | Kuehlerstein</desc></wpt>
<wpt lat="47.7951639" lon="15.8562983"><name>LANGSEITSPAZIERGANG</name><desc>Puchberg | Kuehlerstein</desc></wpt>
<wpt lat="47.7951639" lon="15.8562983"><name>PILZWUCHS</name><desc>Puchberg | Kuehlerstein</desc></wpt>
<wpt lat="47.7951639" lon="15.8562983"><name>PUCHBERGMEISTER</name><desc>Puchberg | Kuehlerstein</desc></wpt>
<wpt lat="47.7951639" lon="15.8562983"><name>RISS</name><desc>Puchberg | Kuehlerstein</desc></wpt>
<wpt lat="47.7951639" lon="15.8562983"><name>SCHWARZER BUTZ</name><desc>Puchberg | Kuehlerstein</desc></wpt>
<wpt lat="47.7951639" lon="15.8562983"><name>SPIEL DER GEISTER</name><desc>Puchberg | Kuehlerstein</desc></wpt>
<wpt lat="47.7951639" lon="15.8562983"><name>WASH MY SOUL</name><desc>Puchberg | Kuehlerstein</desc></wpt>
</gpx>
