<?xml version="1.0" encoding="UTF-8"?>
<gpx version="1.1" creator="Vertical Moment" xmlns="http://www.topografix.com/GPX/1/1">
<metadata><name>Raisenmarkt | Arnstein</name><desc>GPS data for Vertical Moment master v4. Coordinates derived from OSM (OpenStreetMap, (c) OSM contributors, ODbL 1.0), theCrag, climb.sk, outdooractive, Nominatim and legacy master coords.</desc></metadata>
<wpt lat="48.028694" lon="16.065213"><name>DAUSSENSEITERZWERG</name><desc>Raisenmarkt | Arnstein</desc></wpt>
<wpt lat="48.028694" lon="16.065213"><name>DIE AUFRECHTE FEE</name><desc>Raisenmarkt | Arnstein</desc></wpt>
<wpt lat="48.028694" lon="16.065213"><name>DIE STEILE FEE</name><desc>Raisenmarkt | Arnstein</desc></wpt>
<wpt lat="48.028694" lon="16.065213"><name>GIFTZWERG</name><desc>Raisenmarkt | Arnstein</desc></wpt>
<wpt lat="48.028694" lon="16.065213"><name>RGENFRUST</name><desc>Raisenmarkt | Arnstein</desc></wpt>
<wpt lat="48.028694" lon="16.065213"><name>ZWERGENAUFSTAND</name><desc>Raisenmarkt | Arnstein</desc></wpt>
<wpt lat="48.028694" lon="16.065213"><name>ZWERGENMARATHON</name><desc>Raisenmarkt | Arnstein</desc></wpt>
</gpx>
