<?xml version="1.0" encoding="UTF-8"?>
<gpx version="1.1" creator="Vertical Moment" xmlns="http://www.topografix.com/GPX/1/1">
<metadata><name>Rax i Schneeberg | —</name><desc>GPS data for Vertical Moment master v4. Coordinates derived from OSM (OpenStreetMap, (c) OSM contributors, ODbL 1.0), theCrag, climb.sk, outdooractive, Nominatim and legacy master coords.</desc></metadata>
<wpt lat="47.7005531" lon="15.7378852"><name>Westweg Preinerwand</name><desc>Rax i Schneeberg | —</desc></wpt>
<wpt lat="47.7143167" lon="15.7368164"><name>Kraxengrat</name><desc>Rax i Schneeberg | —</desc></wpt>
<wpt lat="47.7780166" lon="15.793707"><name>Schneebergwand Überschr.</name><desc>Rax i Schneeberg | —</desc></wpt>
</gpx>
