<?xml version="1.0" encoding="UTF-8"?>
<gpx version="1.1" creator="Vertical Moment" xmlns="http://www.topografix.com/GPX/1/1">
<metadata><name>Wienerwald i okolice | Röthelstein SO-Wand</name><desc>GPS data for Vertical Moment master v4. Coordinates derived from OSM (OpenStreetMap, (c) OSM contributors, ODbL 1.0), theCrag, climb.sk, outdooractive, Nominatim and legacy master coords.</desc></metadata>
<wpt lat="47.3077606" lon="15.3670051"><name>Postlerweg</name><desc>Wienerwald i okolice | Röthelstein SO-Wand</desc></wpt>
</gpx>
