<?xml version="1.0" encoding="UTF-8"?>
<gpx version="1.1" creator="Vertical Moment" xmlns="http://www.topografix.com/GPX/1/1">
<metadata><name>Wilder Kaiser | —</name><desc>GPS data for Vertical Moment master v4. Coordinates derived from OSM (OpenStreetMap, (c) OSM contributors, ODbL 1.0), theCrag, climb.sk, outdooractive, Nominatim and legacy master coords.</desc></metadata>
<wpt lat="47.5659252" lon="12.3207684"><name>Ellmauer Tor Tour</name><desc>Wilder Kaiser | —</desc></wpt>
<wpt lat="47.5687712" lon="12.3239622"><name>Hintere Goinger Halt Nordg.</name><desc>Wilder Kaiser | —</desc></wpt>
<wpt lat="47.563983" lon="12.315917"><name>Vordere Karlspitze Südostgr.</name><desc>Wilder Kaiser | —</desc></wpt>
</gpx>
