<?xml version="1.0" encoding="utf-8"?>
<gpx xmlns="http://www.topografix.com/GPX/1/1" version="1.1" creator="https://mapy.com/">
	<wpt lat="48.010749" lon="16.161975">
		<name>Beethovengrat</name>
	</wpt>
	<wpt lat="48.019512" lon="16.190224">
		<name>Badener Kletterschule</name>
	</wpt>
	<wpt lat="48.015792" lon="16.195563">
		<name>Beethovenwand</name>
	</wpt>
	<wpt lat="48.015771" lon="16.194458">
		<name>Scharfeneck</name>
	</wpt>
	<wpt lat="48.017002" lon="16.196180">
		<name>Zwergwandl</name>
	</wpt>
	<wpt lat="48.018401" lon="16.193624">
		<name>Kleines Verdon</name>
	</wpt>
	<wpt lat="48.019492" lon="16.194966">
		<name>Block 7</name>
	</wpt>
	<wpt lat="48.017609" lon="16.196708">
		<name>Kleines Verdon</name>
	</wpt>
	<wpt lat="48.023447" lon="16.192351">
		<name>Ötziturm</name>
	</wpt>
	<wpt lat="48.022607" lon="16.192024">
		<name>Siegenfelder Platte</name>
	</wpt>
	<wpt lat="48.020490" lon="16.193005">
		<name>Block 3: Fraaanz</name>
	</wpt>
	<wpt lat="48.015772" lon="16.194459">
		<name>Scharfeneck</name>
	</wpt>
	<wpt lat="48.015775" lon="16.195618">
		<name>Beethovenwand</name>
	</wpt>
	<wpt lat="48.019450" lon="16.189089">
		<name>Badener Kletterschule</name>
	</wpt>
	<wpt lat="48.020641" lon="16.190742">
		<name>Tigerblock</name>
	</wpt>
	<wpt lat="48.022683" lon="16.191959">
		<name>Siegenfelder Platte</name>
	</wpt>
	<wpt lat="48.015914" lon="16.196654">
		<name>Urtelstein, Engelstein</name>
	</wpt>
	<wpt lat="48.012862" lon="16.205252">
		<name>Burgruine Rauhenstein</name>
	</wpt>
	<wpt lat="48.015914" lon="16.196654">
		<name>Urtelstein, Engelstein</name>
	</wpt>
	<wpt lat="48.015336" lon="16.198289">
		<name>Jammerwandl</name>
	</wpt>
	<wpt lat="48.004486" lon="16.183675">
		<name>Badener Turm</name>
	</wpt>
</gpx>

