<?xml version="1.0" encoding="utf-8"?>
<gpx xmlns="http://www.topografix.com/GPX/1/1" version="1.1" creator="https://mapy.com/">
	<wpt lat="48.125527" lon="16.217523">
		<ele>361.218231</ele>
		<name>Abandoned quarry, mine</name>
	</wpt>
	<wpt lat="47.996053" lon="16.105752">
		<ele>461.992828</ele>
		<name>Bum Bum Wandl</name>
	</wpt>
	<wpt lat="47.996069" lon="16.105734">
		<ele>462.514465</ele>
		<name>Bum Bum Wandl</name>
	</wpt>
	<wpt lat="48.002540" lon="16.100090">
		<ele>494.789612</ele>
		<name>Kuhhügel</name>
	</wpt>
	<wpt lat="48.008003" lon="16.105617">
		<ele>596.626709</ele>
		<name>Scheitergraben</name>
	</wpt>
	<wpt lat="48.018994" lon="16.119438">
		<ele>585.945374</ele>
		<name>Arsch der Welt</name>
	</wpt>
	<wpt lat="48.096515" lon="16.184047">
		<ele>630.108093</ele>
		<name>Höllensteine</name>
	</wpt>
	<wpt lat="48.112115" lon="16.200473">
		<ele>455.948029</ele>
		<name>Luckete Wand</name>
	</wpt>
	<wpt lat="48.109702" lon="16.204405">
		<ele>497.542877</ele>
		<name>Jungkunststein</name>
	</wpt>
	<wpt lat="48.113728" lon="16.197626">
		<ele>448.993103</ele>
		<name>Kirchengrat</name>
	</wpt>
	<wpt lat="48.113194" lon="16.200401">
		<ele>432.730377</ele>
		<name>Raab-Felsen (435 m)</name>
	</wpt>
	<wpt lat="48.112130" lon="16.200480">
		<ele>455.647125</ele>
		<name>Luckete Wand</name>
	</wpt>
	<wpt lat="48.119135" lon="16.211473">
		<ele>373.809784</ele>
		<name>Löwenkopf</name>
	</wpt>
	<wpt lat="48.118374" lon="16.221751">
		<ele>405.233246</ele>
		<name>Waldmühle Hauptwand</name>
	</wpt>
	<wpt lat="48.117436" lon="16.223987">
		<ele>500.322205</ele>
		<name>Meije</name>
	</wpt>
	<wpt lat="48.117110" lon="16.215608">
		<ele>480.825012</ele>
		<name>Streberwände</name>
	</wpt>
	<wpt lat="48.116353" lon="16.213972">
		<ele>410.864441</ele>
		<name>Kaltenleutgebner Grat</name>
	</wpt>
	<wpt lat="48.118374" lon="16.221751">
		<ele>405.233246</ele>
		<name>Waldmühle Hauptwand</name>
	</wpt>
	<wpt lat="48.117110" lon="16.215608">
		<ele>480.825012</ele>
		<name>Streberwände</name>
	</wpt>
	<wpt lat="48.116353" lon="16.213972">
		<ele>410.864441</ele>
		<name>Kaltenleutgebner Grat</name>
	</wpt>
	<wpt lat="48.126432" lon="16.233619">
		<ele>360.821564</ele>
		<name>Kammersteingraben</name>
	</wpt>
	<wpt lat="48.128969" lon="16.250156">
		<ele>310.175415</ele>
		<name>Lutterwand</name>
	</wpt>
	<wpt lat="48.131243" lon="16.252346">
		<ele>290.627228</ele>
		<name>Mizzi-Langer-Wand</name>
	</wpt>
</gpx>

